name,province,city,area,address,telephone,uid,street_id,detail,detail_info,location,detail_url,tag,type,isin_region,手机号识别,bd09_lng,bd09_lat,行业大类,行业子类
杭州谷峰琴行,浙江省,杭州市,西湖区,浙江省杭州市西湖区尚坤云谷中心509~511室,13362186855,5b6880bf1f119d421c3894ce,5b6880bf1f119d421c3894ce,1,"{'distance': 0, 'tag': '购物;商铺', 'type': 'shopping', 'detail_url': 'http://api.map.baidu.com/place/detail?uid=5b6880bf1f119d421c3894ce&output=html&source=placeapi_v2', 'overall_rating': '4.7', 'comment_num': '7', 'shop_hours': '', 'label': '乐器行', 'children': []}","{'lat': 30.335718, 'lng': 120.077351}",http://api.map.baidu.com/place/detail?uid=5b6880bf1f119d421c3894ce&output=html&source=placeapi_v2,购物;商铺,shopping,False,1,120.077351,30.335718,购物,商铺
杭州华联(首尔店),浙江省,杭州市,西湖区,浙江省杭州市西湖区霞鸣街167号,13429331583,24b1c1b26054854845572654,24b1c1b26054854845572654,1,"{'distance': 0, 'tag': '购物;便利店', 'type': 'shopping', 'detail_url': 'http://api.map.baidu.com/place/detail?uid=24b1c1b26054854845572654&output=html&source=placeapi_v2', 'shop_hours': '', 'label': '便利店', 'children': []}","{'lat': 30.14762, 'lng': 120.077951}",http://api.map.baidu.com/place/detail?uid=24b1c1b26054854845572654&output=html&source=placeapi_v2,购物;便利店,shopping,False,1,120.077951,30.14762,购物,便利店
潇洒一身服装店(留下商贸中心店),浙江省,杭州市,西湖区,浙江省杭州市西湖区留下街107号留下商贸中心1楼,13906500286,69130523af703c75735e80af,69130523af703c75735e80af,1,"{'distance': 0, 'tag': '购物;商铺', 'type': 'shopping', 'detail_url': 'http://api.map.baidu.com/place/detail?uid=69130523af703c75735e80af&output=html&source=placeapi_v2', 'overall_rating': '0', 'comment_num': '1', 'shop_hours': '', 'label': '服装店', 'children': []}","{'lat': 30.247788, 'lng': 120.061409}",http://api.map.baidu.com/place/detail?uid=69130523af703c75735e80af&output=html&source=placeapi_v2,购物;商铺,shopping,False,1,120.061409,30.247788,购物,商铺
布凡男装(转塘店),浙江省,杭州市,西湖区,金街美地商业中心4号楼117室,18257179799,6af4097f675671b82b06ce21,None,1,"{'distance': 0, 'tag': '购物;商铺', 'type': 'shopping', 'detail_url': 'http://api.map.baidu.com/place/detail?uid=6af4097f675671b82b06ce21&output=html&source=placeapi_v2', 'shop_hours': '', 'label': '男装店', 'children': []}","{'lat': 30.154117, 'lng': 120.085637}",http://api.map.baidu.com/place/detail?uid=6af4097f675671b82b06ce21&output=html&source=placeapi_v2,购物;商铺,shopping,False,1,120.085637,30.154117,购物,商铺
秀琴金店,浙江省,杭州市,西湖区,浙江省杭州市西湖区屏基山路41号金屏大厦102-56室,13685773031,a43844bb8ceee90a02294fe3,a43844bb8ceee90a02294fe3,1,"{'distance': 0, 'tag': '购物;商铺', 'type': 'shopping', 'detail_url': 'http://api.map.baidu.com/place/detail?uid=a43844bb8ceee90a02294fe3&output=html&source=placeapi_v2', 'shop_hours': '', 'label': '黄金首饰店', 'children': []}","{'lat': 30.240874, 'lng': 120.061145}",http://api.map.baidu.com/place/detail?uid=a43844bb8ceee90a02294fe3&output=html&source=placeapi_v2,购物;商铺,shopping,False,1,120.061145,30.240874,购物,商铺
宇雪烟行(留下街分店),浙江省,杭州市,西湖区,浙江省杭州市西湖区留下大街107号1楼,15868811171,39f570f345a162462fe67b97,39f570f345a162462fe67b97,1,"{'distance': 0, 'tag': '购物;商铺', 'type': 'shopping', 'detail_url': 'http://api.map.baidu.com/place/detail?uid=39f570f345a162462fe67b97&output=html&source=placeapi_v2', 'overall_rating': '1.0', 'comment_num': '3', 'shop_hours': '', 'label': '烟酒店', 'children': []}","{'lat': 30.247914, 'lng': 120.061483}",http://api.map.baidu.com/place/detail?uid=39f570f345a162462fe67b97&output=html&source=placeapi_v2,购物;商铺,shopping,False,1,120.061483,30.247914,购物,商铺
黄金珠宝,浙江省,杭州市,西湖区,浙江省杭州市西湖区金街美地商业中心5号楼125室,13777848141,741ea089fbe3a2d5132935d7,,1,"{'distance': 4026, 'tag': '购物;商铺', 'type': 'shopping', 'detail_url': 'http://api.map.baidu.com/place/detail?uid=741ea089fbe3a2d5132935d7&output=html&source=placeapi_v2', 'shop_hours': '09:00-21:00', 'label': '黄金首饰店', 'children': []}","{'lat': 30.154253, 'lng': 120.084614}",http://api.map.baidu.com/place/detail?uid=741ea089fbe3a2d5132935d7&output=html&source=placeapi_v2,购物;商铺,shopping,False,1,120.084614,30.154253,购物,商铺
辉缘超市,浙江省,杭州市,西湖区,浙江省杭州市西湖区荆山岭路2号汇峰国际C座102-105西南方向40米,13675839021,23847289adf830da71210b58,23847289adf830da71210b58,1,"{'distance': 0, 'tag': '购物;超市', 'type': 'shopping', 'detail_url': 'http://api.map.baidu.com/place/detail?uid=23847289adf830da71210b58&output=html&source=placeapi_v2', 'shop_hours': '', 'label': '超市', 'children': []}","{'lat': 30.244805, 'lng': 120.057309}",http://api.map.baidu.com/place/detail?uid=23847289adf830da71210b58&output=html&source=placeapi_v2,购物;超市,shopping,False,1,120.057309,30.244805,购物,超市
西湖龙井狮峰山炒茶中心,浙江省,杭州市,西湖区,浙江省杭州市西湖区龙井村160号,13968129117,1ef8d2b1b04ea0018d7727c1,1ef8d2b1b04ea0018d7727c1,1,"{'distance': 0, 'tag': '购物;商铺', 'type': 'shopping', 'detail_url': 'http://api.map.baidu.com/place/detail?uid=1ef8d2b1b04ea0018d7727c1&output=html&source=placeapi_v2', 'overall_rating': '3.8', 'comment_num': '1', 'shop_hours': '', 'label': '茶叶', 'children': []}","{'lat': 30.225155, 'lng': 120.111678}",http://api.map.baidu.com/place/detail?uid=1ef8d2b1b04ea0018d7727c1&output=html&source=placeapi_v2,购物;商铺,shopping,False,1,120.111678,30.225155,购物,商铺
君丽茶铺(解百灵隐购物中心店),浙江省,杭州市,西湖区,浙江省杭州市西湖区灵隐路38号,13957160490,9fe0e49c9492c6a8c17da2c3,9fe0e49c9492c6a8c17da2c3,1,"{'distance': 0, 'tag': '购物;商铺', 'type': 'shopping', 'detail_url': 'http://api.map.baidu.com/place/detail?uid=9fe0e49c9492c6a8c17da2c3&output=html&source=placeapi_v2', 'overall_rating': '3.8', 'comment_num': '0', 'shop_hours': '', 'label': '茶叶店', 'children': []}","{'lat': 30.247444, 'lng': 120.112715}",http://api.map.baidu.com/place/detail?uid=9fe0e49c9492c6a8c17da2c3&output=html&source=placeapi_v2,购物;商铺,shopping,False,1,120.112715,30.247444,购物,商铺
贝礼超市,浙江省,杭州市,西湖区,浙江省杭州市西湖区象山路之江时代中心4幢104号,15257197289,584afec50f470453734b87f5,None,1,"{'distance': 0, 'tag': '购物;超市', 'type': 'shopping', 'detail_url': 'http://api.map.baidu.com/place/detail?uid=584afec50f470453734b87f5&output=html&source=placeapi_v2', 'shop_hours': '', 'label': '超市', 'children': []}","{'lat': 30.150753, 'lng': 120.081574}",http://api.map.baidu.com/place/detail?uid=584afec50f470453734b87f5&output=html&source=placeapi_v2,购物;超市,shopping,False,1,120.081574,30.150753,购物,超市
灵静便利店,浙江省,杭州市,西湖区,杭州市西湖区浮山街浮山商业中心14幢F2商铺7号,17706532503,d10614f899fb3671471a3214,None,1,"{'distance': 0, 'tag': '购物;便利店', 'type': 'shopping', 'detail_url': 'http://api.map.baidu.com/place/detail?uid=d10614f899fb3671471a3214&output=html&source=placeapi_v2', 'shop_hours': '', 'label': '便利店', 'children': []}","{'lat': 30.138508, 'lng': 120.095805}",http://api.map.baidu.com/place/detail?uid=d10614f899fb3671471a3214&output=html&source=placeapi_v2,购物;便利店,shopping,False,1,120.095805,30.138508,购物,便利店
三只熊婴幼儿用品店(洙泗路店),浙江省,杭州市,西湖区,浙江省杭州市西湖区转塘金街金街美地4幢102号,13777813046,ad87fc254044d04053e5c591,ad87fc254044d04053e5c591,1,"{'distance': 0, 'tag': '购物;商铺', 'type': 'shopping', 'detail_url': 'http://api.map.baidu.com/place/detail?uid=ad87fc254044d04053e5c591&output=html&source=placeapi_v2', 'overall_rating': '0', 'comment_num': '0', 'shop_hours': '', 'label': '购物', 'children': []}","{'lat': 30.15415, 'lng': 120.086097}",http://api.map.baidu.com/place/detail?uid=ad87fc254044d04053e5c591&output=html&source=placeapi_v2,购物;商铺,shopping,False,1,120.086097,30.15415,购物,商铺
Juyoja(SCPG印象城购物中心店),浙江省,杭州市,西湖区,杭州市西湖区古墩路588号SCPG印象城购物中心F1,15258889852,162d95a8f81d5e0fd42ce22c,None,1,"{'distance': 4334, 'tag': '购物;商铺', 'indoor_floor': 'F1', 'type': 'shopping', 'detail_url': 'http://api.map.baidu.com/place/detail?uid=162d95a8f81d5e0fd42ce22c&output=html&source=placeapi_v2', 'shop_hours': '10:00-22:00', 'label': '女装店', 'children': []}","{'lat': 30.299735, 'lng': 120.105455}",http://api.map.baidu.com/place/detail?uid=162d95a8f81d5e0fd42ce22c&output=html&source=placeapi_v2,购物;商铺,shopping,False,1,120.105455,30.299735,购物,商铺
鲜丰水果(洙泗路店),浙江省,杭州市,西湖区,浙江省杭州市西湖区创意路奥莱金街金街美地2号楼112号,17367138044,d50db9006c3ca5c7fd0eb0ef,d50db9006c3ca5c7fd0eb0ef,1,"{'distance': 0, 'tag': '购物;商铺', 'type': 'shopping', 'detail_url': 'http://api.map.baidu.com/place/detail?uid=d50db9006c3ca5c7fd0eb0ef&output=html&source=placeapi_v2', 'overall_rating': '3.2', 'comment_num': '1', 'shop_hours': '', 'label': '水果店', 'children': []}","{'lat': 30.153557, 'lng': 120.086061}",http://api.map.baidu.com/place/detail?uid=d50db9006c3ca5c7fd0eb0ef&output=html&source=placeapi_v2,购物;商铺,shopping,False,1,120.086061,30.153557,购物,商铺
解忧,浙江省,杭州市,西湖区,浙江省杭州市西湖区金街美地5114号,13336163953,5e941827bd3477313c9a5ed1,5e941827bd3477313c9a5ed1,1,"{'distance': 0, 'tag': '购物;商铺', 'type': 'shopping', 'detail_url': 'http://api.map.baidu.com/place/detail?uid=5e941827bd3477313c9a5ed1&output=html&source=placeapi_v2', 'overall_rating': '4.3', 'shop_hours': '', 'label': '商铺', 'children': []}","{'lat': 30.153793, 'lng': 120.085051}",http://api.map.baidu.com/place/detail?uid=5e941827bd3477313c9a5ed1&output=html&source=placeapi_v2,购物;商铺,shopping,False,1,120.085051,30.153793,购物,商铺
颜清化妆屋·生活馆(金街美地店),浙江省,杭州市,西湖区,浙江省杭州市西湖区转塘金街金街美地3号楼138号,13588223906,3a70b70ebb671f85581093e0,3a70b70ebb671f85581093e0,1,"{'distance': 0, 'tag': '购物;商铺', 'type': 'shopping', 'detail_url': 'http://api.map.baidu.com/place/detail?uid=3a70b70ebb671f85581093e0&output=html&source=placeapi_v2', 'shop_hours': '', 'label': '化妆品店', 'children': []}","{'lat': 30.154001, 'lng': 120.08519}",http://api.map.baidu.com/place/detail?uid=3a70b70ebb671f85581093e0&output=html&source=placeapi_v2,购物;商铺,shopping,False,1,120.08519,30.154001,购物,商铺
杭州留下农贸市场,浙江省,杭州市,西湖区,杭州市西湖区留下农贸市场,13675851206,db4ea2d6669658880c0a70fc,db4ea2d6669658880c0a70fc,1,"{'distance': 3212, 'tag': '购物;市场', 'type': 'shopping', 'detail_url': 'http://api.map.baidu.com/place/detail?uid=db4ea2d6669658880c0a70fc&output=html&source=placeapi_v2', 'overall_rating': '3.7', 'comment_num': '1', 'shop_hours': '05:30-19:00', 'label': '农贸市场', 'children': []}","{'lat': 30.240521, 'lng': 120.061571}",http://api.map.baidu.com/place/detail?uid=db4ea2d6669658880c0a70fc&output=html&source=placeapi_v2,购物;市场,shopping,False,1,120.061571,30.240521,购物,市场
铂德电子烟体验店,浙江省,杭州市,西湖区,杭州市西湖区古墩路588号SCPG印象城购物中心F2,15331848573,ad6a222489a1220200ec01e3,None,1,"{'distance': 0, 'tag': '购物;商铺', 'indoor_floor': 'F2', 'type': 'shopping', 'detail_url': 'http://api.map.baidu.com/place/detail?uid=ad6a222489a1220200ec01e3&output=html&source=placeapi_v2', 'comment_num': '2', 'shop_hours': '', 'label': '家用电器', 'children': []}","{'lat': 30.29973, 'lng': 120.105917}",http://api.map.baidu.com/place/detail?uid=ad6a222489a1220200ec01e3&output=html&source=placeapi_v2,购物;商铺,shopping,False,1,120.105917,30.29973,购物,商铺
吉木服装店(金街美地店),浙江省,杭州市,西湖区,浙江省杭州市西湖区洙泗路金街美地5幢105号,13588027511,57f2c51c680d56f53c9a5eec,57f2c51c680d56f53c9a5eec,1,"{'distance': 0, 'tag': '购物;商铺', 'type': 'shopping', 'detail_url': 'http://api.map.baidu.com/place/detail?uid=57f2c51c680d56f53c9a5eec&output=html&source=placeapi_v2', 'shop_hours': '', 'label': '商铺', 'children': []}","{'lat': 30.154037, 'lng': 120.08513}",http://api.map.baidu.com/place/detail?uid=57f2c51c680d56f53c9a5eec&output=html&source=placeapi_v2,购物;商铺,shopping,False,1,120.08513,30.154037,购物,商铺
诚惠烟酒(万美商务中心5号楼店),浙江省,杭州市,西湖区,浙江杭州市西湖区霞鸣街223号万美商务中心5号楼115室,13735885600,3b02115729535eeef03cbac4,None,1,"{'distance': 0, 'tag': '购物;商铺', 'type': 'shopping', 'detail_url': 'http://api.map.baidu.com/place/detail?uid=3b02115729535eeef03cbac4&output=html&source=placeapi_v2', 'shop_hours': '', 'label': '烟酒店', 'children': []}","{'lat': 30.148684, 'lng': 120.076516}",http://api.map.baidu.com/place/detail?uid=3b02115729535eeef03cbac4&output=html&source=placeapi_v2,购物;商铺,shopping,False,1,120.076516,30.148684,购物,商铺
每1天(金街美地店),浙江省,杭州市,西湖区,浙江省杭州市西湖区320国道金街美地4号楼124室,18758192898,ec2074077c1c46e9364aae4c,ec2074077c1c46e9364aae4c,1,"{'distance': 0, 'tag': '购物;便利店', 'type': 'shopping', 'detail_url': 'http://api.map.baidu.com/place/detail?uid=ec2074077c1c46e9364aae4c&output=html&source=placeapi_v2', 'overall_rating': '3.5', 'comment_num': '0', 'shop_hours': '', 'label': '便利店', 'children': []}","{'lat': 30.154165, 'lng': 120.085478}",http://api.map.baidu.com/place/detail?uid=ec2074077c1c46e9364aae4c&output=html&source=placeapi_v2,购物;便利店,shopping,False,1,120.085478,30.154165,购物,便利店
酸辣粉(解百灵隐购物中心店),浙江省,杭州市,西湖区,浙江杭州市西湖区灵隐路38号,15658020806,db1cc0f8f8c066c6e5e965f6,db1cc0f8f8c066c6e5e965f6,1,"{'distance': 0, 'tag': '美食;小吃快餐店', 'type': 'cater', 'detail_url': 'http://api.map.baidu.com/place/detail?uid=db1cc0f8f8c066c6e5e965f6&output=html&source=placeapi_v2', 'price': '19.0', 'overall_rating': '3.2', 'comment_num': '0', 'shop_hours': '', 'label': '快餐厅', 'children': []}","{'lat': 30.246884, 'lng': 120.113315}",http://api.map.baidu.com/place/detail?uid=db1cc0f8f8c066c6e5e965f6&output=html&source=placeapi_v2,美食;小吃快餐店,cater,False,1,120.113315,30.246884,美食,小吃快餐店
永恒羊绒,浙江省,杭州市,西湖区,浙江省杭州市西湖区屏基山路金屏大厦1楼,18668417517,d587d47c3f48b7f2c61b7563,d587d47c3f48b7f2c61b7563,1,"{'distance': 0, 'tag': '购物;商铺', 'type': 'shopping', 'detail_url': 'http://api.map.baidu.com/place/detail?uid=d587d47c3f48b7f2c61b7563&output=html&source=placeapi_v2', 'shop_hours': '', 'label': '商铺', 'children': []}","{'lat': 30.240528, 'lng': 120.061771}",http://api.map.baidu.com/place/detail?uid=d587d47c3f48b7f2c61b7563&output=html&source=placeapi_v2,购物;商铺,shopping,False,1,120.061771,30.240528,购物,商铺
龙井茶厂定制中心,浙江省,杭州市,西湖区,浙江省杭州市西湖区九街17号楼,15968832360,a488ad41a7df4cc2ae045778,a488ad41a7df4cc2ae045778,1,"{'distance': 0, 'tag': '购物;商铺', 'type': 'shopping', 'detail_url': 'http://api.map.baidu.com/place/detail?uid=a488ad41a7df4cc2ae045778&output=html&source=placeapi_v2', 'shop_hours': '', 'label': '茶叶店', 'children': []}","{'lat': 30.189461, 'lng': 120.064665}",http://api.map.baidu.com/place/detail?uid=a488ad41a7df4cc2ae045778&output=html&source=placeapi_v2,购物;商铺,shopping,False,1,120.064665,30.189461,购物,商铺
杭州特产西湖龙井茶庄(嘉华店),浙江省,杭州市,西湖区,浙江省杭州市西湖区杭大路15号嘉华国际商务中心2层210-3室(皇室芭蕾正对面),13967103207,40dd128d6ebba592a3acc4e2,40dd128d6ebba592a3acc4e2,1,"{'distance': 0, 'tag': '购物;商铺', 'type': 'shopping', 'detail_url': 'http://api.map.baidu.com/place/detail?uid=40dd128d6ebba592a3acc4e2&output=html&source=placeapi_v2', 'overall_rating': '4.9', 'comment_num': '24', 'shop_hours': '', 'label': '茶叶', 'children': []}","{'lat': 30.275819, 'lng': 120.147211}",http://api.map.baidu.com/place/detail?uid=40dd128d6ebba592a3acc4e2&output=html&source=placeapi_v2,购物;商铺,shopping,True,1,120.147211,30.275819,购物,商铺
欢喜花铺(西湖店),浙江省,杭州市,西湖区,浙江省杭州市西湖区杭大路15号嘉华国际商务中心2楼,15868473413,16dd4ff5da70a3ae2a02e198,None,1,"{'distance': 0, 'tag': '购物;商铺', 'type': 'shopping', 'detail_url': 'http://api.map.baidu.com/place/detail?uid=16dd4ff5da70a3ae2a02e198&output=html&source=placeapi_v2', 'overall_rating': '3.7', 'comment_num': '1', 'shop_hours': '', 'label': '花店', 'children': []}","{'lat': 30.275624, 'lng': 120.147094}",http://api.map.baidu.com/place/detail?uid=16dd4ff5da70a3ae2a02e198&output=html&source=placeapi_v2,购物;商铺,shopping,True,1,120.147094,30.275624,购物,商铺
天猫小店(合生国贸中心店),浙江省,杭州市,西湖区,浙江省杭州市西湖区天目山路325号,19941205703,7eecd49d4c932de9c336443e,7eecd49d4c932de9c336443e,1,"{'distance': 0, 'tag': '购物;商铺', 'type': 'shopping', 'detail_url': 'http://api.map.baidu.com/place/detail?uid=7eecd49d4c932de9c336443e&output=html&source=placeapi_v2', 'overall_rating': '0', 'comment_num': '0', 'shop_hours': '', 'label': '便利店', 'children': []}","{'lat': 30.269791, 'lng': 120.105964}",http://api.map.baidu.com/place/detail?uid=7eecd49d4c932de9c336443e&output=html&source=placeapi_v2,购物;商铺,shopping,True,1,120.105964,30.269791,购物,商铺
红旗体验中心(浙江裕旗外事店),浙江省,杭州市,西湖区,天目山路317号(古墩路口),18958077218,0ec93d37c30397bbcb213d52,None,1,"{'distance': 216104, 'tag': '购物', 'type': 'shopping', 'detail_url': 'http://api.map.baidu.com/place/detail?uid=0ec93d37c30397bbcb213d52&output=html&source=placeapi_v2', 'shop_hours': '', 'label': '购物', 'children': []}","{'lat': 30.271197, 'lng': 120.108906}",http://api.map.baidu.com/place/detail?uid=0ec93d37c30397bbcb213d52&output=html&source=placeapi_v2,购物,shopping,False,1,120.108906,30.271197,购物,行业缺失
珊瑚沙购物中心(枫桦路店),浙江省,杭州市,西湖区,杭州市西湖区枫桦路珊瑚沙家园南门3-6号,18258762919,5a68f62b1f7e1ca1c91b95a1,5a68f62b1f7e1ca1c91b95a1,1,"{'distance': 0, 'tag': '购物;超市', 'type': 'shopping', 'detail_url': 'http://api.map.baidu.com/place/detail?uid=5a68f62b1f7e1ca1c91b95a1&output=html&source=placeapi_v2', 'overall_rating': '3.6', 'comment_num': '0', 'shop_hours': '', 'label': '超市', 'children': []}","{'lat': 30.170415, 'lng': 120.109015}",http://api.map.baidu.com/place/detail?uid=5a68f62b1f7e1ca1c91b95a1&output=html&source=placeapi_v2,购物;超市,shopping,False,1,120.109015,30.170415,购物,超市
红谦超市,浙江省,杭州市,西湖区,浙江省杭州市西湖区沙秀路99号,15557187399,e7b39a9ea757db47631c6700,None,1,"{'distance': 0, 'tag': '购物;超市', 'type': 'shopping', 'detail_url': 'http://api.map.baidu.com/place/detail?uid=e7b39a9ea757db47631c6700&output=html&source=placeapi_v2', 'shop_hours': '', 'label': '超市', 'children': []}","{'lat': 30.177584, 'lng': 120.114068}",http://api.map.baidu.com/place/detail?uid=e7b39a9ea757db47631c6700&output=html&source=placeapi_v2,购物;超市,shopping,False,1,120.114068,30.177584,购物,超市
舒适100服务中心,浙江省,杭州市,西湖区,杭州市西湖区余杭塘路799号五洲国际广场F1,18268836655,fb2478ce5e801e3fabf0cd72,fb2478ce5e801e3fabf0cd72,1,"{'distance': 433761, 'tag': '汽车服务', 'type': 'life', 'detail_url': 'http://api.map.baidu.com/place/detail?uid=fb2478ce5e801e3fabf0cd72&output=html&source=placeapi_v2', 'image_num': '4', 'shop_hours': '', 'label': '汽车服务', 'children': []}","{'lat': 30.301707, 'lng': 120.103832}",http://api.map.baidu.com/place/detail?uid=fb2478ce5e801e3fabf0cd72&output=html&source=placeapi_v2,汽车服务,life,True,1,120.103832,30.301707,汽车服务,行业缺失
春忆舍成人情趣用品店,浙江省,杭州市,西湖区,浙江省杭州市西湖区五洲国际广场3号楼922室,19857049569,933f2d000163580fb05c6af4,933f2d000163580fb05c6af4,1,"{'distance': 433798, 'tag': '购物;商铺', 'type': 'shopping', 'detail_url': 'http://api.map.baidu.com/place/detail?uid=933f2d000163580fb05c6af4&output=html&source=placeapi_v2', 'overall_rating': '5', 'comment_num': '3', 'shop_hours': '', 'label': '成人用品', 'children': []}","{'lat': 30.300585, 'lng': 120.102545}",http://api.map.baidu.com/place/detail?uid=933f2d000163580fb05c6af4&output=html&source=placeapi_v2,购物;商铺,shopping,True,1,120.102545,30.300585,购物,商铺
西湖工夫茶,浙江省,杭州市,西湖区,浙江省杭州市西湖区上城埭路193号,18868708663,722e33b49954b95a725e808a,722e33b49954b95a725e808a,1,"{'distance': 3687, 'tag': '美食;茶座', 'type': 'shopping', 'detail_url': 'http://api.map.baidu.com/place/detail?uid=722e33b49954b95a725e808a&output=html&source=placeapi_v2', 'shop_hours': '08:30-22:00', 'label': '茶叶', 'children': []}","{'lat': 30.190324, 'lng': 120.064463}",http://api.map.baidu.com/place/detail?uid=722e33b49954b95a725e808a&output=html&source=placeapi_v2,美食;茶座,shopping,False,1,120.064463,30.190324,美食,茶座
视野联行眼镜(转塘店),浙江省,杭州市,西湖区,浙江省杭州市西湖区镇中路金街美地商务中心4号楼1105室,13221078691,e69ce8a3a821d27914948e2a,None,1,"{'distance': 0, 'tag': '购物;商铺', 'type': 'shopping', 'detail_url': 'http://api.map.baidu.com/place/detail?uid=e69ce8a3a821d27914948e2a&output=html&source=placeapi_v2', 'overall_rating': '4.9', 'comment_num': '2', 'shop_hours': '', 'label': '眼镜店', 'children': []}","{'lat': 30.153968, 'lng': 120.085454}",http://api.map.baidu.com/place/detail?uid=e69ce8a3a821d27914948e2a&output=html&source=placeapi_v2,购物;商铺,shopping,False,1,120.085454,30.153968,购物,商铺
欣悦大药房(枫桦路1号支路店),浙江省,杭州市,西湖区,杭州市西湖区枫桦路珊瑚沙家园珊瑚沙购物中心,18305861128,56f1cd710dd6f3caa6da39d2,56f1cd710dd6f3caa6da39d2,1,"{'distance': 0, 'tag': '医疗;药店', 'type': 'hospital', 'detail_url': 'http://api.map.baidu.com/place/detail?uid=56f1cd710dd6f3caa6da39d2&output=html&source=placeapi_v2', 'overall_rating': '0', 'image_num': '17', 'comment_num': '0', 'shop_hours': '', 'label': '药店', 'children': []}","{'lat': 30.170475, 'lng': 120.109123}",http://api.map.baidu.com/place/detail?uid=56f1cd710dd6f3caa6da39d2&output=html&source=placeapi_v2,医疗;药店,hospital,False,1,120.109123,30.170475,医疗,药店
西湖龙井茶灵隐炒制中心,浙江省,杭州市,西湖区,浙江省杭州市西湖区灵隐路白乐桥6号,13107722668,0d93188b9907e7e00c0e6bcb,0d93188b9907e7e00c0e6bcb,1,"{'distance': 3734, 'tag': '购物;商铺', 'type': 'shopping', 'detail_url': 'http://api.map.baidu.com/place/detail?uid=0d93188b9907e7e00c0e6bcb&output=html&source=placeapi_v2', 'shop_hours': '09:00-23:00', 'label': '茶叶店', 'children': []}","{'lat': 30.249172, 'lng': 120.112763}",http://api.map.baidu.com/place/detail?uid=0d93188b9907e7e00c0e6bcb&output=html&source=placeapi_v2,购物;商铺,shopping,False,1,120.112763,30.249172,购物,商铺
汽车油漆工业漆,浙江省,杭州市,西湖区,浙江省杭州市西湖区古灵慈路69号,15990041215,30d230f59867741cf62310c4,30d230f59867741cf62310c4,1,"{'distance': 0, 'tag': '购物;家居建材', 'type': 'shopping', 'detail_url': 'http://api.map.baidu.com/place/detail?uid=30d230f59867741cf62310c4&output=html&source=placeapi_v2', 'shop_hours': '', 'label': '家居店', 'children': []}","{'lat': 30.252485, 'lng': 120.062013}",http://api.map.baidu.com/place/detail?uid=30d230f59867741cf62310c4&output=html&source=placeapi_v2,购物;家居建材,shopping,False,1,120.062013,30.252485,购物,家居建材
余钞酒业(美上商业中心店),浙江省,杭州市,西湖区,杭州市西湖区转塘街道杜家浦路1号美上商业中心1号楼北中心1007号,13083967981,6fa5bae3c4f1e987ad045701,6fa5bae3c4f1e987ad045701,1,"{'distance': 0, 'tag': '购物;商铺', 'type': 'shopping', 'detail_url': 'http://api.map.baidu.com/place/detail?uid=6fa5bae3c4f1e987ad045701&output=html&source=placeapi_v2', 'overall_rating': '5', 'comment_num': '1', 'shop_hours': '', 'label': '烟酒店', 'children': []}","{'lat': 30.152661, 'lng': 120.088194}",http://api.map.baidu.com/place/detail?uid=6fa5bae3c4f1e987ad045701&output=html&source=placeapi_v2,购物;商铺,shopping,False,1,120.088194,30.152661,购物,商铺
弘信烟酒城(金街美地店),浙江省,杭州市,西湖区,浙江省杭州市西湖区云河路与洙泗路交叉口金街美地1号楼1层底商,13588133588,7e496f57085fe516c909f08d,7e496f57085fe516c909f08d,1,"{'distance': 0, 'tag': '购物;商铺', 'type': 'shopping', 'detail_url': 'http://api.map.baidu.com/place/detail?uid=7e496f57085fe516c909f08d&output=html&source=placeapi_v2', 'overall_rating': '3.2', 'comment_num': '0', 'shop_hours': '', 'label': '烟酒店', 'children': []}","{'lat': 30.152865, 'lng': 120.085215}",http://api.map.baidu.com/place/detail?uid=7e496f57085fe516c909f08d&output=html&source=placeapi_v2,购物;商铺,shopping,False,1,120.085215,30.152865,购物,商铺
清雅烟酒(金街美地店),浙江省,杭州市,西湖区,浙江省杭州市西湖区转塘金街金街美地5号楼119室,15869012712,81b02e4666492568a6c7565d,81b02e4666492568a6c7565d,1,"{'distance': 0, 'tag': '购物;商铺', 'type': 'shopping', 'detail_url': 'http://api.map.baidu.com/place/detail?uid=81b02e4666492568a6c7565d&output=html&source=placeapi_v2', 'overall_rating': '1', 'comment_num': '2', 'shop_hours': '', 'label': '烟酒店', 'children': []}","{'lat': 30.154222, 'lng': 120.084697}",http://api.map.baidu.com/place/detail?uid=81b02e4666492568a6c7565d&output=html&source=placeapi_v2,购物;商铺,shopping,False,1,120.084697,30.154222,购物,商铺
熙美诚品(金街美地店),浙江省,杭州市,西湖区,浙江省杭州市西湖区转塘金街金街美地2楼,18758132013,274200d2e6f8a04ead31e5b8,274200d2e6f8a04ead31e5b8,1,"{'distance': 0, 'tag': '购物;其他', 'type': 'shopping', 'detail_url': 'http://api.map.baidu.com/place/detail?uid=274200d2e6f8a04ead31e5b8&output=html&source=placeapi_v2', 'overall_rating': '3.8', 'comment_num': '0', 'shop_hours': '', 'label': '购物', 'children': []}","{'lat': 30.153495, 'lng': 120.085261}",http://api.map.baidu.com/place/detail?uid=274200d2e6f8a04ead31e5b8&output=html&source=placeapi_v2,购物;其他,shopping,False,1,120.085261,30.153495,购物,其他
窗帘直销(留下商贸中心店),浙江省,杭州市,西湖区,杭州市西湖区留下大街87号留下商贸中心1层,13606502547,a535c4df063894ddeb1e97f8,a535c4df063894ddeb1e97f8,1,"{'distance': 0, 'tag': '购物;家居建材', 'type': 'shopping', 'detail_url': 'http://api.map.baidu.com/place/detail?uid=a535c4df063894ddeb1e97f8&output=html&source=placeapi_v2', 'overall_rating': '5', 'comment_num': '5', 'shop_hours': '', 'label': '家居建材', 'children': []}","{'lat': 30.24783, 'lng': 120.059827}",http://api.map.baidu.com/place/detail?uid=a535c4df063894ddeb1e97f8&output=html&source=placeapi_v2,购物;家居建材,shopping,False,1,120.059827,30.24783,购物,家居建材
中国黄金珠宝,浙江省,杭州市,西湖区,浙江省杭州市西湖区创意路164号万美商务中心5-127商铺,13645718699,60fa03dc4e2bd5640ab93a9a,60fa03dc4e2bd5640ab93a9a,1,"{'distance': 3020, 'tag': '购物;商铺', 'type': 'shopping', 'detail_url': 'http://api.map.baidu.com/place/detail?uid=60fa03dc4e2bd5640ab93a9a&output=html&source=placeapi_v2', 'shop_hours': '10:00-22:00', 'label': '黄金首饰店', 'children': []}","{'lat': 30.148696, 'lng': 120.076047}",http://api.map.baidu.com/place/detail?uid=60fa03dc4e2bd5640ab93a9a&output=html&source=placeapi_v2,购物;商铺,shopping,False,1,120.076047,30.148696,购物,商铺
小时光女装(金街美地店),浙江省,杭州市,西湖区,浙江省杭州市西湖区云河路b区2楼,13967184197,287d365ca5386fc5b54f5488,287d365ca5386fc5b54f5488,1,"{'distance': 0, 'tag': '购物;商铺', 'type': 'shopping', 'detail_url': 'http://api.map.baidu.com/place/detail?uid=287d365ca5386fc5b54f5488&output=html&source=placeapi_v2', 'shop_hours': '', 'label': '女装店', 'children': []}","{'lat': 30.153508, 'lng': 120.085935}",http://api.map.baidu.com/place/detail?uid=287d365ca5386fc5b54f5488&output=html&source=placeapi_v2,购物;商铺,shopping,False,1,120.085935,30.153508,购物,商铺
锅圈食汇火锅烧烤食材超市(创意路店),浙江省,杭州市,西湖区,浙江省杭州市西湖区创意路转塘街道万美商务中心3号楼104室,13515710216,89ac0aacfcf499e1b23c81a0,89ac0aacfcf499e1b23c81a0,1,"{'distance': 0, 'tag': '购物;商铺', 'type': 'shopping', 'detail_url': 'http://api.map.baidu.com/place/detail?uid=89ac0aacfcf499e1b23c81a0&output=html&source=placeapi_v2', 'overall_rating': '3.8', 'shop_hours': '', 'label': '商铺', 'children': []}","{'lat': 30.148035, 'lng': 120.075952}",http://api.map.baidu.com/place/detail?uid=89ac0aacfcf499e1b23c81a0&output=html&source=placeapi_v2,购物;商铺,shopping,False,1,120.075952,30.148035,购物,商铺
德国威乐水泵(西园九路店),浙江省,杭州市,西湖区,浙江省杭州市西湖区西园九路8号3幢G座312室,15958017766,f30ba77e27c22b87a8f72911,f30ba77e27c22b87a8f72911,1,"{'distance': 0, 'tag': '购物;家居建材', 'type': 'shopping', 'detail_url': 'http://api.map.baidu.com/place/detail?uid=f30ba77e27c22b87a8f72911&output=html&source=placeapi_v2', 'shop_hours': '', 'label': '五金店', 'children': []}","{'lat': 30.323704, 'lng': 120.069405}",http://api.map.baidu.com/place/detail?uid=f30ba77e27c22b87a8f72911&output=html&source=placeapi_v2,购物;家居建材,shopping,False,1,120.069405,30.323704,购物,家居建材
澄澄果业,浙江省,杭州市,西湖区,浙江省杭州市西湖区320国道金街美地5号楼124室,18758875716,163300cb81d9e268aecb6630,163300cb81d9e268aecb6630,1,"{'distance': 0, 'tag': '购物', 'type': 'shopping', 'detail_url': 'http://api.map.baidu.com/place/detail?uid=163300cb81d9e268aecb6630&output=html&source=placeapi_v2', 'overall_rating': '3.8', 'comment_num': '0', 'shop_hours': '', 'label': '商铺', 'children': []}","{'lat': 30.154241, 'lng': 120.084543}",http://api.map.baidu.com/place/detail?uid=163300cb81d9e268aecb6630&output=html&source=placeapi_v2,购物,shopping,False,1,120.084543,30.154241,购物,行业缺失
阿根伯甘栗(万美店),浙江省,杭州市,西湖区,杭州市西湖区创意路万美商务中心内,15824104713,91e78352cb029447d23ce36e,91e78352cb029447d23ce36e,1,"{'distance': 0, 'tag': '购物', 'type': 'shopping', 'detail_url': 'http://api.map.baidu.com/place/detail?uid=91e78352cb029447d23ce36e&output=html&source=placeapi_v2', 'overall_rating': '3.5', 'shop_hours': '', 'label': '购物', 'children': []}","{'lat': 30.147753, 'lng': 120.077291}",http://api.map.baidu.com/place/detail?uid=91e78352cb029447d23ce36e&output=html&source=placeapi_v2,购物,shopping,False,1,120.077291,30.147753,购物,行业缺失
方兴烟店,浙江省,杭州市,西湖区,杭州市西湖区双浦镇周浦街道周浦社区卫生服务中心对面,15988876108,0a0e15bfe1199654ce04ef2b,0a0e15bfe1199654ce04ef2b,1,"{'distance': 0, 'tag': '购物;商铺', 'type': 'shopping', 'detail_url': 'http://api.map.baidu.com/place/detail?uid=0a0e15bfe1199654ce04ef2b&output=html&source=placeapi_v2', 'shop_hours': '', 'label': '烟酒店', 'children': []}","{'lat': 30.096219, 'lng': 120.079869}",http://api.map.baidu.com/place/detail?uid=0a0e15bfe1199654ce04ef2b&output=html&source=placeapi_v2,购物;商铺,shopping,False,1,120.079869,30.096219,购物,商铺
舒婷果业(万美店),浙江省,杭州市,西湖区,浙江省杭州市西湖区霞鸣街235号万美商务中心,15868804111,03ee74120382340aa4c756e8,03ee74120382340aa4c756e8,1,"{'distance': 0, 'tag': '购物;商铺', 'type': 'shopping', 'detail_url': 'http://api.map.baidu.com/place/detail?uid=03ee74120382340aa4c756e8&output=html&source=placeapi_v2', 'overall_rating': '3.6', 'shop_hours': '', 'label': '水果店', 'children': []}","{'lat': 30.148742, 'lng': 120.076138}",http://api.map.baidu.com/place/detail?uid=03ee74120382340aa4c756e8&output=html&source=placeapi_v2,购物;商铺,shopping,False,1,120.076138,30.148742,购物,商铺
明康汇生鲜菜市(金都新城店),浙江省,杭州市,西湖区,浙江省杭州市西湖区文三西路326号,15103453692,1e618663e937edc2bea82203,1e618663e937edc2bea82203,1,"{'distance': 0, 'tag': '购物;超市', 'type': 'shopping', 'detail_url': 'http://api.map.baidu.com/place/detail?uid=1e618663e937edc2bea82203&output=html&source=placeapi_v2', 'overall_rating': '0', 'comment_num': '1', 'shop_hours': '', 'label': '果蔬超市', 'children': []}","{'lat': 30.282597, 'lng': 120.113813}",http://api.map.baidu.com/place/detail?uid=1e618663e937edc2bea82203&output=html&source=placeapi_v2,购物;超市,shopping,False,1,120.113813,30.282597,购物,超市
储裕自选商场(来仁街店),浙江省,杭州市,西湖区,浙江省杭州市西湖区来仁街78号,13336080676,428f87cdd998c1d9e856fa24,428f87cdd998c1d9e856fa24,1,"{'distance': 0, 'tag': '购物;便利店', 'type': 'shopping', 'detail_url': 'http://api.map.baidu.com/place/detail?uid=428f87cdd998c1d9e856fa24&output=html&source=placeapi_v2', 'shop_hours': '', 'label': '便利店', 'children': []}","{'lat': 30.344764, 'lng': 120.071683}",http://api.map.baidu.com/place/detail?uid=428f87cdd998c1d9e856fa24&output=html&source=placeapi_v2,购物;便利店,shopping,False,1,120.071683,30.344764,购物,便利店
果蔬生鲜超市,浙江省,杭州市,西湖区,浙江省杭州市西湖区创意路万美商务中心西南侧约90米,15068851831,7b1990ef2c37837e5abbbc9c,None,1,"{'distance': 3233, 'tag': '购物;超市', 'type': 'shopping', 'detail_url': 'http://api.map.baidu.com/place/detail?uid=7b1990ef2c37837e5abbbc9c&output=html&source=placeapi_v2', 'shop_hours': '10:00-22:00', 'label': '果蔬超市', 'children': []}","{'lat': 30.147154, 'lng': 120.074625}",http://api.map.baidu.com/place/detail?uid=7b1990ef2c37837e5abbbc9c&output=html&source=placeapi_v2,购物;超市,shopping,False,1,120.074625,30.147154,购物,超市
中旅紫金名门营销展示中心,浙江省,杭州市,西湖区,浙江省杭州市西湖区振华路10号,13291892743,8028995e32704d3472210b81,,1,"{'distance': 3939, 'tag': '购物;家居建材', 'type': 'shopping', 'detail_url': 'http://api.map.baidu.com/place/detail?uid=8028995e32704d3472210b81&output=html&source=placeapi_v2', 'shop_hours': '10:00-21:30', 'label': '装饰店', 'children': []}","{'lat': 30.323284, 'lng': 120.091948}",http://api.map.baidu.com/place/detail?uid=8028995e32704d3472210b81&output=html&source=placeapi_v2,购物;家居建材,shopping,False,1,120.091948,30.323284,购物,家居建材
晋帛家纺(创意路店),浙江省,杭州市,西湖区,浙江省杭州市西湖区创意路万美商务中心2-103号,"13107724321,13588878206",5ad41621aeb79a8aeee4a50f,5ad41621aeb79a8aeee4a50f,1,"{'distance': 0, 'tag': '购物;家居建材', 'type': 'shopping', 'detail_url': 'http://api.map.baidu.com/place/detail?uid=5ad41621aeb79a8aeee4a50f&output=html&source=placeapi_v2', 'overall_rating': '0', 'comment_num': '2', 'shop_hours': '', 'label': '家纺店', 'children': []}","{'lat': 30.147517, 'lng': 120.075317}",http://api.map.baidu.com/place/detail?uid=5ad41621aeb79a8aeee4a50f&output=html&source=placeapi_v2,购物;家居建材,shopping,False,1,120.075317,30.147517,购物,家居建材
家友超市(丰盛九玺店),浙江省,杭州市,西湖区,浙江省杭州市西湖区池华街332号尚坤云谷中心二期9幢1楼,15757191983,c17f7126f44ae0179e95de05,c17f7126f44ae0179e95de05,1,"{'distance': 0, 'tag': '购物;超市', 'type': 'shopping', 'detail_url': 'http://api.map.baidu.com/place/detail?uid=c17f7126f44ae0179e95de05&output=html&source=placeapi_v2', 'shop_hours': '', 'label': '超市', 'children': []}","{'lat': 30.335781, 'lng': 120.07706}",http://api.map.baidu.com/place/detail?uid=c17f7126f44ae0179e95de05&output=html&source=placeapi_v2,购物;超市,shopping,False,1,120.07706,30.335781,购物,超市
周金生珠宝(西河口店),浙江省,杭州市,西湖区,杭州市西湖区西河口三墩镇中心幼儿园西侧约30米,13634101686,f271497e276ffdecc26c14a3,f271497e276ffdecc26c14a3,1,"{'distance': 0, 'tag': '购物;商铺', 'type': 'shopping', 'detail_url': 'http://api.map.baidu.com/place/detail?uid=f271497e276ffdecc26c14a3&output=html&source=placeapi_v2', 'shop_hours': '', 'label': '黄金首饰店', 'children': []}","{'lat': 30.325587, 'lng': 120.08809}",http://api.map.baidu.com/place/detail?uid=f271497e276ffdecc26c14a3&output=html&source=placeapi_v2,购物;商铺,shopping,False,1,120.08809,30.325587,购物,商铺
玫瑰情缘花店,浙江省,杭州市,西湖区,浙江省杭州市西湖区厚仁路309号,15157165687,6fd63bb0f138e56536b06c74,6fd63bb0f138e56536b06c74,1,"{'distance': 0, 'tag': '购物;商铺', 'type': 'shopping', 'detail_url': 'http://api.map.baidu.com/place/detail?uid=6fd63bb0f138e56536b06c74&output=html&source=placeapi_v2', 'overall_rating': '3.6', 'comment_num': '1', 'shop_hours': '', 'label': '花店', 'children': []}","{'lat': 30.337712, 'lng': 120.085329}",http://api.map.baidu.com/place/detail?uid=6fd63bb0f138e56536b06c74&output=html&source=placeapi_v2,购物;商铺,shopping,False,1,120.085329,30.337712,购物,商铺
云栖小镇新零售体验中心,浙江省,杭州市,西湖区,杭州市西湖区河山街369号云栖小镇,18506830955,3e5dcb2315fbc03e3ae4a6bf,None,1,"{'distance': 0, 'tag': '购物;其他', 'type': 'shopping', 'detail_url': 'http://api.map.baidu.com/place/detail?uid=3e5dcb2315fbc03e3ae4a6bf&output=html&source=placeapi_v2', 'overall_rating': '3.6', 'comment_num': '0', 'shop_hours': '', 'label': '购物', 'children': []}","{'lat': 30.133683, 'lng': 120.091151}",http://api.map.baidu.com/place/detail?uid=3e5dcb2315fbc03e3ae4a6bf&output=html&source=placeapi_v2,购物;其他,shopping,False,1,120.091151,30.133683,购物,其他
鑫盛烟酒行(灯彩街店),浙江省,杭州市,西湖区,杭州市西湖区三墩镇灯彩街汇禾领府6号楼底商,15727875588,05e7427d9babb0ec593ac83f,05e7427d9babb0ec593ac83f,1,"{'distance': 0, 'tag': '购物;商铺', 'type': 'shopping', 'detail_url': 'http://api.map.baidu.com/place/detail?uid=05e7427d9babb0ec593ac83f&output=html&source=placeapi_v2', 'overall_rating': '3.5', 'comment_num': '0', 'shop_hours': '', 'label': '烟酒店', 'children': []}","{'lat': 30.328057, 'lng': 120.077263}",http://api.map.baidu.com/place/detail?uid=05e7427d9babb0ec593ac83f&output=html&source=placeapi_v2,购物;商铺,shopping,False,1,120.077263,30.328057,购物,商铺
珊瑚沙社区居家养老服务照料中心,浙江省,杭州市,西湖区,浙江省杭州市西湖区枫桦路珊瑚沙家园南门3-6,None,95c52d836359929bfd0eb03b,None,1,"{'distance': 3184, 'tag': '政府机构', 'navi_location': {'lng': 120.108507174, 'lat': 30.171451031603}, 'type': 'life', 'detail_url': 'http://api.map.baidu.com/place/detail?uid=95c52d836359929bfd0eb03b&output=html&source=placeapi_v2', 'image_num': '1', 'shop_hours': '08:00-22:00', 'label': '行政单位', 'children': []}","{'lat': 30.171509, 'lng': 120.108495}",http://api.map.baidu.com/place/detail?uid=95c52d836359929bfd0eb03b&output=html&source=placeapi_v2,政府机构,life,False,0,120.108495,30.171509,政府机构,行业缺失
山下湖珍珠直销商场,浙江省,杭州市,西湖区,浙江省杭州市西湖区下满觉陇59号,None,8156c28fa30c1548ae080f05,8156c28fa30c1548ae080f05,1,"{'distance': 0, 'tag': '购物;商铺', 'type': 'shopping', 'detail_url': 'http://api.map.baidu.com/place/detail?uid=8156c28fa30c1548ae080f05&output=html&source=placeapi_v2', 'overall_rating': '3.6', 'comment_num': '8', 'shop_hours': '', 'label': '珠宝店', 'children': []}","{'lat': 30.22571, 'lng': 120.1354}",http://api.map.baidu.com/place/detail?uid=8156c28fa30c1548ae080f05&output=html&source=placeapi_v2,购物;商铺,shopping,False,0,120.1354,30.22571,购物,商铺
联华超市(莲花店)-北门,浙江省,杭州市,西湖区,杭州市西湖区莲花街333号附近,None,a3688f01d3dc6bdf72210b97,a3688f01d3dc6bdf72210b97,1,"{'distance': 0, 'tag': '出入口;门', 'type': 'life', 'detail_url': 'http://api.map.baidu.com/place/detail?uid=a3688f01d3dc6bdf72210b97&output=html&source=placeapi_v2', 'shop_hours': '', 'label': '门', 'children': []}","{'lat': 30.276141, 'lng': 120.105782}",http://api.map.baidu.com/place/detail?uid=a3688f01d3dc6bdf72210b97&output=html&source=placeapi_v2,出入口;门,life,False,0,120.105782,30.276141,出入口,门
云荷烟酒,浙江省,杭州市,西湖区,浙江省杭州市西湖区沙秀路和昌云潮美誉商务中心1号楼120室,None,fb6619932478ce89ee74f84d,None,1,"{'distance': 0, 'tag': '购物;商铺', 'type': 'shopping', 'detail_url': 'http://api.map.baidu.com/place/detail?uid=fb6619932478ce89ee74f84d&output=html&source=placeapi_v2', 'shop_hours': '', 'label': '烟酒店', 'children': []}","{'lat': 30.17497, 'lng': 120.115225}",http://api.map.baidu.com/place/detail?uid=fb6619932478ce89ee74f84d&output=html&source=placeapi_v2,购物;商铺,shopping,False,0,120.115225,30.17497,购物,商铺
宁波保税区进口商品直销中心(宋城店),浙江省,杭州市,西湖区,杭州市西湖区之江路148号白宫对面宋城内,None,8255ad06e853a66a38221c6f,8255ad06e853a66a38221c6f,1,"{'distance': 0, 'tag': '购物;其他', 'type': 'shopping', 'detail_url': 'http://api.map.baidu.com/place/detail?uid=8255ad06e853a66a38221c6f&output=html&source=placeapi_v2', 'shop_hours': '', 'label': '购物', 'children': []}","{'lat': 30.176086, 'lng': 120.105549}",http://api.map.baidu.com/place/detail?uid=8255ad06e853a66a38221c6f&output=html&source=placeapi_v2,购物;其他,shopping,False,0,120.105549,30.176086,购物,其他
丝绸商场(博物馆店),浙江省,杭州市,西湖区,浙江杭州市西湖区玉皇山路73-1号,None,ae132cb5b17811dac2f1cf57,ae132cb5b17811dac2f1cf57,1,"{'distance': 0, 'tag': '购物;其他', 'type': 'shopping', 'detail_url': 'http://api.map.baidu.com/place/detail?uid=ae132cb5b17811dac2f1cf57&output=html&source=placeapi_v2', 'overall_rating': '3.6', 'comment_num': '0', 'shop_hours': '', 'label': '购物', 'children': []}","{'lat': 30.228659, 'lng': 120.158305}",http://api.map.baidu.com/place/detail?uid=ae132cb5b17811dac2f1cf57&output=html&source=placeapi_v2,购物;其他,shopping,False,0,120.158305,30.228659,购物,其他
集合商店,浙江省,杭州市,西湖区,浙江杭州市西湖区文一路294号集合商场3楼,None,d5be531bd38938af132935d9,None,1,"{'distance': 3321, 'tag': '购物;便利店', 'type': 'shopping', 'detail_url': 'http://api.map.baidu.com/place/detail?uid=d5be531bd38938af132935d9&output=html&source=placeapi_v2', 'shop_hours': '', 'label': '便利店', 'children': []}","{'lat': 30.294682, 'lng': 120.130746}",http://api.map.baidu.com/place/detail?uid=d5be531bd38938af132935d9&output=html&source=placeapi_v2,购物;便利店,shopping,False,0,120.130746,30.294682,购物,便利店
永辉超市(杭新店),浙江省,杭州市,西湖区,浙江省杭州市西湖区洙泗路113号金街美地1楼,(0571)87672625,28ce6efd1b8e0ff077026958,28ce6efd1b8e0ff077026958,1,"{'distance': 0, 'tag': '购物;超市', 'type': 'shopping', 'detail_url': 'http://api.map.baidu.com/place/detail?uid=28ce6efd1b8e0ff077026958&output=html&source=placeapi_v2', 'price': '0.0', 'overall_rating': '4.6', 'comment_num': '8', 'shop_hours': '', 'label': '大型超市', 'children': []}","{'lat': 30.153206, 'lng': 120.085377}",http://api.map.baidu.com/place/detail?uid=28ce6efd1b8e0ff077026958&output=html&source=placeapi_v2,购物;超市,shopping,False,0,120.085377,30.153206,购物,超市
电动车商场,浙江省,杭州市,西湖区,杭州市西湖区留和路留和春天公寓东北侧,None,69ba4d05a795bce53b221c54,69ba4d05a795bce53b221c54,1,"{'distance': 2007, 'tag': '购物;商铺', 'type': 'shopping', 'detail_url': 'http://api.map.baidu.com/place/detail?uid=69ba4d05a795bce53b221c54&output=html&source=placeapi_v2', 'shop_hours': '', 'label': '电动车店', 'children': []}","{'lat': 30.241951, 'lng': 120.059167}",http://api.map.baidu.com/place/detail?uid=69ba4d05a795bce53b221c54&output=html&source=placeapi_v2,购物;商铺,shopping,False,0,120.059167,30.241951,购物,商铺
龙坞茶叶交易中心展示厅,浙江省,杭州市,西湖区,杭州市西湖区留转线杭州市转塘派出所北侧约170米,None,9962f16f5ca5a46e0d3dda4a,None,1,"{'distance': 0, 'tag': '购物;商铺', 'type': 'shopping', 'detail_url': 'http://api.map.baidu.com/place/detail?uid=9962f16f5ca5a46e0d3dda4a&output=html&source=placeapi_v2', 'shop_hours': '', 'label': '茶叶', 'children': []}","{'lat': 30.189981, 'lng': 120.063754}",http://api.map.baidu.com/place/detail?uid=9962f16f5ca5a46e0d3dda4a&output=html&source=placeapi_v2,购物;商铺,shopping,False,0,120.063754,30.189981,购物,商铺
杭州之江度假区娟娟便利店,浙江省,杭州市,西湖区,浙江省杭州市西湖区沙秀路云潮美誉商务中心2幢108室,None,0e7f78231c2f92caed74f895,None,1,"{'distance': 0, 'tag': '购物;便利店', 'type': 'shopping', 'detail_url': 'http://api.map.baidu.com/place/detail?uid=0e7f78231c2f92caed74f895&output=html&source=placeapi_v2', 'shop_hours': '', 'label': '便利店', 'children': []}","{'lat': 30.17594, 'lng': 120.115228}",http://api.map.baidu.com/place/detail?uid=0e7f78231c2f92caed74f895&output=html&source=placeapi_v2,购物;便利店,shopping,False,0,120.115228,30.17594,购物,便利店
二月半茶行,浙江省,杭州市,西湖区,浙江省杭州市西湖区龙坞茶叶交易中心11号楼119号,None,2b27bb7ee1ed75be9d9d6817,None,1,"{'distance': 0, 'tag': '购物;商铺', 'type': 'shopping', 'detail_url': 'http://api.map.baidu.com/place/detail?uid=2b27bb7ee1ed75be9d9d6817&output=html&source=placeapi_v2', 'shop_hours': '', 'label': '茶叶店', 'children': []}","{'lat': 30.190288, 'lng': 120.064325}",http://api.map.baidu.com/place/detail?uid=2b27bb7ee1ed75be9d9d6817&output=html&source=placeapi_v2,购物;商铺,shopping,False,0,120.064325,30.190288,购物,商铺
龙坞茶叶交易中心,浙江省,杭州市,西湖区,杭州市西湖区留转线龙坞茶镇九街10-11号楼,None,dd4f2c1f0b1c16dc9f95de00,dd4f2c1f0b1c16dc9f95de00,1,"{'distance': 0, 'tag': '购物;其他', 'type': 'shopping', 'detail_url': 'http://api.map.baidu.com/place/detail?uid=dd4f2c1f0b1c16dc9f95de00&output=html&source=placeapi_v2', 'overall_rating': '0', 'comment_num': '1', 'shop_hours': '', 'label': '茶叶店', 'children': []}","{'lat': 30.18979, 'lng': 120.06361}",http://api.map.baidu.com/place/detail?uid=dd4f2c1f0b1c16dc9f95de00&output=html&source=placeapi_v2,购物;其他,shopping,False,0,120.06361,30.18979,购物,其他
百脑汇电脑城(教工路店),浙江省,杭州市,西湖区,浙江杭州市西湖区教工路23号,None,f1446c0117d7740f9d9d68f8,f1446c0117d7740f9d9d68f8,1,"{'distance': 0, 'tag': '购物;家电数码', 'type': 'shopping', 'detail_url': 'http://api.map.baidu.com/place/detail?uid=f1446c0117d7740f9d9d68f8&output=html&source=placeapi_v2', 'price': '0.0', 'overall_rating': '1.8', 'comment_num': '75', 'shop_hours': '', 'label': '电子城', 'children': []}","{'lat': 30.280601, 'lng': 120.142379}",http://api.map.baidu.com/place/detail?uid=f1446c0117d7740f9d9d68f8&output=html&source=placeapi_v2,购物;家电数码,shopping,True,0,120.142379,30.280601,购物,家电数码
六和塔百货商场,浙江省,杭州市,西湖区,浙江省杭州市西湖区之江路87号,(0571)86591758,2cc3c8e872b875d74d2fdf15,2cc3c8e872b875d74d2fdf15,1,"{'distance': 0, 'tag': '购物;商铺', 'type': 'shopping', 'detail_url': 'http://api.map.baidu.com/place/detail?uid=2cc3c8e872b875d74d2fdf15&output=html&source=placeapi_v2', 'overall_rating': '3.6', 'comment_num': '4', 'shop_hours': '', 'label': '商铺', 'children': []}","{'lat': 30.202727, 'lng': 120.139214}",http://api.map.baidu.com/place/detail?uid=2cc3c8e872b875d74d2fdf15&output=html&source=placeapi_v2,购物;商铺,shopping,False,0,120.139214,30.202727,购物,商铺
之江购物商厦,浙江省,杭州市,西湖区,杭州市西湖区转塘里街68号,None,4bde5a801b2c59116fa3cc74,4bde5a801b2c59116fa3cc74,1,"{'distance': 3911, 'tag': '购物;购物中心', 'navi_location': {'lng': 120.08477089268, 'lat': 30.166887612117}, 'type': 'shopping', 'detail_url': 'http://api.map.baidu.com/place/detail?uid=4bde5a801b2c59116fa3cc74&output=html&source=placeapi_v2', 'overall_rating': '3.5', 'comment_num': '2', 'shop_hours': '08:00-17:30', 'label': '购物中心', 'children': []}","{'lat': 30.167267, 'lng': 120.084971}",http://api.map.baidu.com/place/detail?uid=4bde5a801b2c59116fa3cc74&output=html&source=placeapi_v2,购物;购物中心,shopping,False,0,120.084971,30.167267,购物,购物中心
银泰百货(杭州之江店),浙江省,杭州市,西湖区,浙江省杭州市西湖区珊瑚沙路49号,(0571)81906588,59a4498224a05cd944572675,,1,"{'distance': 2924, 'tag': '购物;购物中心', 'navi_location': {'lng': 120.10842848693, 'lat': 30.174360788989}, 'type': 'shopping', 'detail_url': 'http://api.map.baidu.com/place/detail?uid=59a4498224a05cd944572675&output=html&source=placeapi_v2', 'overall_rating': '4.1', 'comment_num': '11', 'shop_hours': '10:00-22:00', 'label': '购物中心', 'children': []}","{'lat': 30.173976, 'lng': 120.108791}",http://api.map.baidu.com/place/detail?uid=59a4498224a05cd944572675&output=html&source=placeapi_v2,购物;购物中心,shopping,False,0,120.108791,30.173976,购物,购物中心
东山农贸市场优质农产品配送中心,浙江省,杭州市,西湖区,外东山弄66号,None,648f62dcfbd9e14aed74f89a,648f62dcfbd9e14aed74f89a,1,"{'distance': 942, 'tag': '购物;商铺', 'type': 'shopping', 'detail_url': 'http://api.map.baidu.com/place/detail?uid=648f62dcfbd9e14aed74f89a&output=html&source=placeapi_v2', 'shop_hours': '', 'label': '农贸', 'children': []}","{'lat': 30.26595, 'lng': 120.133922}",http://api.map.baidu.com/place/detail?uid=648f62dcfbd9e14aed74f89a&output=html&source=placeapi_v2,购物;商铺,shopping,True,0,120.133922,30.26595,购物,商铺
香港高朗洋服,浙江省,杭州市,西湖区,浙江省杭州市西湖区曙光路122号,None,6856068977f6891cd8131897,6856068977f6891cd8131897,1,"{'distance': 0, 'tag': '购物;商铺', 'type': 'shopping', 'detail_url': 'http://api.map.baidu.com/place/detail?uid=6856068977f6891cd8131897&output=html&source=placeapi_v2', 'overall_rating': '3.5', 'shop_hours': '', 'label': '商铺', 'children': []}","{'lat': 30.272709, 'lng': 120.146893}",http://api.map.baidu.com/place/detail?uid=6856068977f6891cd8131897&output=html&source=placeapi_v2,购物;商铺,shopping,True,0,120.146893,30.272709,购物,商铺
黄龙缘商场,浙江省,杭州市,西湖区,杭州市西湖区黄龙路黄龙体育中心,None,947716b861adc60a400245a1,,1,"{'distance': 657, 'tag': '购物;超市', 'type': 'shopping', 'detail_url': 'http://api.map.baidu.com/place/detail?uid=947716b861adc60a400245a1&output=html&source=placeapi_v2', 'shop_hours': '', 'label': '商铺', 'children': []}","{'lat': 30.271907, 'lng': 120.142181}",http://api.map.baidu.com/place/detail?uid=947716b861adc60a400245a1&output=html&source=placeapi_v2,购物;超市,shopping,True,0,120.142181,30.271907,购物,超市
金街美地商业中心-5号楼,浙江省,杭州市,西湖区,杭州市西湖区灵美路与镇中路交叉路口往东北约100米金街美地商业中心5号楼(象山大厦南侧约100米),None,493cd58abf30a894ae080f46,493cd58abf30a894ae080f46,1,"{'distance': 0, 'tag': '房地产;内部楼栋', 'type': 'house', 'detail_url': 'http://api.map.baidu.com/place/detail?uid=493cd58abf30a894ae080f46&output=html&source=placeapi_v2', 'shop_hours': '', 'children': []}","{'lat': 30.154086, 'lng': 120.084875}",http://api.map.baidu.com/place/detail?uid=493cd58abf30a894ae080f46&output=html&source=placeapi_v2,房地产;内部楼栋,house,False,0,120.084875,30.154086,房地产,内部楼栋
同人商务楼-房产展示中心,浙江省,杭州市,西湖区,保俶路88号同人商务楼,None,5a691a5f59e8c5d709a8d426,,1,"{'distance': 819, 'tag': '生活服务;房产中介机构', 'type': 'life', 'detail_url': 'http://api.map.baidu.com/place/detail?uid=5a691a5f59e8c5d709a8d426&output=html&source=placeapi_v2', 'image_num': '3', 'shop_hours': '', 'label': '购物', 'children': []}","{'lat': 30.270833, 'lng': 120.156206}",http://api.map.baidu.com/place/detail?uid=5a691a5f59e8c5d709a8d426&output=html&source=placeapi_v2,生活服务;房产中介机构,life,True,0,120.156206,30.270833,生活服务,房产中介机构
杭州太琨珠宝有限公司,浙江省,杭州市,西湖区,浙江省杭州市西湖区杭大路15号嘉华国际商务中心地上7层815-1室,None,4df5cad4b0e4f548cd04ef66,None,1,"{'distance': 0, 'tag': '购物;商铺', 'type': 'shopping', 'detail_url': 'http://api.map.baidu.com/place/detail?uid=4df5cad4b0e4f548cd04ef66&output=html&source=placeapi_v2', 'shop_hours': '', 'label': '珠宝店', 'children': []}","{'lat': 30.275679, 'lng': 120.147148}",http://api.map.baidu.com/place/detail?uid=4df5cad4b0e4f548cd04ef66&output=html&source=placeapi_v2,购物;商铺,shopping,True,0,120.147148,30.275679,购物,商铺
全家便利店(玉古路店),浙江省,杭州市,西湖区,浙江省杭州市西湖区浙大路38号浙大玉泉校区9号宿舍楼1楼,4008200996,c5f63e117ef2d2f47dc876ac,c5f63e117ef2d2f47dc876ac,1,"{'distance': 0, 'tag': '购物;超市', 'type': 'shopping', 'detail_url': 'http://api.map.baidu.com/place/detail?uid=c5f63e117ef2d2f47dc876ac&output=html&source=placeapi_v2', 'overall_rating': '4.0', 'comment_num': '0', 'shop_hours': '', 'label': '便利店', 'children': []}","{'lat': 30.27091, 'lng': 120.131963}",http://api.map.baidu.com/place/detail?uid=c5f63e117ef2d2f47dc876ac&output=html&source=placeapi_v2,购物;超市,shopping,False,0,120.131963,30.27091,购物,超市
问茶中心,浙江省,杭州市,西湖区,浙江省杭州市西湖区翁家山2号,(0571)87981277,35fdc4a76ed77488ae080f76,35fdc4a76ed77488ae080f76,1,"{'distance': 0, 'tag': '购物;商铺', 'type': 'shopping', 'detail_url': 'http://api.map.baidu.com/place/detail?uid=35fdc4a76ed77488ae080f76&output=html&source=placeapi_v2', 'overall_rating': '2.9', 'comment_num': '7', 'shop_hours': '', 'label': '茶叶', 'children': []}","{'lat': 30.225095, 'lng': 120.125122}",http://api.map.baidu.com/place/detail?uid=35fdc4a76ed77488ae080f76&output=html&source=placeapi_v2,购物;商铺,shopping,False,0,120.125122,30.225095,购物,商铺
SCPG印象城购物中心-7分甜餐饮处,浙江省,杭州市,西湖区,浙江省杭州市西湖区古墩路588号印象城(古墩路店)F1,None,d38b022350f7eb03b9df8fb0,None,1,"{'distance': 0, 'tag': '美食;其他', 'indoor_floor': 'F1', 'type': 'cater', 'detail_url': 'http://api.map.baidu.com/place/detail?uid=d38b022350f7eb03b9df8fb0&output=html&source=placeapi_v2', 'shop_hours': '', 'label': '中餐馆', 'children': []}","{'lat': 30.300007, 'lng': 120.105219}",http://api.map.baidu.com/place/detail?uid=d38b022350f7eb03b9df8fb0&output=html&source=placeapi_v2,美食;其他,cater,False,0,120.105219,30.300007,美食,其他
悦刻RELX专卖店(印象城古墩路店),浙江省,杭州市,西湖区,浙江省杭州市西湖区古墩路588号1楼海底捞旁中岛柜,None,0d4920dfbe7107b94054d755,0d4920dfbe7107b94054d755,1,"{'distance': 0, 'tag': '购物;商铺', 'indoor_floor': 'F1', 'type': 'shopping', 'detail_url': 'http://api.map.baidu.com/place/detail?uid=0d4920dfbe7107b94054d755&output=html&source=placeapi_v2', 'overall_rating': '5', 'comment_num': '3', 'shop_hours': '', 'label': '商铺', 'children': []}","{'lat': 30.299806, 'lng': 120.105716}",http://api.map.baidu.com/place/detail?uid=0d4920dfbe7107b94054d755&output=html&source=placeapi_v2,购物;商铺,shopping,False,0,120.105716,30.299806,购物,商铺
格兰富水泵服务中心,浙江省,杭州市,西湖区,浙江省杭州市西湖区古翠路10-2号,(0571)85024104,76c9e6c7b2d9a3067169d3b2,76c9e6c7b2d9a3067169d3b2,1,"{'distance': 0, 'tag': '购物', 'type': 'shopping', 'detail_url': 'http://api.map.baidu.com/place/detail?uid=76c9e6c7b2d9a3067169d3b2&output=html&source=placeapi_v2', 'shop_hours': '', 'label': '公司', 'children': []}","{'lat': 30.279619, 'lng': 120.12679}",http://api.map.baidu.com/place/detail?uid=76c9e6c7b2d9a3067169d3b2&output=html&source=placeapi_v2,购物,shopping,True,0,120.12679,30.279619,购物,行业缺失
金银花综合商店,浙江省,杭州市,西湖区,浙江省杭州市西湖区文三西路568号,None,2a23f80ce693cef0c9c3db74,2a23f80ce693cef0c9c3db74,1,"{'distance': 0, 'tag': '购物;商铺', 'type': 'shopping', 'detail_url': 'http://api.map.baidu.com/place/detail?uid=2a23f80ce693cef0c9c3db74&output=html&source=placeapi_v2', 'overall_rating': '0', 'comment_num': '2', 'shop_hours': '', 'label': '便利店', 'children': []}","{'lat': 30.282124, 'lng': 120.104932}",http://api.map.baidu.com/place/detail?uid=2a23f80ce693cef0c9c3db74&output=html&source=placeapi_v2,购物;商铺,shopping,True,0,120.104932,30.282124,购物,商铺
恒锐体育,浙江省,杭州市,西湖区,黄龙体育中心老年馆3楼,None,cdb5935050a3cd3b2b201a0a,None,1,"{'distance': 216606, 'tag': '购物;商铺', 'type': 'shopping', 'detail_url': 'http://api.map.baidu.com/place/detail?uid=cdb5935050a3cd3b2b201a0a&output=html&source=placeapi_v2', 'shop_hours': '', 'label': '体育用品', 'children': []}","{'lat': 30.274072, 'lng': 120.137888}",http://api.map.baidu.com/place/detail?uid=cdb5935050a3cd3b2b201a0a&output=html&source=placeapi_v2,购物;商铺,shopping,False,0,120.137888,30.274072,购物,商铺
杭州通信中心,浙江省,杭州市,西湖区,浙江省杭州市西湖区塘苗路1号3幢,None,85bc1663b51e376da8175a2c,85bc1663b51e376da8175a2c,1,"{'distance': 215635, 'tag': '购物', 'type': 'shopping', 'detail_url': 'http://api.map.baidu.com/place/detail?uid=85bc1663b51e376da8175a2c&output=html&source=placeapi_v2', 'shop_hours': '', 'label': '购物', 'children': []}","{'lat': 30.28116, 'lng': 120.130186}",http://api.map.baidu.com/place/detail?uid=85bc1663b51e376da8175a2c&output=html&source=placeapi_v2,购物,shopping,True,0,120.130186,30.28116,购物,行业缺失
中青文化,浙江省,杭州市,西湖区,浙江省杭州市西湖区黄龙体育中心黄龙训练馆1号门1楼211室,None,0bc404bbe8f6086fb04c4910,None,1,"{'distance': 216477, 'tag': '购物;市场', 'type': 'shopping', 'detail_url': 'http://api.map.baidu.com/place/detail?uid=0bc404bbe8f6086fb04c4910&output=html&source=placeapi_v2', 'shop_hours': '', 'label': '批发市场', 'children': []}","{'lat': 30.275448, 'lng': 120.138497}",http://api.map.baidu.com/place/detail?uid=0bc404bbe8f6086fb04c4910&output=html&source=placeapi_v2,购物;市场,shopping,False,0,120.138497,30.275448,购物,市场
罗森便利店(西溪路店),浙江省,杭州市,西湖区,浙江省杭州市西湖区西溪路527-17号,(0571)85261731,97338e7baf9e0b1f220262ce,97338e7baf9e0b1f220262ce,1,"{'distance': 0, 'tag': '购物;便利店', 'type': 'shopping', 'detail_url': 'http://api.map.baidu.com/place/detail?uid=97338e7baf9e0b1f220262ce&output=html&source=placeapi_v2', 'overall_rating': '3.8', 'comment_num': '0', 'shop_hours': '', 'label': '便利店', 'children': []}","{'lat': 30.271948, 'lng': 120.114516}",http://api.map.baidu.com/place/detail?uid=97338e7baf9e0b1f220262ce&output=html&source=placeapi_v2,购物;便利店,shopping,False,0,120.114516,30.271948,购物,便利店
浙江大学(玉泉校区)-自选超市,浙江省,杭州市,西湖区,杭州市西湖区浙大路38号浙江大学(玉泉校区)内,None,4b245c714d628238c909f0af,4b245c714d628238c909f0af,1,"{'distance': 0, 'tag': '购物;超市', 'type': 'shopping', 'detail_url': 'http://api.map.baidu.com/place/detail?uid=4b245c714d628238c909f0af&output=html&source=placeapi_v2', 'shop_hours': '', 'label': '超市', 'children': []}","{'lat': 30.272522, 'lng': 120.131931}",http://api.map.baidu.com/place/detail?uid=4b245c714d628238c909f0af&output=html&source=placeapi_v2,购物;超市,shopping,False,0,120.131931,30.272522,购物,超市
浙江大学(玉泉校区)-自助售货机,浙江省,杭州市,西湖区,杭州市西湖区浙大路38号浙江大学(玉泉校区)内,None,24a9b3a3a057b63ca21de9cd,24a9b3a3a057b63ca21de9cd,1,"{'distance': 216753, 'tag': '购物;其他', 'type': 'shopping', 'detail_url': 'http://api.map.baidu.com/place/detail?uid=24a9b3a3a057b63ca21de9cd&output=html&source=placeapi_v2', 'shop_hours': '', 'children': []}","{'lat': 30.270449, 'lng': 120.12947}",http://api.map.baidu.com/place/detail?uid=24a9b3a3a057b63ca21de9cd&output=html&source=placeapi_v2,购物;其他,shopping,False,0,120.12947,30.270449,购物,其他
浙大商贸求是便利(知泉路店),浙江省,杭州市,西湖区,浙江省杭州市西湖区浙大路38号,None,17a02bb8ba88a8a3118824ca,17a02bb8ba88a8a3118824ca,1,"{'distance': 216641, 'tag': '购物;便利店', 'type': 'shopping', 'detail_url': 'http://api.map.baidu.com/place/detail?uid=17a02bb8ba88a8a3118824ca&output=html&source=placeapi_v2', 'overall_rating': '3.6', 'comment_num': '1', 'shop_hours': '', 'label': '便利店', 'children': []}","{'lat': 30.271849, 'lng': 120.13079}",http://api.map.baidu.com/place/detail?uid=17a02bb8ba88a8a3118824ca&output=html&source=placeapi_v2,购物;便利店,shopping,False,0,120.13079,30.271849,购物,便利店
联华超市停车场-入口,浙江省,杭州市,西湖区,杭州市西湖区莲花街333号-南1号楼附近,None,4d546e9d4eecc0d74afc8d8e,4d546e9d4eecc0d74afc8d8e,1,"{'distance': 0, 'tag': '出入口;停车场出入口', 'type': 'life', 'detail_url': 'http://api.map.baidu.com/place/detail?uid=4d546e9d4eecc0d74afc8d8e&output=html&source=placeapi_v2', 'shop_hours': '', 'label': '停车场入口', 'children': []}","{'lat': 30.275794, 'lng': 120.106714}",http://api.map.baidu.com/place/detail?uid=4d546e9d4eecc0d74afc8d8e&output=html&source=placeapi_v2,出入口;停车场出入口,life,False,0,120.106714,30.275794,出入口,停车场出入口
绿城之江一号One Mall邻里商业中心,浙江省,杭州市,西湖区,浙江省杭州市西湖区横桥路朗郡庭园东对面,None,bb6830837298d5e8616858c6,bb6830837298d5e8616858c6,1,"{'distance': 0, 'tag': '购物;购物中心', 'type': 'shopping', 'detail_url': 'http://api.map.baidu.com/place/detail?uid=bb6830837298d5e8616858c6&output=html&source=placeapi_v2', 'overall_rating': '0', 'comment_num': '0', 'shop_hours': '', 'label': '购物中心', 'children': []}","{'lat': 30.168885, 'lng': 120.078366}",http://api.map.baidu.com/place/detail?uid=bb6830837298d5e8616858c6&output=html&source=placeapi_v2,购物;购物中心,shopping,False,0,120.078366,30.168885,购物,购物中心
江楠花艺鲜花店,浙江省,杭州市,西湖区,浙江省杭州市西湖区双浦镇之悦商业中心12号楼116室,None,24058b3f9f61fcc042d63eb1,None,1,"{'distance': 0, 'tag': '购物;商铺', 'type': 'shopping', 'detail_url': 'http://api.map.baidu.com/place/detail?uid=24058b3f9f61fcc042d63eb1&output=html&source=placeapi_v2', 'overall_rating': '3.1', 'comment_num': '1', 'shop_hours': '', 'label': '花店', 'children': []}","{'lat': 30.15705, 'lng': 120.123806}",http://api.map.baidu.com/place/detail?uid=24058b3f9f61fcc042d63eb1&output=html&source=placeapi_v2,购物;商铺,shopping,True,0,120.123806,30.15705,购物,商铺
米娅MIYA,浙江省,杭州市,西湖区,浙江省杭州市西湖区龙田街象山大厦2幢10楼2单元,(0571)89719943,233f44b7e4baf39b4c3a598d,233f44b7e4baf39b4c3a598d,1,"{'distance': 0, 'tag': '公司企业;其他', 'type': 'shopping', 'detail_url': 'http://api.map.baidu.com/place/detail?uid=233f44b7e4baf39b4c3a598d&output=html&source=placeapi_v2', 'shop_hours': '', 'label': '商铺', 'children': []}","{'lat': 30.154646, 'lng': 120.084761}",http://api.map.baidu.com/place/detail?uid=233f44b7e4baf39b4c3a598d&output=html&source=placeapi_v2,公司企业;其他,shopping,False,0,120.084761,30.154646,公司企业,其他
昆仑·西城广场-西门,浙江省,杭州市,西湖区,浙江省杭州市西湖区文二西路551号西城广场GF,None,fc5624948a095e64d81318ad,fc5624948a095e64d81318ad,1,"{'distance': 0, 'tag': '出入口;门', 'type': 'life', 'detail_url': 'http://api.map.baidu.com/place/detail?uid=fc5624948a095e64d81318ad&output=html&source=placeapi_v2', 'shop_hours': '', 'label': '门', 'children': []}","{'lat': 30.285841, 'lng': 120.100655}",http://api.map.baidu.com/place/detail?uid=fc5624948a095e64d81318ad&output=html&source=placeapi_v2,出入口;门,life,False,0,120.100655,30.285841,出入口,门
新东方(镇中路金街美地教学点),浙江省,杭州市,西湖区,浙江省杭州市西湖区转塘街道金街美地5号楼2楼5号楼201~224室,4000888866,121c50401fa2ef09343a71e2,121c50401fa2ef09343a71e2,1,"{'distance': 0, 'tag': '教育培训;培训机构', 'type': 'education', 'detail_url': 'http://api.map.baidu.com/place/detail?uid=121c50401fa2ef09343a71e2&output=html&source=placeapi_v2', 'overall_rating': '5', 'comment_num': '3', 'shop_hours': '', 'label': '培训机构', 'children': []}","{'lat': 30.154171, 'lng': 120.084524}",http://api.map.baidu.com/place/detail?uid=121c50401fa2ef09343a71e2&output=html&source=placeapi_v2,教育培训;培训机构,education,False,0,120.084524,30.154171,教育培训,培训机构
小燕子(金街美地店),浙江省,杭州市,西湖区,云河路与洙泗路交叉口金街美地5号楼2层,None,b95db2e341f6dae732f71d7a,b95db2e341f6dae732f71d7a,1,"{'distance': 0, 'tag': '购物;商铺', 'type': 'shopping', 'detail_url': 'http://api.map.baidu.com/place/detail?uid=b95db2e341f6dae732f71d7a&output=html&source=placeapi_v2', 'shop_hours': '', 'label': '商铺', 'children': []}","{'lat': 30.1535, 'lng': 120.085161}",http://api.map.baidu.com/place/detail?uid=b95db2e341f6dae732f71d7a&output=html&source=placeapi_v2,购物;商铺,shopping,False,0,120.085161,30.1535,购物,商铺
玲珑网咖,浙江省,杭州市,西湖区,浙江省杭州市西湖区灵美路金街美地5号楼508室,None,bf04c2b90386a9a086420edf,bf04c2b90386a9a086420edf,1,"{'distance': 3995, 'tag': '休闲娱乐;网吧', 'type': 'life', 'detail_url': 'http://api.map.baidu.com/place/detail?uid=bf04c2b90386a9a086420edf&output=html&source=placeapi_v2', 'overall_rating': '3.5', 'image_num': '5', 'comment_num': '2', 'shop_hours': '00:00-24:00', 'label': '网吧', 'children': []}","{'lat': 30.15418, 'lng': 120.084976}",http://api.map.baidu.com/place/detail?uid=bf04c2b90386a9a086420edf&output=html&source=placeapi_v2,休闲娱乐;网吧,life,False,0,120.084976,30.15418,休闲娱乐,网吧
舒婷果业(金街美地店),浙江省,杭州市,西湖区,浙江省杭州市西湖区转塘直街金街美地2号楼110室,(0571)87788337,fbb0857063eb44a2c26c14df,fbb0857063eb44a2c26c14df,1,"{'distance': 0, 'tag': '购物;商铺', 'type': 'shopping', 'detail_url': 'http://api.map.baidu.com/place/detail?uid=fbb0857063eb44a2c26c14df&output=html&source=placeapi_v2', 'overall_rating': '3.1', 'comment_num': '4', 'shop_hours': '', 'label': '水果店', 'children': []}","{'lat': 30.153587, 'lng': 120.086115}",http://api.map.baidu.com/place/detail?uid=fbb0857063eb44a2c26c14df&output=html&source=placeapi_v2,购物;商铺,shopping,False,0,120.086115,30.153587,购物,商铺
杭州好物茶生活工作室,浙江省,杭州市,西湖区,浙江省杭州市西湖区美上商业中心1号楼四楼,None,5cf958aab23f43fb1b94c690,None,1,"{'distance': 0, 'tag': '购物;商铺', 'type': 'shopping', 'detail_url': 'http://api.map.baidu.com/place/detail?uid=5cf958aab23f43fb1b94c690&output=html&source=placeapi_v2', 'shop_hours': '', 'label': '商铺', 'children': []}","{'lat': 30.152998, 'lng': 120.088392}",http://api.map.baidu.com/place/detail?uid=5cf958aab23f43fb1b94c690&output=html&source=placeapi_v2,购物;商铺,shopping,False,0,120.088392,30.152998,购物,商铺
左邻右舍(金街美地店),浙江省,杭州市,西湖区,浙江省杭州市西湖区美院南路美院南街89号5号楼103号,None,c1b597576437a8a226d2bb18,c1b597576437a8a226d2bb18,1,"{'distance': 0, 'tag': '购物;便利店', 'type': 'shopping', 'detail_url': 'http://api.map.baidu.com/place/detail?uid=c1b597576437a8a226d2bb18&output=html&source=placeapi_v2', 'overall_rating': '3.5', 'comment_num': '0', 'shop_hours': '', 'label': '便利店', 'children': []}","{'lat': 30.154169, 'lng': 120.085116}",http://api.map.baidu.com/place/detail?uid=c1b597576437a8a226d2bb18&output=html&source=placeapi_v2,购物;便利店,shopping,False,0,120.085116,30.154169,购物,便利店
DR,浙江省,杭州市,西湖区,杭州市西湖区创意路万美商务中心,None,0c3e3dd70ae51b7011882484,None,1,"{'distance': 0, 'tag': '购物', 'type': 'shopping', 'detail_url': 'http://api.map.baidu.com/place/detail?uid=0c3e3dd70ae51b7011882484&output=html&source=placeapi_v2', 'shop_hours': '', 'label': '商铺', 'children': []}","{'lat': 30.148013, 'lng': 120.076574}",http://api.map.baidu.com/place/detail?uid=0c3e3dd70ae51b7011882484&output=html&source=placeapi_v2,购物,shopping,False,0,120.076574,30.148013,购物,行业缺失
锋行手机店,浙江省,杭州市,西湖区,浙江省杭州市西湖区转塘金街金街美地3号楼103室,None,2da6b19cd291bd07f82213a5,2da6b19cd291bd07f82213a5,1,"{'distance': 0, 'tag': '购物', 'type': 'shopping', 'detail_url': 'http://api.map.baidu.com/place/detail?uid=2da6b19cd291bd07f82213a5&output=html&source=placeapi_v2', 'shop_hours': '', 'label': '家电数码', 'children': []}","{'lat': 30.153773, 'lng': 120.084573}",http://api.map.baidu.com/place/detail?uid=2da6b19cd291bd07f82213a5&output=html&source=placeapi_v2,购物,shopping,False,0,120.084573,30.153773,购物,行业缺失
无限极(梦蝶街店),浙江省,杭州市,西湖区,浙江省杭州市西湖区创意路万美商务中心7号楼,None,63488861c7e4c278223bf2af,63488861c7e4c278223bf2af,1,"{'distance': 0, 'tag': '购物;商铺', 'type': 'shopping', 'detail_url': 'http://api.map.baidu.com/place/detail?uid=63488861c7e4c278223bf2af&output=html&source=placeapi_v2', 'shop_hours': '', 'label': '商铺', 'children': []}","{'lat': 30.153627, 'lng': 120.077611}",http://api.map.baidu.com/place/detail?uid=63488861c7e4c278223bf2af&output=html&source=placeapi_v2,购物;商铺,shopping,False,0,120.077611,30.153627,购物,商铺
全季超市,浙江省,杭州市,西湖区,杭州市西湖区创意路万美商务中心西南侧约110米,None,ea5ebd1ec0d490b84e776ea1,None,1,"{'distance': 3219, 'tag': '购物;超市', 'type': 'shopping', 'detail_url': 'http://api.map.baidu.com/place/detail?uid=ea5ebd1ec0d490b84e776ea1&output=html&source=placeapi_v2', 'overall_rating': '3.8', 'shop_hours': '08:00-23:00', 'label': '超市', 'children': []}","{'lat': 30.147247, 'lng': 120.07472}",http://api.map.baidu.com/place/detail?uid=ea5ebd1ec0d490b84e776ea1&output=html&source=placeapi_v2,购物;超市,shopping,False,0,120.07472,30.147247,购物,超市
闺秘呼吸内衣体验店(杭新路店),浙江省,杭州市,西湖区,浙江省杭州市西湖区金街美地商业中心4号楼103号,None,7d1b1d74f7770f504207c1e9,7d1b1d74f7770f504207c1e9,1,"{'distance': 0, 'tag': '购物;商铺', 'type': 'shopping', 'detail_url': 'http://api.map.baidu.com/place/detail?uid=7d1b1d74f7770f504207c1e9&output=html&source=placeapi_v2', 'shop_hours': '', 'label': '内衣店', 'children': []}","{'lat': 30.154115, 'lng': 120.086096}",http://api.map.baidu.com/place/detail?uid=7d1b1d74f7770f504207c1e9&output=html&source=placeapi_v2,购物;商铺,shopping,False,0,120.086096,30.154115,购物,商铺
杭州曼奇尼文化用品有限公司,浙江省,杭州市,西湖区,000浙江杭州西湖区转塘街道金街美地5号楼,None,81e65dcd975aba39c7f50d1e,81e65dcd975aba39c7f50d1e,1,"{'distance': 0, 'tag': '公司企业', 'type': 'enterprise', 'detail_url': 'http://api.map.baidu.com/place/detail?uid=81e65dcd975aba39c7f50d1e&output=html&source=placeapi_v2', 'shop_hours': '', 'label': '公司', 'children': []}","{'lat': 30.154085, 'lng': 120.08487}",http://api.map.baidu.com/place/detail?uid=81e65dcd975aba39c7f50d1e&output=html&source=placeapi_v2,公司企业,enterprise,False,0,120.08487,30.154085,公司企业,行业缺失
红珊瑚真皮鞋类,浙江省,杭州市,西湖区,浙江省杭州市西湖区四号2楼,None,0a09d8c3841b649b82a12e7a,,1,"{'distance': 3897, 'tag': '购物;商铺', 'type': 'shopping', 'detail_url': 'http://api.map.baidu.com/place/detail?uid=0a09d8c3841b649b82a12e7a&output=html&source=placeapi_v2', 'shop_hours': '', 'label': '商铺', 'children': []}","{'lat': 30.154475, 'lng': 120.085936}",http://api.map.baidu.com/place/detail?uid=0a09d8c3841b649b82a12e7a&output=html&source=placeapi_v2,购物;商铺,shopping,False,0,120.085936,30.154475,购物,商铺
煊哥数码,浙江省,杭州市,西湖区,浙江省杭州市西湖区灵美路金街美地5号楼107室,None,72826bac4739933214c8f606,None,1,"{'distance': 0, 'tag': '购物;家电数码', 'type': 'shopping', 'detail_url': 'http://api.map.baidu.com/place/detail?uid=72826bac4739933214c8f606&output=html&source=placeapi_v2', 'shop_hours': '', 'label': '家电数码', 'children': []}","{'lat': 30.154114, 'lng': 120.085008}",http://api.map.baidu.com/place/detail?uid=72826bac4739933214c8f606&output=html&source=placeapi_v2,购物;家电数码,shopping,False,0,120.085008,30.154114,购物,家电数码
烟酒商行,浙江省,杭州市,西湖区,杭州市西湖区创意路万美商务中心西南侧约60米,None,ced184e404876b2c9e82ea56,None,1,"{'distance': 3165, 'tag': '购物;商铺', 'type': 'shopping', 'detail_url': 'http://api.map.baidu.com/place/detail?uid=ced184e404876b2c9e82ea56&output=html&source=placeapi_v2', 'shop_hours': '10:00-22:00', 'label': '烟酒店', 'children': []}","{'lat': 30.147409, 'lng': 120.075279}",http://api.map.baidu.com/place/detail?uid=ced184e404876b2c9e82ea56&output=html&source=placeapi_v2,购物;商铺,shopping,False,0,120.075279,30.147409,购物,商铺
万美摩登中心,浙江省,杭州市,西湖区,浙江省杭州市西湖区鸡山路2号楼,(0571)81956188,13cea66432fd6d08213bf20d,13cea66432fd6d08213bf20d,1,"{'distance': 0, 'tag': '购物;其他', 'type': 'shopping', 'detail_url': 'http://api.map.baidu.com/place/detail?uid=13cea66432fd6d08213bf20d&output=html&source=placeapi_v2', 'shop_hours': '', 'label': '购物', 'children': []}","{'lat': 30.148507, 'lng': 120.076448}",http://api.map.baidu.com/place/detail?uid=13cea66432fd6d08213bf20d&output=html&source=placeapi_v2,购物;其他,shopping,False,0,120.076448,30.148507,购物,其他
杭州云栖银泰城,浙江省,杭州市,西湖区,浙江省杭州市西湖区转塘镇象山路209号,None,184e551136c0b3521676431c,184e551136c0b3521676431c,1,"{'distance': 0, 'tag': '购物;购物中心', 'type': 'shopping', 'detail_url': 'http://api.map.baidu.com/place/detail?uid=184e551136c0b3521676431c&output=html&source=placeapi_v2', 'overall_rating': '1', 'comment_num': '3', 'shop_hours': '', 'label': '购物中心', 'children': []}","{'lat': 30.151382, 'lng': 120.080658}",http://api.map.baidu.com/place/detail?uid=184e551136c0b3521676431c&output=html&source=placeapi_v2,购物;购物中心,shopping,False,0,120.080658,30.151382,购物,购物中心
菓铭花艺(媞亚加盟店),浙江省,杭州市,西湖区,浙江省杭州市西湖区霞鸣街183号万美商务中心4-105菓,None,d65ce9b67ea7bc00a1d230ca,d65ce9b67ea7bc00a1d230ca,1,"{'distance': 0, 'tag': '购物;商铺', 'type': 'shopping', 'detail_url': 'http://api.map.baidu.com/place/detail?uid=d65ce9b67ea7bc00a1d230ca&output=html&source=placeapi_v2', 'overall_rating': '3.6', 'comment_num': '3', 'shop_hours': '', 'label': '花店', 'children': []}","{'lat': 30.148068, 'lng': 120.077154}",http://api.map.baidu.com/place/detail?uid=d65ce9b67ea7bc00a1d230ca&output=html&source=placeapi_v2,购物;商铺,shopping,False,0,120.077154,30.148068,购物,商铺
Waylon H首饰定制体验中心,浙江省,杭州市,西湖区,凤凰创意国际创意园A4-3-107,None,31fbf88903e6d8e4c2f1cf14,None,1,"{'distance': 3766, 'tag': '生活服务;宠物服务', 'type': 'life', 'detail_url': 'http://api.map.baidu.com/place/detail?uid=31fbf88903e6d8e4c2f1cf14&output=html&source=placeapi_v2', 'image_num': '3', 'comment_num': '3', 'shop_hours': '10:00-22:00', 'label': '宠物店', 'children': []}","{'lat': 30.141638, 'lng': 120.072767}",http://api.map.baidu.com/place/detail?uid=31fbf88903e6d8e4c2f1cf14&output=html&source=placeapi_v2,生活服务;宠物服务,life,False,0,120.072767,30.141638,生活服务,宠物服务
金街眼镜,浙江省,杭州市,西湖区,杭州市西湖区洙泗路金街美地,None,0ee245ce6df53556a20464ef,0ee245ce6df53556a20464ef,1,"{'distance': 3935, 'tag': '购物;商铺', 'type': 'shopping', 'detail_url': 'http://api.map.baidu.com/place/detail?uid=0ee245ce6df53556a20464ef&output=html&source=placeapi_v2', 'comment_num': '0', 'shop_hours': '07:30-22:00', 'label': '眼镜店', 'children': []}","{'lat': 30.153637, 'lng': 120.085838}",http://api.map.baidu.com/place/detail?uid=0ee245ce6df53556a20464ef&output=html&source=placeapi_v2,购物;商铺,shopping,False,0,120.085838,30.153637,购物,商铺
欧洲站(金街美地店),浙江省,杭州市,西湖区,浙江省杭州市西湖区云河路4号楼105室,None,35064fd7b1c24b84ed74f8a1,35064fd7b1c24b84ed74f8a1,1,"{'distance': 0, 'tag': '购物;商铺', 'type': 'shopping', 'detail_url': 'http://api.map.baidu.com/place/detail?uid=35064fd7b1c24b84ed74f8a1&output=html&source=placeapi_v2', 'shop_hours': '', 'label': '商铺', 'children': []}","{'lat': 30.154028, 'lng': 120.086081}",http://api.map.baidu.com/place/detail?uid=35064fd7b1c24b84ed74f8a1&output=html&source=placeapi_v2,购物;商铺,shopping,False,0,120.086081,30.154028,购物,商铺
大东鞋店(金街美地店),浙江省,杭州市,西湖区,浙江省杭州市西湖区杭新路金街美地1楼,None,5066f55d90e9ac2a7069d3d1,5066f55d90e9ac2a7069d3d1,1,"{'distance': 0, 'tag': '购物;商铺', 'type': 'shopping', 'detail_url': 'http://api.map.baidu.com/place/detail?uid=5066f55d90e9ac2a7069d3d1&output=html&source=placeapi_v2', 'overall_rating': '3.7', 'comment_num': '0', 'shop_hours': '', 'label': '商铺', 'children': []}","{'lat': 30.152945, 'lng': 120.084654}",http://api.map.baidu.com/place/detail?uid=5066f55d90e9ac2a7069d3d1&output=html&source=placeapi_v2,购物;商铺,shopping,False,0,120.084654,30.152945,购物,商铺
何茗茶叶炒制中心,浙江省,杭州市,西湖区,杭州市西湖区杭州侘山民宿西侧约210米,None,e372cc3f86db996af7e73b3e,None,1,"{'distance': 3406, 'tag': '购物;商铺', 'type': 'shopping', 'detail_url': 'http://api.map.baidu.com/place/detail?uid=e372cc3f86db996af7e73b3e&output=html&source=placeapi_v2', 'shop_hours': '', 'label': '茶叶店', 'children': []}","{'lat': 30.188281, 'lng': 120.041003}",http://api.map.baidu.com/place/detail?uid=e372cc3f86db996af7e73b3e&output=html&source=placeapi_v2,购物;商铺,shopping,False,0,120.041003,30.188281,购物,商铺
一席地(印象城古墩路店),浙江省,杭州市,西湖区,浙江省杭州市西湖区古墩路588号印象城F4,(0571)88836625,2a7a25ec739bed7a6c3e1b51,2a7a25ec739bed7a6c3e1b51,1,"{'distance': 0, 'tag': '美食;中餐厅', 'indoor_floor': 'F4', 'type': 'cater', 'detail_url': 'http://api.map.baidu.com/place/detail?uid=2a7a25ec739bed7a6c3e1b51&output=html&source=placeapi_v2', 'price': '64.0', 'overall_rating': '4.5', 'comment_num': '83', 'shop_hours': '', 'label': '火锅店', 'children': []}","{'lat': 30.300268, 'lng': 120.105265}",http://api.map.baidu.com/place/detail?uid=2a7a25ec739bed7a6c3e1b51&output=html&source=placeapi_v2,美食;中餐厅,cater,False,0,120.105265,30.300268,美食,中餐厅
联华超市(莲花店)-东门,浙江省,杭州市,西湖区,杭州市西湖区莲花街333号莲花商务中心附近,None,82030a2e6b4b12b1c42ba116,82030a2e6b4b12b1c42ba116,1,"{'distance': 0, 'tag': '出入口;门', 'type': 'life', 'detail_url': 'http://api.map.baidu.com/place/detail?uid=82030a2e6b4b12b1c42ba116&output=html&source=placeapi_v2', 'overall_rating': '0', 'comment_num': '0', 'shop_hours': '', 'label': '门', 'children': []}","{'lat': 30.275931, 'lng': 120.106245}",http://api.map.baidu.com/place/detail?uid=82030a2e6b4b12b1c42ba116&output=html&source=placeapi_v2,出入口;门,life,False,0,120.106245,30.275931,出入口,门
华联超市(万美店),浙江省,杭州市,西湖区,浙江省杭州市西湖区霞鸣街万美商务中心北区7号楼,None,32429b26fcce80d20f0a7062,32429b26fcce80d20f0a7062,1,"{'distance': 0, 'tag': '购物;超市', 'type': 'shopping', 'detail_url': 'http://api.map.baidu.com/place/detail?uid=32429b26fcce80d20f0a7062&output=html&source=placeapi_v2', 'overall_rating': '3.5', 'shop_hours': '', 'label': '超市', 'children': []}","{'lat': 30.14808, 'lng': 120.076392}",http://api.map.baidu.com/place/detail?uid=32429b26fcce80d20f0a7062&output=html&source=placeapi_v2,购物;超市,shopping,False,0,120.076392,30.14808,购物,超市
星巴克(印象城古墩路店),浙江省,杭州市,西湖区,浙江省杭州市西湖区古墩路588号印象城F1,(0571)87209723,48ab800ddcab56cbab0dd802,48ab800ddcab56cbab0dd802,1,"{'distance': 0, 'tag': '美食;咖啡厅', 'indoor_floor': 'F1', 'type': 'cater', 'detail_url': 'http://api.map.baidu.com/place/detail?uid=48ab800ddcab56cbab0dd802&output=html&source=placeapi_v2', 'price': '35.0', 'overall_rating': '4.4', 'comment_num': '191', 'shop_hours': '', 'label': '咖啡厅', 'children': []}","{'lat': 30.300239, 'lng': 120.106212}",http://api.map.baidu.com/place/detail?uid=48ab800ddcab56cbab0dd802&output=html&source=placeapi_v2,美食;咖啡厅,cater,False,0,120.106212,30.300239,美食,咖啡厅
如松庙,浙江省,杭州市,西湖区,杭州市西湖区水上公交2号线(古墩站到紫荆花路站)五洲国际广场,None,c6f09099d1d380f4ca1b957d,c6f09099d1d380f4ca1b957d,1,"{'distance': 0, 'tag': '旅游景点;寺庙', 'type': 'scope', 'detail_url': 'http://api.map.baidu.com/place/detail?uid=c6f09099d1d380f4ca1b957d&output=html&source=placeapi_v2', 'shop_hours': '', 'label': '景区,', 'children': []}","{'lat': 30.299912, 'lng': 120.101457}",http://api.map.baidu.com/place/detail?uid=c6f09099d1d380f4ca1b957d&output=html&source=placeapi_v2,旅游景点;寺庙,scope,False,0,120.101457,30.299912,旅游景点,寺庙
酋长归来男装店,浙江省,杭州市,西湖区,杭州市西湖区杭新路金街美地商业中心5号楼102号,None,382882d30b38c22f6849f32a,382882d30b38c22f6849f32a,1,"{'distance': 0, 'tag': '购物;商铺', 'type': 'shopping', 'detail_url': 'http://api.map.baidu.com/place/detail?uid=382882d30b38c22f6849f32a&output=html&source=placeapi_v2', 'shop_hours': '', 'label': '服装店', 'children': []}","{'lat': 30.154031, 'lng': 120.085248}",http://api.map.baidu.com/place/detail?uid=382882d30b38c22f6849f32a&output=html&source=placeapi_v2,购物;商铺,shopping,False,0,120.085248,30.154031,购物,商铺
烟酒便利店,浙江省,杭州市,西湖区,金街美地1号楼140室三叉口美食街36号商铺,None,0953f7f8bb455075081cc7d8,None,1,"{'distance': 4066, 'tag': '购物;便利店', 'type': 'shopping', 'detail_url': 'http://api.map.baidu.com/place/detail?uid=0953f7f8bb455075081cc7d8&output=html&source=placeapi_v2', 'overall_rating': '1.0', 'comment_num': '1', 'shop_hours': '07:30-22:00', 'label': '烟酒', 'children': []}","{'lat': 30.152951, 'lng': 120.084662}",http://api.map.baidu.com/place/detail?uid=0953f7f8bb455075081cc7d8&output=html&source=placeapi_v2,购物;便利店,shopping,False,0,120.084662,30.152951,购物,便利店
欧亚达家居(古墩店),浙江省,杭州市,西湖区,浙江省杭州市西湖区古墩路829号天亿大厦,(0571)56818788,9fbfeef24f50785cede4a540,9fbfeef24f50785cede4a540,1,"{'distance': 0, 'tag': '购物;家居建材', 'type': 'shopping', 'detail_url': 'http://api.map.baidu.com/place/detail?uid=9fbfeef24f50785cede4a540&output=html&source=placeapi_v2', 'overall_rating': '4.0', 'comment_num': '8', 'shop_hours': '', 'label': '家居店', 'children': []}","{'lat': 30.320853, 'lng': 120.100042}",http://api.map.baidu.com/place/detail?uid=9fbfeef24f50785cede4a540&output=html&source=placeapi_v2,购物;家居建材,shopping,False,0,120.100042,30.320853,购物,家居建材
品全购物中心(翁家埭店),浙江省,杭州市,西湖区,浙江省杭州市西湖区双浦镇双浦西医门诊对面,None,e747ba381f80ace7b6147f17,e747ba381f80ace7b6147f17,1,"{'distance': 0, 'tag': '购物;超市', 'type': 'shopping', 'detail_url': 'http://api.map.baidu.com/place/detail?uid=e747ba381f80ace7b6147f17&output=html&source=placeapi_v2', 'shop_hours': '', 'label': '超市', 'children': []}","{'lat': 30.105993, 'lng': 120.088}",http://api.map.baidu.com/place/detail?uid=e747ba381f80ace7b6147f17&output=html&source=placeapi_v2,购物;超市,shopping,False,0,120.088,30.105993,购物,超市
印象城购物中心-座椅,浙江省,杭州市,西湖区,浙江省杭州市西湖区古墩路588号印象城F2,None,262698c6c3a53829246e98a9,262698c6c3a53829246e98a9,1,"{'distance': 0, 'tag': '生活服务;其他', 'indoor_floor': 'F2', 'type': 'life', 'detail_url': 'http://api.map.baidu.com/place/detail?uid=262698c6c3a53829246e98a9&output=html&source=placeapi_v2', 'shop_hours': '', 'label': '生活服务', 'children': []}","{'lat': 30.300131, 'lng': 120.105448}",http://api.map.baidu.com/place/detail?uid=262698c6c3a53829246e98a9&output=html&source=placeapi_v2,生活服务;其他,life,True,0,120.105448,30.300131,生活服务,其他
暖洋洋羊绒(通城大润发购物中心东北),浙江省,杭州市,西湖区,杭州市西湖区袁浦街杭州袁浦中学西南侧约180米,None,1c32e1e0c5f69c69fb2d6182,None,1,"{'distance': 1676, 'tag': '购物;商铺', 'type': 'shopping', 'detail_url': 'http://api.map.baidu.com/place/detail?uid=1c32e1e0c5f69c69fb2d6182&output=html&source=placeapi_v2', 'shop_hours': '10:00-21:30', 'label': '商铺', 'children': []}","{'lat': 30.122118, 'lng': 120.133261}",http://api.map.baidu.com/place/detail?uid=1c32e1e0c5f69c69fb2d6182&output=html&source=placeapi_v2,购物;商铺,shopping,False,0,120.133261,30.122118,购物,商铺
如娟服饰,浙江省,杭州市,西湖区,杭州市西湖区创意路万美商务中心西侧约30米,None,ccb24a382e6415b17369d35b,ccb24a382e6415b17369d35b,1,"{'distance': 0, 'tag': '购物;商铺', 'type': 'shopping', 'detail_url': 'http://api.map.baidu.com/place/detail?uid=ccb24a382e6415b17369d35b&output=html&source=placeapi_v2', 'overall_rating': '5', 'comment_num': '1', 'shop_hours': '', 'label': '服装店', 'children': []}","{'lat': 30.147805, 'lng': 120.075121}",http://api.map.baidu.com/place/detail?uid=ccb24a382e6415b17369d35b&output=html&source=placeapi_v2,购物;商铺,shopping,False,0,120.075121,30.147805,购物,商铺
闺蜜生活馆,浙江省,杭州市,西湖区,杭州市西湖区金街美地3栋238室,None,79b5aff2256ea4882efaa7ec,,1,"{'distance': 3943, 'tag': '购物;商铺', 'type': 'shopping', 'detail_url': 'http://api.map.baidu.com/place/detail?uid=79b5aff2256ea4882efaa7ec&output=html&source=placeapi_v2', 'shop_hours': '07:30-22:00', 'label': '商铺', 'children': []}","{'lat': 30.154009, 'lng': 120.085608}",http://api.map.baidu.com/place/detail?uid=79b5aff2256ea4882efaa7ec&output=html&source=placeapi_v2,购物;商铺,shopping,False,0,120.085608,30.154009,购物,商铺
湘联超市,浙江省,杭州市,西湖区,杭州市西湖区杜家浦路美上商业中心,None,33510fa39fa3b9b7cd04ef7d,None,1,"{'distance': 0, 'tag': '购物;超市', 'type': 'shopping', 'detail_url': 'http://api.map.baidu.com/place/detail?uid=33510fa39fa3b9b7cd04ef7d&output=html&source=placeapi_v2', 'shop_hours': '', 'label': '超市', 'children': []}","{'lat': 30.153467, 'lng': 120.088539}",http://api.map.baidu.com/place/detail?uid=33510fa39fa3b9b7cd04ef7d&output=html&source=placeapi_v2,购物;超市,shopping,False,0,120.088539,30.153467,购物,超市
悠贝亲子图书馆(金街美地馆),浙江省,杭州市,西湖区,杭州市西湖区转塘镇320国道金街美地商业中心3号楼123室,None,96938e6908bd8c46cae33c60,96938e6908bd8c46cae33c60,1,"{'distance': 0, 'tag': '购物;商铺', 'type': 'shopping', 'detail_url': 'http://api.map.baidu.com/place/detail?uid=96938e6908bd8c46cae33c60&output=html&source=placeapi_v2', 'shop_hours': '', 'label': '书店', 'children': []}","{'lat': 30.1532, 'lng': 120.085161}",http://api.map.baidu.com/place/detail?uid=96938e6908bd8c46cae33c60&output=html&source=placeapi_v2,购物;商铺,shopping,False,0,120.085161,30.1532,购物,商铺
井衣(金街美地店),浙江省,杭州市,西湖区,杭州市西湖区灵美路金街美地,None,a5a93847bf33b6b226d2bb31,,1,"{'distance': 4043, 'tag': '购物;商铺', 'type': 'shopping', 'detail_url': 'http://api.map.baidu.com/place/detail?uid=a5a93847bf33b6b226d2bb31&output=html&source=placeapi_v2', 'shop_hours': '07:30-22:00', 'label': '商铺', 'children': []}","{'lat': 30.153855, 'lng': 120.084569}",http://api.map.baidu.com/place/detail?uid=a5a93847bf33b6b226d2bb31&output=html&source=placeapi_v2,购物;商铺,shopping,False,0,120.084569,30.153855,购物,商铺
3W,浙江省,杭州市,西湖区,杭州市西湖区灵美路金街美地,None,dea63fd49d13416fd23ce35f,None,1,"{'distance': 0, 'tag': '购物;商铺', 'type': 'shopping', 'detail_url': 'http://api.map.baidu.com/place/detail?uid=dea63fd49d13416fd23ce35f&output=html&source=placeapi_v2', 'shop_hours': '', 'label': '服装店', 'children': []}","{'lat': 30.154071, 'lng': 120.08501}",http://api.map.baidu.com/place/detail?uid=dea63fd49d13416fd23ce35f&output=html&source=placeapi_v2,购物;商铺,shopping,False,0,120.08501,30.154071,购物,商铺
母女服饰(金街美地店),浙江省,杭州市,西湖区,浙江省杭州市西湖区转塘金街金街美地5号楼123号,None,835f26b95c6f7f802e47337b,835f26b95c6f7f802e47337b,1,"{'distance': 0, 'tag': '购物;商铺', 'type': 'shopping', 'detail_url': 'http://api.map.baidu.com/place/detail?uid=835f26b95c6f7f802e47337b&output=html&source=placeapi_v2', 'shop_hours': '', 'label': '服饰鞋包', 'children': []}","{'lat': 30.1542, 'lng': 120.084533}",http://api.map.baidu.com/place/detail?uid=835f26b95c6f7f802e47337b&output=html&source=placeapi_v2,购物;商铺,shopping,False,0,120.084533,30.1542,购物,商铺
三夫户外运动用品(杭州天目山路店),浙江省,杭州市,西湖区,浙江省杭州市西湖区天目山路97号第1层,(0571)87970366,0c4e8aada87b2a381d1d1181,0c4e8aada87b2a381d1d1181,1,"{'distance': 0, 'tag': '购物;商铺', 'type': 'shopping', 'detail_url': 'http://api.map.baidu.com/place/detail?uid=0c4e8aada87b2a381d1d1181&output=html&source=placeapi_v2', 'overall_rating': '3.7', 'comment_num': '9', 'shop_hours': '', 'label': '体育用品', 'children': []}","{'lat': 30.277612, 'lng': 120.150979}",http://api.map.baidu.com/place/detail?uid=0c4e8aada87b2a381d1d1181&output=html&source=placeapi_v2,购物;商铺,shopping,True,0,120.150979,30.277612,购物,商铺
印象城购物中心-直梯(客梯),浙江省,杭州市,西湖区,浙江省杭州市西湖区古墩路588号印象城F2,None,c13246922477caa6601c677d,c13246922477caa6601c677d,1,"{'distance': 0, 'tag': '生活服务;其他', 'indoor_floor': 'F2', 'type': 'life', 'detail_url': 'http://api.map.baidu.com/place/detail?uid=c13246922477caa6601c677d&output=html&source=placeapi_v2', 'shop_hours': '', 'label': '生活服务', 'children': []}","{'lat': 30.299791, 'lng': 120.105155}",http://api.map.baidu.com/place/detail?uid=c13246922477caa6601c677d&output=html&source=placeapi_v2,生活服务;其他,life,True,0,120.105155,30.299791,生活服务,其他
印象城(古墩路店)-楼梯,浙江省,杭州市,西湖区,浙江省杭州市西湖区古墩路588号印象城F2,None,2012580c3c6d103800ec0171,2012580c3c6d103800ec0171,1,"{'distance': 518, 'tag': '生活服务;其他', 'indoor_floor': 'F2', 'type': 'life', 'detail_url': 'http://api.map.baidu.com/place/detail?uid=2012580c3c6d103800ec0171&output=html&source=placeapi_v2', 'shop_hours': '', 'label': '生活服务', 'children': []}","{'lat': 30.300075, 'lng': 120.105063}",http://api.map.baidu.com/place/detail?uid=2012580c3c6d103800ec0171&output=html&source=placeapi_v2,生活服务;其他,life,True,0,120.105063,30.300075,生活服务,其他
SCPG印象城购物中心-来电科技,浙江省,杭州市,西湖区,杭州市西湖区古墩路588号SCPG印象城购物中心F2,None,f003597cb8cbf11a3617dc0f,None,1,"{'distance': 0, 'tag': '生活服务;其他', 'indoor_floor': 'F2', 'type': 'life', 'detail_url': 'http://api.map.baidu.com/place/detail?uid=f003597cb8cbf11a3617dc0f&output=html&source=placeapi_v2', 'shop_hours': '', 'label': '充电宝', 'children': []}","{'lat': 30.29996, 'lng': 120.105216}",http://api.map.baidu.com/place/detail?uid=f003597cb8cbf11a3617dc0f&output=html&source=placeapi_v2,生活服务;其他,life,False,0,120.105216,30.29996,生活服务,其他
杭州亚运会特许商品零售店(华策中心店),浙江省,杭州市,西湖区,浙江省杭州市西湖区五常港路华策中心a座472号,None,12b54c2b870802d02bd7ab75,12b54c2b870802d02bd7ab75,1,"{'distance': 0, 'tag': '购物;商铺', 'type': 'shopping', 'detail_url': 'http://api.map.baidu.com/place/detail?uid=12b54c2b870802d02bd7ab75&output=html&source=placeapi_v2', 'overall_rating': '0', 'comment_num': '1', 'shop_hours': '', 'label': '商铺', 'children': []}","{'lat': 30.306197, 'lng': 120.075046}",http://api.map.baidu.com/place/detail?uid=12b54c2b870802d02bd7ab75&output=html&source=placeapi_v2,购物;商铺,shopping,True,0,120.075046,30.306197,购物,商铺
外婆家(古墩印象城店),浙江省,杭州市,西湖区,浙江省杭州市西湖区古墩路588号印象城F2,(0571)88834789,b9e5d0b8bd3bc6a580a12ef4,b9e5d0b8bd3bc6a580a12ef4,1,"{'distance': 0, 'tag': '美食;中餐厅', 'indoor_floor': 'F2', 'type': 'cater', 'detail_url': 'http://api.map.baidu.com/place/detail?uid=b9e5d0b8bd3bc6a580a12ef4&output=html&source=placeapi_v2', 'price': '66.0', 'overall_rating': '4.2', 'comment_num': '73', 'shop_hours': '', 'label': '中餐馆', 'children': []}","{'lat': 30.299691, 'lng': 120.105641}",http://api.map.baidu.com/place/detail?uid=b9e5d0b8bd3bc6a580a12ef4&output=html&source=placeapi_v2,美食;中餐厅,cater,False,0,120.105641,30.299691,美食,中餐厅
印象城(古墩路店)-1号门,浙江省,杭州市,西湖区,浙江省杭州市西湖区古墩路588号印象城F1,None,377e2a167c916a2bc7f50db4,377e2a167c916a2bc7f50db4,1,"{'distance': 0, 'tag': '出入口;其他', 'indoor_floor': 'F1', 'type': 'life', 'detail_url': 'http://api.map.baidu.com/place/detail?uid=377e2a167c916a2bc7f50db4&output=html&source=placeapi_v2', 'shop_hours': '', 'label': '门', 'children': []}","{'lat': 30.300292, 'lng': 120.105147}",http://api.map.baidu.com/place/detail?uid=377e2a167c916a2bc7f50db4&output=html&source=placeapi_v2,出入口;其他,life,False,0,120.105147,30.300292,出入口,其他
印象城(古墩路店)-北门,浙江省,杭州市,西湖区,浙江省杭州市西湖区古墩路588号印象城F1,None,65a69b658143c8808f1a8983,65a69b658143c8808f1a8983,1,"{'distance': 0, 'tag': '出入口;其他', 'indoor_floor': 'F1', 'type': 'life', 'detail_url': 'http://api.map.baidu.com/place/detail?uid=65a69b658143c8808f1a8983&output=html&source=placeapi_v2', 'image_num': '0', 'shop_hours': '', 'label': '门', 'children': []}","{'lat': 30.300314, 'lng': 120.105697}",http://api.map.baidu.com/place/detail?uid=65a69b658143c8808f1a8983&output=html&source=placeapi_v2,出入口;其他,life,False,0,120.105697,30.300314,出入口,其他
SCPG印象城购物中心-小电,浙江省,杭州市,西湖区,杭州市西湖区古墩路588号SCPG印象城购物中心F1,None,8f5637a375c121e6eddfca3a,,1,"{'distance': 2725, 'tag': '生活服务;其他', 'indoor_floor': 'F1', 'type': 'life', 'detail_url': 'http://api.map.baidu.com/place/detail?uid=8f5637a375c121e6eddfca3a&output=html&source=placeapi_v2', 'shop_hours': '', 'label': '充电宝', 'children': []}","{'lat': 30.299836, 'lng': 120.106087}",http://api.map.baidu.com/place/detail?uid=8f5637a375c121e6eddfca3a&output=html&source=placeapi_v2,生活服务;其他,life,False,0,120.106087,30.299836,生活服务,其他
印象城(古墩路店)-北4门,浙江省,杭州市,西湖区,浙江省杭州市西湖区古墩路588号印象城F1,None,4e8e8cce1460ebf41f389414,4e8e8cce1460ebf41f389414,1,"{'distance': 0, 'tag': '出入口;门', 'type': 'life', 'detail_url': 'http://api.map.baidu.com/place/detail?uid=4e8e8cce1460ebf41f389414&output=html&source=placeapi_v2', 'shop_hours': '', 'label': '门', 'children': []}","{'lat': 30.300552, 'lng': 120.106366}",http://api.map.baidu.com/place/detail?uid=4e8e8cce1460ebf41f389414&output=html&source=placeapi_v2,出入口;门,life,False,0,120.106366,30.300552,出入口,门
186(印象城购物中心),浙江省,杭州市,西湖区,浙江省杭州市西湖区古墩路588号印象城M,None,b0562d054137c90e2ad7ab45,b0562d054137c90e2ad7ab45,1,"{'distance': 0, 'tag': '交通设施;普通停车位', 'indoor_floor': 'M', 'type': 'life', 'detail_url': 'http://api.map.baidu.com/place/detail?uid=b0562d054137c90e2ad7ab45&output=html&source=placeapi_v2', 'shop_hours': '', 'label': '普通停车位', 'children': []}","{'lat': 30.300156, 'lng': 120.106386}",http://api.map.baidu.com/place/detail?uid=b0562d054137c90e2ad7ab45&output=html&source=placeapi_v2,交通设施;普通停车位,life,False,0,120.106386,30.300156,交通设施,普通停车位
西町村屋(杭州印象城购物中心),浙江省,杭州市,西湖区,浙江省杭州市西湖区古墩路588号印象城(古墩路店)F1,None,2f20e79ac398fc32e6e96517,2f20e79ac398fc32e6e96517,1,"{'distance': 0, 'tag': '购物;商铺', 'indoor_floor': 'F1', 'type': 'shopping', 'detail_url': 'http://api.map.baidu.com/place/detail?uid=2f20e79ac398fc32e6e96517&output=html&source=placeapi_v2', 'overall_rating': '3.7', 'comment_num': '1', 'shop_hours': '', 'label': '女装店', 'children': []}","{'lat': 30.299893, 'lng': 120.105769}",http://api.map.baidu.com/place/detail?uid=2f20e79ac398fc32e6e96517&output=html&source=placeapi_v2,购物;商铺,shopping,False,0,120.105769,30.299893,购物,商铺
屈臣氏(印象城古墩路店),浙江省,杭州市,西湖区,浙江省杭州市西湖区古墩路588号印象城F1,(0571)87042639,59af724d15bd1ae69e95de6b,59af724d15bd1ae69e95de6b,1,"{'distance': 0, 'tag': '购物;商铺', 'indoor_floor': 'F1', 'type': 'shopping', 'detail_url': 'http://api.map.baidu.com/place/detail?uid=59af724d15bd1ae69e95de6b&output=html&source=placeapi_v2', 'price': '0.0', 'overall_rating': '3.9', 'comment_num': '1', 'shop_hours': '', 'label': '化妆品店', 'children': []}","{'lat': 30.299944, 'lng': 120.105037}",http://api.map.baidu.com/place/detail?uid=59af724d15bd1ae69e95de6b&output=html&source=placeapi_v2,购物;商铺,shopping,False,0,120.105037,30.299944,购物,商铺
印象城(古墩路店)-南4门,浙江省,杭州市,西湖区,浙江省杭州市西湖区古墩路588号印象城F1,None,91333bfef13a5bbc9e9d6874,91333bfef13a5bbc9e9d6874,1,"{'distance': 0, 'tag': '出入口;门', 'type': 'life', 'detail_url': 'http://api.map.baidu.com/place/detail?uid=91333bfef13a5bbc9e9d6874&output=html&source=placeapi_v2', 'shop_hours': '', 'label': '门', 'children': []}","{'lat': 30.299656, 'lng': 120.105561}",http://api.map.baidu.com/place/detail?uid=91333bfef13a5bbc9e9d6874&output=html&source=placeapi_v2,出入口;门,life,False,0,120.105561,30.299656,出入口,门
印象城(古墩路店)-4号门,浙江省,杭州市,西湖区,浙江省杭州市西湖区古墩路588号印象城F2,None,bcc17f3c9cd915378605bf53,bcc17f3c9cd915378605bf53,1,"{'distance': 0, 'tag': '出入口;其他', 'indoor_floor': 'F2', 'type': 'life', 'detail_url': 'http://api.map.baidu.com/place/detail?uid=bcc17f3c9cd915378605bf53&output=html&source=placeapi_v2', 'image_num': '1', 'shop_hours': '', 'label': '门', 'children': []}","{'lat': 30.299908, 'lng': 120.105024}",http://api.map.baidu.com/place/detail?uid=bcc17f3c9cd915378605bf53&output=html&source=placeapi_v2,出入口;其他,life,False,0,120.105024,30.299908,出入口,其他
五洲国际广场-南门,浙江省,杭州市,西湖区,杭州市西湖区余杭塘路799号五洲国际广场F1,None,75da1769a6e855f65b109376,75da1769a6e855f65b109376,1,"{'distance': 2443, 'tag': '出入口;其他', 'indoor_floor': 'F1', 'type': 'life', 'detail_url': 'http://api.map.baidu.com/place/detail?uid=75da1769a6e855f65b109376&output=html&source=placeapi_v2', 'shop_hours': '', 'label': '门', 'children': []}","{'lat': 30.300188, 'lng': 120.103173}",http://api.map.baidu.com/place/detail?uid=75da1769a6e855f65b109376&output=html&source=placeapi_v2,出入口;其他,life,False,0,120.103173,30.300188,出入口,其他
杭州印象城购物中心(停车场入口),浙江省,杭州市,西湖区,杭州市西湖区古墩路588号印象城购物中心B1,None,48bab6769d4efca557bfffa1,48bab6769d4efca557bfffa1,1,"{'distance': 0, 'tag': '出入口;停车场出入口', 'indoor_floor': 'B1', 'type': 'life', 'detail_url': 'http://api.map.baidu.com/place/detail?uid=48bab6769d4efca557bfffa1&output=html&source=placeapi_v2', 'shop_hours': '', 'label': '停车场入口', 'children': []}","{'lat': 30.30009, 'lng': 120.106338}",http://api.map.baidu.com/place/detail?uid=48bab6769d4efca557bfffa1&output=html&source=placeapi_v2,出入口;停车场出入口,life,False,0,120.106338,30.30009,出入口,停车场出入口
533(印象城古墩路店),浙江省,杭州市,西湖区,浙江省杭州市西湖区古墩路588号印象城F1,None,2ad2c116d84eaede08f5eb53,2ad2c116d84eaede08f5eb53,1,"{'distance': 0, 'tag': '购物;商铺', 'indoor_floor': 'F1', 'type': 'shopping', 'detail_url': 'http://api.map.baidu.com/place/detail?uid=2ad2c116d84eaede08f5eb53&output=html&source=placeapi_v2', 'overall_rating': '3.8', 'comment_num': '0', 'shop_hours': '', 'label': '服装店', 'children': []}","{'lat': 30.299714, 'lng': 120.105826}",http://api.map.baidu.com/place/detail?uid=2ad2c116d84eaede08f5eb53&output=html&source=placeapi_v2,购物;商铺,shopping,False,0,120.105826,30.299714,购物,商铺
印象城(古墩路店)-2号门,浙江省,杭州市,西湖区,浙江省杭州市西湖区古墩路588号印象城F1,None,49f678b0a2b003bfca09f04c,49f678b0a2b003bfca09f04c,1,"{'distance': 0, 'tag': '出入口;其他', 'indoor_floor': 'F1', 'type': 'life', 'detail_url': 'http://api.map.baidu.com/place/detail?uid=49f678b0a2b003bfca09f04c&output=html&source=placeapi_v2', 'shop_hours': '', 'label': '门', 'children': []}","{'lat': 30.300243, 'lng': 120.106133}",http://api.map.baidu.com/place/detail?uid=49f678b0a2b003bfca09f04c&output=html&source=placeapi_v2,出入口;其他,life,False,0,120.106133,30.300243,出入口,其他
Tuli(印象城古墩路店),浙江省,杭州市,西湖区,浙江省杭州市西湖区古墩路588号印象城F1,None,d5e1c5308b35348fc51b7597,d5e1c5308b35348fc51b7597,1,"{'distance': 0, 'tag': '购物;商铺', 'indoor_floor': 'F1', 'type': 'shopping', 'detail_url': 'http://api.map.baidu.com/place/detail?uid=d5e1c5308b35348fc51b7597&output=html&source=placeapi_v2', 'shop_hours': '', 'label': '商铺', 'children': []}","{'lat': 30.299737, 'lng': 120.105664}",http://api.map.baidu.com/place/detail?uid=d5e1c5308b35348fc51b7597&output=html&source=placeapi_v2,购物;商铺,shopping,False,0,120.105664,30.299737,购物,商铺
留下商贸中心,浙江省,杭州市,西湖区,杭州市西湖区留下大街107号,(0571)85228298,4dc72947f128aa26aeb22a50,,1,"{'distance': 2418, 'tag': '购物', 'type': 'shopping', 'detail_url': 'http://api.map.baidu.com/place/detail?uid=4dc72947f128aa26aeb22a50&output=html&source=placeapi_v2', 'overall_rating': '3.5', 'comment_num': '1', 'shop_hours': '10:00-22:00', 'label': '购物', 'children': []}","{'lat': 30.247945, 'lng': 120.061835}",http://api.map.baidu.com/place/detail?uid=4dc72947f128aa26aeb22a50&output=html&source=placeapi_v2,购物,shopping,False,0,120.061835,30.247945,购物,行业缺失
杭州灵隐休闲旅游购物中心,浙江省,杭州市,西湖区,浙江省杭州市西湖区灵隐路38号,None,8bd86b8792da47082fb90821,8bd86b8792da47082fb90821,1,"{'distance': 0, 'tag': '购物', 'type': 'shopping', 'detail_url': 'http://api.map.baidu.com/place/detail?uid=8bd86b8792da47082fb90821&output=html&source=placeapi_v2', 'overall_rating': '4.5', 'comment_num': '3', 'shop_hours': '', 'label': '购物', 'children': []}","{'lat': 30.247106, 'lng': 120.113219}",http://api.map.baidu.com/place/detail?uid=8bd86b8792da47082fb90821&output=html&source=placeapi_v2,购物,shopping,False,0,120.113219,30.247106,购物,行业缺失
大隐清心素食自助餐厅(灵隐茶市店),浙江省,杭州市,西湖区,浙江省杭州市西湖区灵隐路38号隐市二楼,None,b79c73d5bc657c049b68b466,b79c73d5bc657c049b68b466,1,"{'distance': 0, 'tag': '美食;中餐厅', 'type': 'cater', 'detail_url': 'http://api.map.baidu.com/place/detail?uid=b79c73d5bc657c049b68b466&output=html&source=placeapi_v2', 'price': '29.0', 'overall_rating': '4.2', 'comment_num': '19', 'shop_hours': '', 'label': '自助餐', 'children': []}","{'lat': 30.246923, 'lng': 120.11344}",http://api.map.baidu.com/place/detail?uid=b79c73d5bc657c049b68b466&output=html&source=placeapi_v2,美食;中餐厅,cater,False,0,120.11344,30.246923,美食,中餐厅
星巴克(灵隐解百店),浙江省,杭州市,西湖区,浙江省杭州市西湖区灵隐路38-2号杭州灵隐休闲旅游购物中心一层5室,None,da3cba30ee82a08504fef5a2,da3cba30ee82a08504fef5a2,1,"{'distance': 0, 'tag': '美食;咖啡厅', 'type': 'cater', 'detail_url': 'http://api.map.baidu.com/place/detail?uid=da3cba30ee82a08504fef5a2&output=html&source=placeapi_v2', 'price': '42.0', 'overall_rating': '4.2', 'comment_num': '88', 'shop_hours': '', 'label': '咖啡厅', 'children': []}","{'lat': 30.24704, 'lng': 120.113587}",http://api.map.baidu.com/place/detail?uid=da3cba30ee82a08504fef5a2&output=html&source=placeapi_v2,美食;咖啡厅,cater,False,0,120.113587,30.24704,美食,咖啡厅
杭州灵隐休闲旅游购物中心-西门,浙江省,杭州市,西湖区,杭州市西湖区灵隐路38号,None,ffcd039956e429d51a94c657,ffcd039956e429d51a94c657,1,"{'distance': 0, 'tag': '出入口', 'type': 'life', 'detail_url': 'http://api.map.baidu.com/place/detail?uid=ffcd039956e429d51a94c657&output=html&source=placeapi_v2', 'shop_hours': '', 'label': '出入口', 'children': []}","{'lat': 30.246848, 'lng': 120.11318}",http://api.map.baidu.com/place/detail?uid=ffcd039956e429d51a94c657&output=html&source=placeapi_v2,出入口,life,False,0,120.11318,30.246848,出入口,行业缺失
SCPG印象城购物中心-天猫母婴室,浙江省,杭州市,西湖区,杭州市西湖区古墩路588号SCPG印象城购物中心F2,None,20d2e7c099489d29d7851fe4,None,1,"{'distance': 0, 'tag': '购物;其他', 'indoor_floor': 'F2', 'type': 'shopping', 'detail_url': 'http://api.map.baidu.com/place/detail?uid=20d2e7c099489d29d7851fe4&output=html&source=placeapi_v2', 'shop_hours': '', 'label': '购物', 'children': []}","{'lat': 30.29969, 'lng': 120.10516}",http://api.map.baidu.com/place/detail?uid=20d2e7c099489d29d7851fe4&output=html&source=placeapi_v2,购物;其他,shopping,False,0,120.10516,30.29969,购物,其他
SCPG印象城购物中心-IP Station,浙江省,杭州市,西湖区,杭州市西湖区古墩路588号SCPG印象城购物中心F1,None,55fdc8c06735702eede4a534,None,1,"{'distance': 0, 'tag': '购物;其他', 'indoor_floor': 'F1', 'type': 'shopping', 'detail_url': 'http://api.map.baidu.com/place/detail?uid=55fdc8c06735702eede4a534&output=html&source=placeapi_v2', 'shop_hours': '', 'label': '商铺', 'children': []}","{'lat': 30.29984, 'lng': 120.106006}",http://api.map.baidu.com/place/detail?uid=55fdc8c06735702eede4a534&output=html&source=placeapi_v2,购物;其他,shopping,False,0,120.106006,30.29984,购物,其他
全棉时代(印象城古墩路店),浙江省,杭州市,西湖区,浙江省杭州市西湖区古墩路588号印象城F2,(0571)85453316,bd15e10d820056bd5cbe86cc,bd15e10d820056bd5cbe86cc,1,"{'distance': 0, 'tag': '购物;商铺', 'indoor_floor': 'F2', 'type': 'shopping', 'detail_url': 'http://api.map.baidu.com/place/detail?uid=bd15e10d820056bd5cbe86cc&output=html&source=placeapi_v2', 'price': '0.0', 'overall_rating': '3.8', 'comment_num': '25', 'shop_hours': '', 'label': '商铺', 'children': []}","{'lat': 30.299951, 'lng': 120.105383}",http://api.map.baidu.com/place/detail?uid=bd15e10d820056bd5cbe86cc&output=html&source=placeapi_v2,购物;商铺,shopping,False,0,120.105383,30.299951,购物,商铺
SCPG印象城购物中心-天猫母婴室,浙江省,杭州市,西湖区,杭州市西湖区古墩路588号SCPG印象城购物中心F2,None,4aa8c73e3e440aea940319de,None,1,"{'distance': 0, 'tag': '生活服务;其他', 'indoor_floor': 'F2', 'type': 'life', 'detail_url': 'http://api.map.baidu.com/place/detail?uid=4aa8c73e3e440aea940319de&output=html&source=placeapi_v2', 'shop_hours': '', 'label': '母婴室', 'children': []}","{'lat': 30.299686, 'lng': 120.105179}",http://api.map.baidu.com/place/detail?uid=4aa8c73e3e440aea940319de&output=html&source=placeapi_v2,生活服务;其他,life,False,0,120.105179,30.299686,生活服务,其他
SCPG印象城购物中心-怪兽充电,浙江省,杭州市,西湖区,杭州市西湖区古墩路588号SCPG印象城购物中心F1,None,aa79600cb7f4f80b5bf6bebc,None,1,"{'distance': 0, 'tag': '生活服务;其他', 'indoor_floor': 'F1', 'type': 'life', 'detail_url': 'http://api.map.baidu.com/place/detail?uid=aa79600cb7f4f80b5bf6bebc&output=html&source=placeapi_v2', 'shop_hours': '', 'label': '充电宝', 'children': []}","{'lat': 30.299843, 'lng': 120.106028}",http://api.map.baidu.com/place/detail?uid=aa79600cb7f4f80b5bf6bebc&output=html&source=placeapi_v2,生活服务;其他,life,False,0,120.106028,30.299843,生活服务,其他
SCPG印象城购物中心-客服台,浙江省,杭州市,西湖区,杭州市西湖区古墩路588号SCPG印象城购物中心F1,None,9d3ce966892369dca7c75617,None,1,"{'distance': 0, 'tag': '生活服务', 'indoor_floor': 'F1', 'type': 'life', 'detail_url': 'http://api.map.baidu.com/place/detail?uid=9d3ce966892369dca7c75617&output=html&source=placeapi_v2', 'shop_hours': '', 'label': '生活服务', 'children': []}","{'lat': 30.299686, 'lng': 120.105178}",http://api.map.baidu.com/place/detail?uid=9d3ce966892369dca7c75617&output=html&source=placeapi_v2,生活服务,life,False,0,120.105178,30.299686,生活服务,行业缺失
杭州2022年第19届亚运会特许商品零售店,浙江省,杭州市,西湖区,浙江省杭州市西湖区五常港路华策中心A座472号,None,bcb6cb5479406fbfeb1e9713,None,1,"{'distance': 0, 'tag': '购物;商铺', 'type': 'shopping', 'detail_url': 'http://api.map.baidu.com/place/detail?uid=bcb6cb5479406fbfeb1e9713&output=html&source=placeapi_v2', 'shop_hours': '', 'label': '商铺', 'children': []}","{'lat': 30.306332, 'lng': 120.076117}",http://api.map.baidu.com/place/detail?uid=bcb6cb5479406fbfeb1e9713&output=html&source=placeapi_v2,购物;商铺,shopping,True,0,120.076117,30.306332,购物,商铺
联华超市(莲花店),浙江省,杭州市,西湖区,浙江省杭州市西湖区莲花街333号,None,af1ae56bb3b7850b4307c1a4,,1,"{'distance': 4027, 'tag': '购物;超市', 'type': 'shopping', 'detail_url': 'http://api.map.baidu.com/place/detail?uid=af1ae56bb3b7850b4307c1a4&output=html&source=placeapi_v2', 'price': '36.0', 'overall_rating': '4.7', 'comment_num': '24', 'shop_hours': '08:00-21:30', 'label': '超市', 'children': []}","{'lat': 30.276281, 'lng': 120.105744}",http://api.map.baidu.com/place/detail?uid=af1ae56bb3b7850b4307c1a4&output=html&source=placeapi_v2,购物;超市,shopping,False,0,120.105744,30.276281,购物,超市
西溪·栖悦城,浙江省,杭州市,西湖区,浙江省杭州市西湖区紫金港路21号,(0571)87176325,514cdd8bc09b557e3310af1b,514cdd8bc09b557e3310af1b,1,"{'distance': 3963, 'tag': '购物;购物中心', 'navi_location': {'lng': 120.09563313734, 'lat': 30.27101972735}, 'type': 'shopping', 'detail_url': 'http://api.map.baidu.com/place/detail?uid=514cdd8bc09b557e3310af1b&output=html&source=placeapi_v2', 'overall_rating': '4.5', 'comment_num': '7', 'shop_hours': '10:00-21:30', 'label': '购物中心', 'children': []}","{'lat': 30.271149, 'lng': 120.095451}",http://api.map.baidu.com/place/detail?uid=514cdd8bc09b557e3310af1b&output=html&source=placeapi_v2,购物;购物中心,shopping,False,0,120.095451,30.271149,购物,购物中心
视康眼镜(三墩配镜中心平价店),浙江省,杭州市,西湖区,浙江省杭州市西湖区庙前街39号,(0571)81797007,f5c911ad4d10d35bb03c812b,f5c911ad4d10d35bb03c812b,1,"{'distance': 0, 'tag': '购物;商铺', 'type': 'shopping', 'detail_url': 'http://api.map.baidu.com/place/detail?uid=f5c911ad4d10d35bb03c812b&output=html&source=placeapi_v2', 'overall_rating': '3.5', 'comment_num': '0', 'shop_hours': '', 'label': '眼镜店', 'children': []}","{'lat': 30.32526, 'lng': 120.089286}",http://api.map.baidu.com/place/detail?uid=f5c911ad4d10d35bb03c812b&output=html&source=placeapi_v2,购物;商铺,shopping,False,0,120.089286,30.32526,购物,商铺
品质生活体验中心,浙江省,杭州市,西湖区,浙江省杭州市西湖区周坪路77号,None,b46c391f0b6ed4ea3c9a5ea5,None,1,"{'distance': 4371, 'tag': '购物;家居建材', 'type': 'shopping', 'detail_url': 'http://api.map.baidu.com/place/detail?uid=b46c391f0b6ed4ea3c9a5ea5&output=html&source=placeapi_v2', 'shop_hours': '', 'label': '建材店', 'children': []}","{'lat': 30.345123, 'lng': 120.076163}",http://api.map.baidu.com/place/detail?uid=b46c391f0b6ed4ea3c9a5ea5&output=html&source=placeapi_v2,购物;家居建材,shopping,False,0,120.076163,30.345123,购物,家居建材
龙湖西溪天街,浙江省,杭州市,西湖区,浙江省杭州市西湖区余杭塘路1001号,(0571)56367999,47e9c65bec0ca0daf7b91620,47e9c65bec0ca0daf7b91620,1,"{'distance': 4117, 'tag': '购物;购物中心', 'navi_location': {'lng': 120.07358680942, 'lat': 30.298699477022}, 'type': 'shopping', 'detail_url': 'http://api.map.baidu.com/place/detail?uid=47e9c65bec0ca0daf7b91620&output=html&source=placeapi_v2', 'overall_rating': '4.8', 'comment_num': '24', 'shop_hours': '10:00-22:00', 'label': '购物中心', 'children': []}","{'lat': 30.298416, 'lng': 120.073827}",http://api.map.baidu.com/place/detail?uid=47e9c65bec0ca0daf7b91620&output=html&source=placeapi_v2,购物;购物中心,shopping,False,0,120.073827,30.298416,购物,购物中心
第六空间国际家居(杭州城西店),浙江省,杭州市,西湖区,浙江省杭州市西湖区文一西路830号,4000126590,de8082a02aa10cf4283a9f15,de8082a02aa10cf4283a9f15,1,"{'distance': 0, 'tag': '购物;家居建材', 'type': 'shopping', 'detail_url': 'http://api.map.baidu.com/place/detail?uid=de8082a02aa10cf4283a9f15&output=html&source=placeapi_v2', 'price': '0.0', 'overall_rating': '4.6', 'comment_num': '6', 'shop_hours': '', 'label': '家居建材', 'children': []}","{'lat': 30.293277, 'lng': 120.075614}",http://api.map.baidu.com/place/detail?uid=de8082a02aa10cf4283a9f15&output=html&source=placeapi_v2,购物;家居建材,shopping,False,0,120.075614,30.293277,购物,家居建材
新华书店(西投创智店),浙江省,杭州市,西湖区,浙江省杭州市西湖区双龙街239号西投创智中心3号楼1楼,(0571)85170170,159cbc7537051db6da2f286c,159cbc7537051db6da2f286c,1,"{'distance': 0, 'tag': '购物;商铺', 'type': 'shopping', 'detail_url': 'http://api.map.baidu.com/place/detail?uid=159cbc7537051db6da2f286c&output=html&source=placeapi_v2', 'overall_rating': '4.1', 'comment_num': '3', 'shop_hours': '', 'label': '书店', 'children': []}","{'lat': 30.29705, 'lng': 120.073263}",http://api.map.baidu.com/place/detail?uid=159cbc7537051db6da2f286c&output=html&source=placeapi_v2,购物;商铺,shopping,False,0,120.073263,30.29705,购物,商铺
全家便利店(双龙街店),浙江省,杭州市,西湖区,浙江省杭州市西湖区双龙街西溪首座199号,(0571)86076571,20c1ac72383bf714aecb66f4,20c1ac72383bf714aecb66f4,1,"{'distance': 0, 'tag': '购物;便利店', 'type': 'shopping', 'detail_url': 'http://api.map.baidu.com/place/detail?uid=20c1ac72383bf714aecb66f4&output=html&source=placeapi_v2', 'overall_rating': '4.1', 'comment_num': '0', 'shop_hours': '', 'label': '便利店', 'children': []}","{'lat': 30.296392, 'lng': 120.075865}",http://api.map.baidu.com/place/detail?uid=20c1ac72383bf714aecb66f4&output=html&source=placeapi_v2,购物;便利店,shopping,False,0,120.075865,30.296392,购物,便利店
303生活广场,浙江省,杭州市,西湖区,浙江省杭州市西湖区厚仁路313号,(0571)88991881,7b44d0c97fb9d92bb320a8a5,7b44d0c97fb9d92bb320a8a5,1,"{'distance': 2874, 'tag': '购物;购物中心', 'navi_location': {'lng': 120.08484185882, 'lat': 30.338009033479}, 'type': 'shopping', 'detail_url': 'http://api.map.baidu.com/place/detail?uid=7b44d0c97fb9d92bb320a8a5&output=html&source=placeapi_v2', 'overall_rating': '4.7', 'comment_num': '5', 'shop_hours': '10:00-21:00', 'label': '购物中心', 'children': []}","{'lat': 30.338757, 'lng': 120.084616}",http://api.map.baidu.com/place/detail?uid=7b44d0c97fb9d92bb320a8a5&output=html&source=placeapi_v2,购物;购物中心,shopping,False,0,120.084616,30.338757,购物,购物中心
同仁汇邻里中心,浙江省,杭州市,西湖区,浙江省杭州市西湖区嘉仁路与广业街交叉口西侧,(0571)87006793,4619088c905d3d53a5da392a,,1,"{'distance': 2899, 'tag': '购物;购物中心', 'navi_location': {'lng': 120.08441812811, 'lat': 30.332992859845}, 'type': 'shopping', 'detail_url': 'http://api.map.baidu.com/place/detail?uid=4619088c905d3d53a5da392a&output=html&source=placeapi_v2', 'overall_rating': '3.6', 'comment_num': '0', 'shop_hours': '09:30-23:00', 'label': '购物中心', 'children': []}","{'lat': 30.332358, 'lng': 120.084139}",http://api.map.baidu.com/place/detail?uid=4619088c905d3d53a5da392a&output=html&source=placeapi_v2,购物;购物中心,shopping,False,0,120.084139,30.332358,购物,购物中心
联华超市(同仁汇邻里中心店),浙江省,杭州市,西湖区,浙江省杭州市西湖区嘉仁路与广业街交叉口西侧同仁汇邻里中心B1,(0571)88021832,f8f9c14a09f48aaebbbd63db,f8f9c14a09f48aaebbbd63db,1,"{'distance': 0, 'tag': '购物;超市', 'type': 'shopping', 'detail_url': 'http://api.map.baidu.com/place/detail?uid=f8f9c14a09f48aaebbbd63db&output=html&source=placeapi_v2', 'price': '0.0', 'overall_rating': '3.7', 'comment_num': '3', 'shop_hours': '', 'label': '超市', 'children': []}","{'lat': 30.332184, 'lng': 120.0848}",http://api.map.baidu.com/place/detail?uid=f8f9c14a09f48aaebbbd63db&output=html&source=placeapi_v2,购物;超市,shopping,False,0,120.0848,30.332184,购物,超市
海澜之家(同仁汇邻里中心店),浙江省,杭州市,西湖区,浙江省杭州市西湖区嘉仁路与广业街交叉口西侧同仁汇邻里中心F1,(0571)85806810,3f2554695431622fc8213da2,3f2554695431622fc8213da2,1,"{'distance': 0, 'tag': '购物;商铺', 'type': 'shopping', 'detail_url': 'http://api.map.baidu.com/place/detail?uid=3f2554695431622fc8213da2&output=html&source=placeapi_v2', 'overall_rating': '3.5', 'comment_num': '0', 'shop_hours': '', 'label': '男装', 'children': []}","{'lat': 30.332763, 'lng': 120.084271}",http://api.map.baidu.com/place/detail?uid=3f2554695431622fc8213da2&output=html&source=placeapi_v2,购物;商铺,shopping,False,0,120.084271,30.332763,购物,商铺
毛源昌眼镜(同仁汇邻里中心店),浙江省,杭州市,西湖区,浙江省杭州市西湖区嘉仁路与广业街交叉口西侧同仁汇邻里中心F1,(0571)89807388,79fa17a35c152a59f92d6101,79fa17a35c152a59f92d6101,1,"{'distance': 0, 'tag': '购物;商铺', 'type': 'shopping', 'detail_url': 'http://api.map.baidu.com/place/detail?uid=79fa17a35c152a59f92d6101&output=html&source=placeapi_v2', 'overall_rating': '3.1', 'shop_hours': '', 'label': '眼镜店', 'children': []}","{'lat': 30.33235, 'lng': 120.084584}",http://api.map.baidu.com/place/detail?uid=79fa17a35c152a59f92d6101&output=html&source=placeapi_v2,购物;商铺,shopping,False,0,120.084584,30.33235,购物,商铺
十足便利店(西港发展中心店),浙江省,杭州市,西湖区,浙江省杭州市西湖区振华路292-3号,(0571)87777363,564dfd73963015c23913fdec,564dfd73963015c23913fdec,1,"{'distance': 0, 'tag': '购物;便利店', 'type': 'shopping', 'detail_url': 'http://api.map.baidu.com/place/detail?uid=564dfd73963015c23913fdec&output=html&source=placeapi_v2', 'overall_rating': '3.7', 'comment_num': '0', 'shop_hours': '', 'label': '便利店', 'children': []}","{'lat': 30.317966, 'lng': 120.072751}",http://api.map.baidu.com/place/detail?uid=564dfd73963015c23913fdec&output=html&source=placeapi_v2,购物;便利店,shopping,False,0,120.072751,30.317966,购物,便利店
全家便利店(西园八路店),浙江省,杭州市,西湖区,浙江省杭州市西湖区西园八路3号e1幢,4008200996,658150645b698b2602294fbc,658150645b698b2602294fbc,1,"{'distance': 0, 'tag': '购物;便利店', 'type': 'shopping', 'detail_url': 'http://api.map.baidu.com/place/detail?uid=658150645b698b2602294fbc&output=html&source=placeapi_v2', 'overall_rating': '4.1', 'comment_num': '0', 'shop_hours': '', 'label': '便利店', 'children': []}","{'lat': 30.313743, 'lng': 120.070269}",http://api.map.baidu.com/place/detail?uid=658150645b698b2602294fbc&output=html&source=placeapi_v2,购物;便利店,shopping,False,0,120.070269,30.313743,购物,便利店
全家便利店(华策中心店),浙江省,杭州市,西湖区,浙江省杭州市西湖区五常港路426号商铺，华策中心9号楼107室,(0571)86690295,20666eb51b9eb67e86420ec7,20666eb51b9eb67e86420ec7,1,"{'distance': 0, 'tag': '购物;便利店', 'type': 'shopping', 'detail_url': 'http://api.map.baidu.com/place/detail?uid=20666eb51b9eb67e86420ec7&output=html&source=placeapi_v2', 'overall_rating': '3.8', 'comment_num': '0', 'shop_hours': '', 'label': '便利店', 'children': []}","{'lat': 30.305841, 'lng': 120.072959}",http://api.map.baidu.com/place/detail?uid=20666eb51b9eb67e86420ec7&output=html&source=placeapi_v2,购物;便利店,shopping,False,0,120.072959,30.305841,购物,便利店
印象城(古墩路店)-西门,浙江省,杭州市,西湖区,浙江省杭州市西湖区古墩路588号印象城F1,None,bcac4ed65e6fea674d5547d3,bcac4ed65e6fea674d5547d3,1,"{'distance': 0, 'tag': '出入口;门', 'type': 'life', 'detail_url': 'http://api.map.baidu.com/place/detail?uid=bcac4ed65e6fea674d5547d3&output=html&source=placeapi_v2', 'shop_hours': '', 'label': '门', 'children': []}","{'lat': 30.300107, 'lng': 120.104967}",http://api.map.baidu.com/place/detail?uid=bcac4ed65e6fea674d5547d3&output=html&source=placeapi_v2,出入口;门,life,False,0,120.104967,30.300107,出入口,门
雷士光源东南照明,浙江省,杭州市,西湖区,浙江省杭州市西湖区厚仁路372号三墩新天地商业中心1层,None,dc0afcace9dc36ec4e2fdfde,dc0afcace9dc36ec4e2fdfde,1,"{'distance': 0, 'tag': '购物;家居建材', 'type': 'shopping', 'detail_url': 'http://api.map.baidu.com/place/detail?uid=dc0afcace9dc36ec4e2fdfde&output=html&source=placeapi_v2', 'overall_rating': '0.0', 'shop_hours': '', 'label': '家居建材', 'children': []}","{'lat': 30.33841, 'lng': 120.085768}",http://api.map.baidu.com/place/detail?uid=dc0afcace9dc36ec4e2fdfde&output=html&source=placeapi_v2,购物;家居建材,shopping,False,0,120.085768,30.33841,购物,家居建材
奇异思维创客空间,浙江省,杭州市,西湖区,浙江杭州市西湖区西园八路浙大森林e1座403号,None,910394c0fb3b7b602fb90818,None,1,"{'distance': 0, 'tag': '购物;其他', 'type': 'shopping', 'detail_url': 'http://api.map.baidu.com/place/detail?uid=910394c0fb3b7b602fb90818&output=html&source=placeapi_v2', 'shop_hours': '', 'label': '购物', 'children': []}","{'lat': 30.313517, 'lng': 120.070084}",http://api.map.baidu.com/place/detail?uid=910394c0fb3b7b602fb90818&output=html&source=placeapi_v2,购物;其他,shopping,False,0,120.070084,30.313517,购物,其他
立视通视光中心(三墩营业部),浙江省,杭州市,西湖区,浙江省杭州市西湖区墩池路兰韵天城15-商5,(0571)28874130,fca0bcc7e796e689246e989f,fca0bcc7e796e689246e989f,1,"{'distance': 0, 'tag': '购物;商铺', 'type': 'shopping', 'detail_url': 'http://api.map.baidu.com/place/detail?uid=fca0bcc7e796e689246e989f&output=html&source=placeapi_v2', 'overall_rating': '0', 'comment_num': '0', 'shop_hours': '', 'label': '商铺', 'children': []}","{'lat': 30.335593, 'lng': 120.091056}",http://api.map.baidu.com/place/detail?uid=fca0bcc7e796e689246e989f&output=html&source=placeapi_v2,购物;商铺,shopping,False,0,120.091056,30.335593,购物,商铺
立邦涂装中心,浙江省,杭州市,西湖区,浙江省杭州市西湖区振华路3-1,None,a81caa8d331ad157b54f54ee,a81caa8d331ad157b54f54ee,1,"{'distance': 0, 'tag': '购物;家居建材', 'type': 'shopping', 'detail_url': 'http://api.map.baidu.com/place/detail?uid=a81caa8d331ad157b54f54ee&output=html&source=placeapi_v2', 'overall_rating': '5', 'comment_num': '5', 'shop_hours': '', 'label': '建材店', 'children': []}","{'lat': 30.322398, 'lng': 120.096881}",http://api.map.baidu.com/place/detail?uid=a81caa8d331ad157b54f54ee&output=html&source=placeapi_v2,购物;家居建材,shopping,False,0,120.096881,30.322398,购物,家居建材
西溪银泰城,浙江省,杭州市,西湖区,浙江省杭州市西湖区双龙街588号,(0571)85229533,639c45d45e0830382902e1c1,639c45d45e0830382902e1c1,1,"{'distance': 4354, 'tag': '购物;购物中心', 'navi_location': {'lng': 120.08323452077, 'lat': 30.298817889598}, 'type': 'shopping', 'detail_url': 'http://api.map.baidu.com/place/detail?uid=639c45d45e0830382902e1c1&output=html&source=placeapi_v2', 'overall_rating': '4.7', 'comment_num': '20', 'shop_hours': '10:00-22:00', 'label': '购物中心', 'children': []}","{'lat': 30.299129, 'lng': 120.08227}",http://api.map.baidu.com/place/detail?uid=639c45d45e0830382902e1c1&output=html&source=placeapi_v2,购物;购物中心,shopping,False,0,120.08227,30.299129,购物,购物中心
杭州西溪银泰城西区,浙江省,杭州市,西湖区,浙江省杭州市西湖区余杭塘路中国石油加油站余杭塘路东南侧约230米,None,5a16e816e867081d3be4a69a,5a16e816e867081d3be4a69a,1,"{'distance': 0, 'tag': '购物;购物中心', 'type': 'shopping', 'detail_url': 'http://api.map.baidu.com/place/detail?uid=5a16e816e867081d3be4a69a&output=html&source=placeapi_v2', 'shop_hours': '', 'label': '购物中心', 'children': []}","{'lat': 30.299789, 'lng': 120.081076}",http://api.map.baidu.com/place/detail?uid=5a16e816e867081d3be4a69a&output=html&source=placeapi_v2,购物;购物中心,shopping,False,0,120.081076,30.299789,购物,购物中心
紫金百艺,浙江省,杭州市,西湖区,浙江省杭州市西湖区古敦路718号,None,b9e97212c5c86a74f4231014,b9e97212c5c86a74f4231014,1,"{'distance': 0, 'tag': '购物;家居建材', 'type': 'shopping', 'detail_url': 'http://api.map.baidu.com/place/detail?uid=b9e97212c5c86a74f4231014&output=html&source=placeapi_v2', 'overall_rating': '3.4', 'comment_num': '0', 'shop_hours': '', 'label': '购物', 'children': []}","{'lat': 30.318748, 'lng': 120.103012}",http://api.map.baidu.com/place/detail?uid=b9e97212c5c86a74f4231014&output=html&source=placeapi_v2,购物;家居建材,shopping,False,0,120.103012,30.318748,购物,家居建材
印象城(古墩路店),浙江省,杭州市,西湖区,浙江省杭州市西湖区古墩路588号,(0571)88858666,b67ef6051c1a6363631c67ac,b67ef6051c1a6363631c67ac,1,"{'distance': 2689, 'tag': '购物;购物中心', 'navi_location': {'lng': 120.10655902333, 'lat': 30.300101943493}, 'type': 'shopping', 'detail_url': 'http://api.map.baidu.com/place/detail?uid=b67ef6051c1a6363631c67ac&output=html&source=placeapi_v2', 'overall_rating': '4.7', 'comment_num': '2', 'shop_hours': '10:00-22:00', 'label': '购物中心', 'children': []}","{'lat': 30.300144, 'lng': 120.105759}",http://api.map.baidu.com/place/detail?uid=b67ef6051c1a6363631c67ac&output=html&source=placeapi_v2,购物;购物中心,shopping,False,0,120.105759,30.300144,购物,购物中心
杭州市西城广场,浙江省,杭州市,西湖区,杭州市西湖区文二西路551号,None,db7814a0e3f32c328bb98898,db7814a0e3f32c328bb98898,1,"{'distance': 2889, 'tag': '购物;购物中心', 'navi_location': {'lng': 120.10043913739, 'lat': 30.286780071896}, 'type': 'shopping', 'detail_url': 'http://api.map.baidu.com/place/detail?uid=db7814a0e3f32c328bb98898&output=html&source=placeapi_v2', 'price': '144.0', 'overall_rating': '3.4', 'comment_num': '20', 'shop_hours': '10:00-21:00', 'label': '购物中心', 'children': []}","{'lat': 30.286551, 'lng': 120.100866}",http://api.map.baidu.com/place/detail?uid=db7814a0e3f32c328bb98898&output=html&source=placeapi_v2,购物;购物中心,shopping,False,0,120.100866,30.286551,购物,购物中心
五洲国际广场,浙江省,杭州市,西湖区,杭州市西湖区余杭塘路799号,(0571)88298252,4b51eecfbca5e301faf0cb8c,4b51eecfbca5e301faf0cb8c,1,"{'distance': 2381, 'tag': '购物;购物中心', 'navi_location': {'lng': 120.10140230055, 'lat': 30.300220510265}, 'type': 'shopping', 'detail_url': 'http://api.map.baidu.com/place/detail?uid=4b51eecfbca5e301faf0cb8c&output=html&source=placeapi_v2', 'price': '14898.0', 'overall_rating': '4.0', 'comment_num': '8', 'shop_hours': '08:30-22:00', 'label': '购物中心', 'children': []}","{'lat': 30.300381, 'lng': 120.102557}",http://api.map.baidu.com/place/detail?uid=4b51eecfbca5e301faf0cb8c&output=html&source=placeapi_v2,购物;购物中心,shopping,False,0,120.102557,30.300381,购物,购物中心
沃尔玛购物广场(印象城古墩路店),浙江省,杭州市,西湖区,浙江省杭州市西湖区古墩路588号印象城F3,None,c61bd30579d70571c27da230,c61bd30579d70571c27da230,1,"{'distance': 0, 'tag': '购物;超市', 'indoor_floor': 'F4', 'type': 'shopping', 'detail_url': 'http://api.map.baidu.com/place/detail?uid=c61bd30579d70571c27da230&output=html&source=placeapi_v2', 'overall_rating': '4.3', 'comment_num': '30', 'shop_hours': '', 'label': '大型超市', 'children': []}","{'lat': 30.299921, 'lng': 120.105952}",http://api.map.baidu.com/place/detail?uid=c61bd30579d70571c27da230&output=html&source=placeapi_v2,购物;超市,shopping,False,0,120.105952,30.299921,购物,超市
公子茗(西溪世纪中心店),浙江省,杭州市,西湖区,浙江省杭州市西湖区花蒋路136号西溪世纪中心3-130号,(0571)87325918,554d3696f2e8390c62180980,554d3696f2e8390c62180980,1,"{'distance': 0, 'tag': '购物;商铺', 'type': 'cater', 'detail_url': 'http://api.map.baidu.com/place/detail?uid=554d3696f2e8390c62180980&output=html&source=placeapi_v2', 'comment_num': '3', 'shop_hours': '', 'label': '茶座', 'children': []}","{'lat': 30.299641, 'lng': 120.078363}",http://api.map.baidu.com/place/detail?uid=554d3696f2e8390c62180980&output=html&source=placeapi_v2,购物;商铺,cater,True,0,120.078363,30.299641,购物,商铺
元气夏日(SCPG印象城购物中心店),浙江省,杭州市,西湖区,杭州市西湖区古墩路588号SCPG印象城购物中心F1,None,faa73a70e85916b261685802,None,1,"{'distance': 0, 'tag': '购物', 'indoor_floor': 'F1', 'type': 'shopping', 'detail_url': 'http://api.map.baidu.com/place/detail?uid=faa73a70e85916b261685802&output=html&source=placeapi_v2', 'shop_hours': '', 'label': '服装店', 'children': []}","{'lat': 30.300121, 'lng': 120.106107}",http://api.map.baidu.com/place/detail?uid=faa73a70e85916b261685802&output=html&source=placeapi_v2,购物,shopping,False,0,120.106107,30.300121,购物,行业缺失
SCPG印象城购物中心-服务台,浙江省,杭州市,西湖区,浙江杭州市西湖区古墩路588号4楼,None,c3bde0631303b4bcab0dd827,None,1,"{'distance': 0, 'tag': '生活服务', 'indoor_floor': 'F2', 'type': 'life', 'detail_url': 'http://api.map.baidu.com/place/detail?uid=c3bde0631303b4bcab0dd827&output=html&source=placeapi_v2', 'shop_hours': '', 'label': '生活服务', 'children': []}","{'lat': 30.300002, 'lng': 120.106031}",http://api.map.baidu.com/place/detail?uid=c3bde0631303b4bcab0dd827&output=html&source=placeapi_v2,生活服务,life,False,0,120.106031,30.300002,生活服务,行业缺失
印象城购物中心-座椅,浙江省,杭州市,西湖区,浙江省杭州市西湖区古墩路588号印象城F1,None,3bee25beae50974fb020a844,3bee25beae50974fb020a844,1,"{'distance': 0, 'tag': '生活服务;其他', 'indoor_floor': 'F1', 'type': 'life', 'detail_url': 'http://api.map.baidu.com/place/detail?uid=3bee25beae50974fb020a844&output=html&source=placeapi_v2', 'shop_hours': '', 'label': '生活服务', 'children': []}","{'lat': 30.29983, 'lng': 120.105551}",http://api.map.baidu.com/place/detail?uid=3bee25beae50974fb020a844&output=html&source=placeapi_v2,生活服务;其他,life,True,0,120.105551,30.29983,生活服务,其他
杭州灵隐休闲旅游购物中心-北门,浙江省,杭州市,西湖区,杭州市西湖区灵隐路38号,None,e92de64cd54c592ffe0eb028,e92de64cd54c592ffe0eb028,1,"{'distance': 0, 'tag': '出入口', 'type': 'life', 'detail_url': 'http://api.map.baidu.com/place/detail?uid=e92de64cd54c592ffe0eb028&output=html&source=placeapi_v2', 'shop_hours': '', 'label': '出入口', 'children': []}","{'lat': 30.247143, 'lng': 120.113256}",http://api.map.baidu.com/place/detail?uid=e92de64cd54c592ffe0eb028&output=html&source=placeapi_v2,出入口,life,False,0,120.113256,30.247143,出入口,行业缺失
五洲国际广场-北2门,浙江省,杭州市,西湖区,浙江省-杭州市-西湖区-余杭塘路,None,dbe5faed4d84c2e021f017c1,dbe5faed4d84c2e021f017c1,1,"{'distance': 433764, 'tag': '出入口;门', 'type': 'life', 'detail_url': 'http://api.map.baidu.com/place/detail?uid=dbe5faed4d84c2e021f017c1&output=html&source=placeapi_v2', 'shop_hours': '', 'label': '门', 'children': []}","{'lat': 30.300544, 'lng': 120.10183}",http://api.map.baidu.com/place/detail?uid=dbe5faed4d84c2e021f017c1&output=html&source=placeapi_v2,出入口;门,life,True,0,120.10183,30.300544,出入口,门
星光城,浙江省,杭州市,西湖区,浙江省杭州市西湖区文三路500号,4000303096,40bfb265006f2cfd9f09f758,40bfb265006f2cfd9f09f758,1,"{'distance': 3367, 'tag': '购物;购物中心', 'navi_location': {'lng': 120.12647921751, 'lat': 30.283564241104}, 'type': 'shopping', 'detail_url': 'http://api.map.baidu.com/place/detail?uid=40bfb265006f2cfd9f09f758&output=html&source=placeapi_v2', 'overall_rating': '4.3', 'comment_num': '7', 'shop_hours': '09:00-22:00', 'label': '购物中心', 'children': []}","{'lat': 30.283198, 'lng': 120.127404}",http://api.map.baidu.com/place/detail?uid=40bfb265006f2cfd9f09f758&output=html&source=placeapi_v2,购物;购物中心,shopping,False,0,120.127404,30.283198,购物,购物中心
汇和城美食(翠苑店),浙江省,杭州市,西湖区,浙江省杭州市西湖区文一路296号,None,6e7f7922f0e11ab21df74df8,6e7f7922f0e11ab21df74df8,1,"{'distance': 0, 'tag': '美食;其他', 'type': 'shopping', 'detail_url': 'http://api.map.baidu.com/place/detail?uid=6e7f7922f0e11ab21df74df8&output=html&source=placeapi_v2', 'overall_rating': '4.3', 'comment_num': '1', 'shop_hours': '', 'label': '购物中心', 'children': []}","{'lat': 30.294641, 'lng': 120.130038}",http://api.map.baidu.com/place/detail?uid=6e7f7922f0e11ab21df74df8&output=html&source=placeapi_v2,美食;其他,shopping,False,0,120.130038,30.294641,美食,其他
天阳亲子广场(文一路店),浙江省,杭州市,西湖区,浙江省杭州市西湖区文一路122号城市芯宇1幢1层,(0571)87759991,69d36716947c8a16d2f49e14,69d36716947c8a16d2f49e14,1,"{'distance': 0, 'tag': '购物', 'type': 'shopping', 'detail_url': 'http://api.map.baidu.com/place/detail?uid=69d36716947c8a16d2f49e14&output=html&source=placeapi_v2', 'overall_rating': '3.7', 'comment_num': '0', 'shop_hours': '', 'label': '购物', 'children': []}","{'lat': 30.295351, 'lng': 120.143704}",http://api.map.baidu.com/place/detail?uid=69d36716947c8a16d2f49e14&output=html&source=placeapi_v2,购物,shopping,False,0,120.143704,30.295351,购物,行业缺失
SCPG印象城购物中心-座椅,浙江省,杭州市,西湖区,杭州市西湖区古墩路588号SCPG印象城购物中心F4,None,e76922292b848b5dd4851fb4,e76922292b848b5dd4851fb4,1,"{'distance': 0, 'tag': '生活服务;其他', 'indoor_floor': 'F4', 'type': 'life', 'detail_url': 'http://api.map.baidu.com/place/detail?uid=e76922292b848b5dd4851fb4&output=html&source=placeapi_v2', 'shop_hours': '', 'label': '生活服务', 'children': []}","{'lat': 30.299799, 'lng': 120.105668}",http://api.map.baidu.com/place/detail?uid=e76922292b848b5dd4851fb4&output=html&source=placeapi_v2,生活服务;其他,life,True,0,120.105668,30.299799,生活服务,其他
SCPG印象城购物中心-座椅,浙江省,杭州市,西湖区,杭州市西湖区古墩路588号SCPG印象城购物中心F2,None,57df63c74cd9a1910869d95a,57df63c74cd9a1910869d95a,1,"{'distance': 0, 'tag': '生活服务;其他', 'indoor_floor': 'F2', 'type': 'life', 'detail_url': 'http://api.map.baidu.com/place/detail?uid=57df63c74cd9a1910869d95a&output=html&source=placeapi_v2', 'shop_hours': '', 'label': '生活服务', 'children': []}","{'lat': 30.299822, 'lng': 120.105649}",http://api.map.baidu.com/place/detail?uid=57df63c74cd9a1910869d95a&output=html&source=placeapi_v2,生活服务;其他,life,True,0,120.105649,30.299822,生活服务,其他
印象城(古墩路店)-楼梯,浙江省,杭州市,西湖区,浙江省杭州市西湖区古墩路588号印象城F2,None,dd25a9467a69c7e005026ffe,dd25a9467a69c7e005026ffe,1,"{'distance': 0, 'tag': '生活服务;其他', 'indoor_floor': 'F2', 'type': 'life', 'detail_url': 'http://api.map.baidu.com/place/detail?uid=dd25a9467a69c7e005026ffe&output=html&source=placeapi_v2', 'shop_hours': '', 'label': '生活服务', 'children': []}","{'lat': 30.30027, 'lng': 120.105927}",http://api.map.baidu.com/place/detail?uid=dd25a9467a69c7e005026ffe&output=html&source=placeapi_v2,生活服务;其他,life,True,0,120.105927,30.30027,生活服务,其他
印象城(古墩路店)-楼梯,浙江省,杭州市,西湖区,浙江省杭州市西湖区古墩路588号印象城F1,None,ae34e979360fa9e4157643a1,ae34e979360fa9e4157643a1,1,"{'distance': 0, 'tag': '生活服务;其他', 'indoor_floor': 'F1', 'type': 'life', 'detail_url': 'http://api.map.baidu.com/place/detail?uid=ae34e979360fa9e4157643a1&output=html&source=placeapi_v2', 'shop_hours': '', 'label': '生活服务', 'children': []}","{'lat': 30.300244, 'lng': 120.10591}",http://api.map.baidu.com/place/detail?uid=ae34e979360fa9e4157643a1&output=html&source=placeapi_v2,生活服务;其他,life,True,0,120.10591,30.300244,生活服务,其他
印象城(古墩路店)-楼梯,浙江省,杭州市,西湖区,浙江省杭州市西湖区古墩路588号印象城F4,None,2090fdce69e75cfdb1077dd8,2090fdce69e75cfdb1077dd8,1,"{'distance': 0, 'tag': '生活服务;其他', 'indoor_floor': 'F4', 'type': 'life', 'detail_url': 'http://api.map.baidu.com/place/detail?uid=2090fdce69e75cfdb1077dd8&output=html&source=placeapi_v2', 'shop_hours': '', 'label': '生活服务', 'children': []}","{'lat': 30.299677, 'lng': 120.105361}",http://api.map.baidu.com/place/detail?uid=2090fdce69e75cfdb1077dd8&output=html&source=placeapi_v2,生活服务;其他,life,True,0,120.105361,30.299677,生活服务,其他
SCPG印象城购物中心-座椅,浙江省,杭州市,西湖区,杭州市西湖区古墩路588号SCPG印象城购物中心F4,None,ee1d84c731903a005cd4fed2,ee1d84c731903a005cd4fed2,1,"{'distance': 0, 'tag': '生活服务;其他', 'indoor_floor': 'F4', 'type': 'life', 'detail_url': 'http://api.map.baidu.com/place/detail?uid=ee1d84c731903a005cd4fed2&output=html&source=placeapi_v2', 'shop_hours': '', 'label': '生活服务', 'children': []}","{'lat': 30.300175, 'lng': 120.105581}",http://api.map.baidu.com/place/detail?uid=ee1d84c731903a005cd4fed2&output=html&source=placeapi_v2,生活服务;其他,life,True,0,120.105581,30.300175,生活服务,其他
印象城(古墩路店)-楼梯,浙江省,杭州市,西湖区,浙江省杭州市西湖区古墩路588号印象城F1,None,2a452e48acec7e2e76e5b638,2a452e48acec7e2e76e5b638,1,"{'distance': 0, 'tag': '生活服务;其他', 'indoor_floor': 'F1', 'type': 'life', 'detail_url': 'http://api.map.baidu.com/place/detail?uid=2a452e48acec7e2e76e5b638&output=html&source=placeapi_v2', 'shop_hours': '', 'label': '生活服务', 'children': []}","{'lat': 30.299637, 'lng': 120.105602}",http://api.map.baidu.com/place/detail?uid=2a452e48acec7e2e76e5b638&output=html&source=placeapi_v2,生活服务;其他,life,True,0,120.105602,30.299637,生活服务,其他
印象城购物中心-直梯(客梯),浙江省,杭州市,西湖区,浙江省杭州市西湖区古墩路588号印象城F1,None,32d4ee58acf4ad69a21de90f,32d4ee58acf4ad69a21de90f,1,"{'distance': 0, 'tag': '生活服务;其他', 'indoor_floor': 'F1', 'type': 'life', 'detail_url': 'http://api.map.baidu.com/place/detail?uid=32d4ee58acf4ad69a21de90f&output=html&source=placeapi_v2', 'shop_hours': '', 'label': '生活服务', 'children': []}","{'lat': 30.299825, 'lng': 120.105162}",http://api.map.baidu.com/place/detail?uid=32d4ee58acf4ad69a21de90f&output=html&source=placeapi_v2,生活服务;其他,life,True,0,120.105162,30.299825,生活服务,其他
印象城购物中心-直梯(客梯),浙江省,杭州市,西湖区,浙江省杭州市西湖区古墩路588号印象城F1,None,395a268e75b713a82202623b,395a268e75b713a82202623b,1,"{'distance': 0, 'tag': '生活服务;其他', 'indoor_floor': 'F1', 'type': 'life', 'detail_url': 'http://api.map.baidu.com/place/detail?uid=395a268e75b713a82202623b&output=html&source=placeapi_v2', 'shop_hours': '', 'label': '生活服务', 'children': []}","{'lat': 30.299791, 'lng': 120.105155}",http://api.map.baidu.com/place/detail?uid=395a268e75b713a82202623b&output=html&source=placeapi_v2,生活服务;其他,life,True,0,120.105155,30.299791,生活服务,其他
印象城购物中心-扶梯,浙江省,杭州市,西湖区,浙江省杭州市西湖区古墩路588号印象城F1,None,c80aa44e08cdfb468415410a,c80aa44e08cdfb468415410a,1,"{'distance': 0, 'tag': '生活服务;其他', 'indoor_floor': 'F1', 'type': 'life', 'detail_url': 'http://api.map.baidu.com/place/detail?uid=c80aa44e08cdfb468415410a&output=html&source=placeapi_v2', 'shop_hours': '', 'label': '生活服务', 'children': []}","{'lat': 30.29992, 'lng': 120.106027}",http://api.map.baidu.com/place/detail?uid=c80aa44e08cdfb468415410a&output=html&source=placeapi_v2,生活服务;其他,life,True,0,120.106027,30.29992,生活服务,其他
印象城购物中心-直梯(客梯),浙江省,杭州市,西湖区,浙江省杭州市西湖区古墩路588号印象城F2,None,2e54a9c608111eb25dd4fe98,2e54a9c608111eb25dd4fe98,1,"{'distance': 0, 'tag': '生活服务;其他', 'indoor_floor': 'F2', 'type': 'life', 'detail_url': 'http://api.map.baidu.com/place/detail?uid=2e54a9c608111eb25dd4fe98&output=html&source=placeapi_v2', 'shop_hours': '', 'label': '生活服务', 'children': []}","{'lat': 30.299825, 'lng': 120.105162}",http://api.map.baidu.com/place/detail?uid=2e54a9c608111eb25dd4fe98&output=html&source=placeapi_v2,生活服务;其他,life,True,0,120.105162,30.299825,生活服务,其他
印象城(古墩路店)-楼梯,浙江省,杭州市,西湖区,浙江省杭州市西湖区古墩路588号印象城F5,None,5adebb9ae921477f29fc488b,5adebb9ae921477f29fc488b,1,"{'distance': 0, 'tag': '生活服务;其他', 'indoor_floor': 'F5', 'type': 'life', 'detail_url': 'http://api.map.baidu.com/place/detail?uid=5adebb9ae921477f29fc488b&output=html&source=placeapi_v2', 'shop_hours': '', 'label': '生活服务', 'children': []}","{'lat': 30.300118, 'lng': 120.10655}",http://api.map.baidu.com/place/detail?uid=5adebb9ae921477f29fc488b&output=html&source=placeapi_v2,生活服务;其他,life,True,0,120.10655,30.300118,生活服务,其他
印象城(古墩路店)-楼梯,浙江省,杭州市,西湖区,浙江省杭州市西湖区古墩路588号印象城F2,None,e03ad0b24e3ecabcf4e73bc5,e03ad0b24e3ecabcf4e73bc5,1,"{'distance': 0, 'tag': '生活服务;其他', 'indoor_floor': 'F2', 'type': 'life', 'detail_url': 'http://api.map.baidu.com/place/detail?uid=e03ad0b24e3ecabcf4e73bc5&output=html&source=placeapi_v2', 'shop_hours': '', 'label': '生活服务', 'children': []}","{'lat': 30.299567, 'lng': 120.106013}",http://api.map.baidu.com/place/detail?uid=e03ad0b24e3ecabcf4e73bc5&output=html&source=placeapi_v2,生活服务;其他,life,True,0,120.106013,30.299567,生活服务,其他
印象城(古墩路店)-楼梯,浙江省,杭州市,西湖区,浙江省杭州市西湖区古墩路588号印象城F3,None,00ef08566978e5c99fec2b02,00ef08566978e5c99fec2b02,1,"{'distance': 0, 'tag': '生活服务;其他', 'indoor_floor': 'B1', 'type': 'life', 'detail_url': 'http://api.map.baidu.com/place/detail?uid=00ef08566978e5c99fec2b02&output=html&source=placeapi_v2', 'shop_hours': '', 'label': '生活服务', 'children': []}","{'lat': 30.299584, 'lng': 120.106007}",http://api.map.baidu.com/place/detail?uid=00ef08566978e5c99fec2b02&output=html&source=placeapi_v2,生活服务;其他,life,True,0,120.106007,30.299584,生活服务,其他
亿家选购物中心,浙江省,杭州市,西湖区,浙江省杭州市西湖区池华街396号丰盛九玺8幢,None,5056b24666de47945e0d0297,5056b24666de47945e0d0297,1,"{'distance': 0, 'tag': '购物;超市', 'type': 'shopping', 'detail_url': 'http://api.map.baidu.com/place/detail?uid=5056b24666de47945e0d0297&output=html&source=placeapi_v2', 'shop_hours': '', 'label': '超市', 'children': []}","{'lat': 30.333699, 'lng': 120.074778}",http://api.map.baidu.com/place/detail?uid=5056b24666de47945e0d0297&output=html&source=placeapi_v2,购物;超市,shopping,False,0,120.074778,30.333699,购物,超市
印象城购物中心-座椅,浙江省,杭州市,西湖区,浙江省杭州市西湖区古墩路588号印象城F2,None,fb8d5131f75bfc9ed4851f51,fb8d5131f75bfc9ed4851f51,1,"{'distance': 0, 'tag': '生活服务;其他', 'indoor_floor': 'F2', 'type': 'life', 'detail_url': 'http://api.map.baidu.com/place/detail?uid=fb8d5131f75bfc9ed4851f51&output=html&source=placeapi_v2', 'shop_hours': '', 'label': '生活服务', 'children': []}","{'lat': 30.299767, 'lng': 120.105174}",http://api.map.baidu.com/place/detail?uid=fb8d5131f75bfc9ed4851f51&output=html&source=placeapi_v2,生活服务;其他,life,True,0,120.105174,30.299767,生活服务,其他
印象城(古墩路店)-楼梯,浙江省,杭州市,西湖区,浙江省杭州市西湖区古墩路588号印象城F2,None,c82f7698fe5ca93eb34c49e2,c82f7698fe5ca93eb34c49e2,1,"{'distance': 0, 'tag': '生活服务;其他', 'indoor_floor': 'F2', 'type': 'life', 'detail_url': 'http://api.map.baidu.com/place/detail?uid=c82f7698fe5ca93eb34c49e2&output=html&source=placeapi_v2', 'shop_hours': '', 'label': '生活服务', 'children': []}","{'lat': 30.299553, 'lng': 120.106109}",http://api.map.baidu.com/place/detail?uid=c82f7698fe5ca93eb34c49e2&output=html&source=placeapi_v2,生活服务;其他,life,True,0,120.106109,30.299553,生活服务,其他
印象城(古墩路店)-楼梯,浙江省,杭州市,西湖区,浙江省杭州市西湖区古墩路588号印象城M,None,3401e7d8c5c0759cdbd891c4,3401e7d8c5c0759cdbd891c4,1,"{'distance': 0, 'tag': '生活服务;其他', 'indoor_floor': 'M', 'type': 'life', 'detail_url': 'http://api.map.baidu.com/place/detail?uid=3401e7d8c5c0759cdbd891c4&output=html&source=placeapi_v2', 'shop_hours': '', 'label': '生活服务', 'children': []}","{'lat': 30.300118, 'lng': 120.10655}",http://api.map.baidu.com/place/detail?uid=3401e7d8c5c0759cdbd891c4&output=html&source=placeapi_v2,生活服务;其他,life,True,0,120.10655,30.300118,生活服务,其他
SCPG印象城购物中心-座椅,浙江省,杭州市,西湖区,杭州市西湖区古墩路588号SCPG印象城购物中心F1,None,8988bf9bb1ad41080d3dda71,None,1,"{'distance': 0, 'tag': '生活服务;其他', 'indoor_floor': 'F1', 'type': 'life', 'detail_url': 'http://api.map.baidu.com/place/detail?uid=8988bf9bb1ad41080d3dda71&output=html&source=placeapi_v2', 'shop_hours': '', 'label': '生活服务', 'children': []}","{'lat': 30.299897, 'lng': 120.10617}",http://api.map.baidu.com/place/detail?uid=8988bf9bb1ad41080d3dda71&output=html&source=placeapi_v2,生活服务;其他,life,True,0,120.10617,30.299897,生活服务,其他
印象城购物中心-座椅,浙江省,杭州市,西湖区,浙江省杭州市西湖区古墩路588号印象城F3,None,e3b92e3b0031c0dc1e3894ad,e3b92e3b0031c0dc1e3894ad,1,"{'distance': 0, 'tag': '生活服务;其他', 'indoor_floor': 'F3', 'type': 'life', 'detail_url': 'http://api.map.baidu.com/place/detail?uid=e3b92e3b0031c0dc1e3894ad&output=html&source=placeapi_v2', 'shop_hours': '', 'label': '生活服务', 'children': []}","{'lat': 30.299733, 'lng': 120.105169}",http://api.map.baidu.com/place/detail?uid=e3b92e3b0031c0dc1e3894ad&output=html&source=placeapi_v2,生活服务;其他,life,True,0,120.105169,30.299733,生活服务,其他
印象城购物中心-座椅,浙江省,杭州市,西湖区,浙江省杭州市西湖区古墩路588号印象城F4,None,551358ed849d7eec40afe6b5,551358ed849d7eec40afe6b5,1,"{'distance': 0, 'tag': '生活服务;其他', 'indoor_floor': 'F4', 'type': 'life', 'detail_url': 'http://api.map.baidu.com/place/detail?uid=551358ed849d7eec40afe6b5&output=html&source=placeapi_v2', 'shop_hours': '', 'label': '生活服务', 'children': []}","{'lat': 30.299686, 'lng': 120.105178}",http://api.map.baidu.com/place/detail?uid=551358ed849d7eec40afe6b5&output=html&source=placeapi_v2,生活服务;其他,life,True,0,120.105178,30.299686,生活服务,其他
印象城购物中心-直梯(货梯),浙江省,杭州市,西湖区,浙江省杭州市西湖区古墩路588号印象城F1,None,aeb366842d0da99bf8dc8513,aeb366842d0da99bf8dc8513,1,"{'distance': 0, 'tag': '生活服务;其他', 'indoor_floor': 'F1', 'type': 'life', 'detail_url': 'http://api.map.baidu.com/place/detail?uid=aeb366842d0da99bf8dc8513&output=html&source=placeapi_v2', 'shop_hours': '', 'label': '生活服务', 'children': []}","{'lat': 30.299778, 'lng': 120.105241}",http://api.map.baidu.com/place/detail?uid=aeb366842d0da99bf8dc8513&output=html&source=placeapi_v2,生活服务;其他,life,True,0,120.105241,30.299778,生活服务,其他
SCPG印象城购物中心-座椅,浙江省,杭州市,西湖区,杭州市西湖区古墩路588号SCPG印象城购物中心F1,None,61224cfd2a42dcc8ae080f02,None,1,"{'distance': 0, 'tag': '生活服务;其他', 'indoor_floor': 'F1', 'type': 'life', 'detail_url': 'http://api.map.baidu.com/place/detail?uid=61224cfd2a42dcc8ae080f02&output=html&source=placeapi_v2', 'shop_hours': '', 'label': '生活服务', 'children': []}","{'lat': 30.299787, 'lng': 120.105847}",http://api.map.baidu.com/place/detail?uid=61224cfd2a42dcc8ae080f02&output=html&source=placeapi_v2,生活服务;其他,life,True,0,120.105847,30.299787,生活服务,其他
铂澜大象城,浙江省,杭州市,西湖区,浙江省杭州市西湖区文一路294号,(0571)56050515,82caa08e549aa785704b87ab,82caa08e549aa785704b87ab,1,"{'distance': 2980, 'tag': '购物;购物中心', 'navi_location': {'lng': 120.13027887015, 'lat': 30.294412828919}, 'type': 'shopping', 'detail_url': 'http://api.map.baidu.com/place/detail?uid=82caa08e549aa785704b87ab&output=html&source=placeapi_v2', 'price': '75.0', 'overall_rating': '4.3', 'comment_num': '19', 'shop_hours': '00:00-03:00,09:00-24:00', 'label': '购物中心', 'children': []}","{'lat': 30.295081, 'lng': 120.130826}",http://api.map.baidu.com/place/detail?uid=82caa08e549aa785704b87ab&output=html&source=placeapi_v2,购物;购物中心,shopping,False,0,120.130826,30.295081,购物,购物中心
五洲国际广场-北3门,浙江省,杭州市,西湖区,浙江省杭州市西湖区余杭塘路799号,None,85311e445529ed67fd0eb0b2,85311e445529ed67fd0eb0b2,1,"{'distance': 0, 'tag': '出入口;门', 'type': 'life', 'detail_url': 'http://api.map.baidu.com/place/detail?uid=85311e445529ed67fd0eb0b2&output=html&source=placeapi_v2', 'shop_hours': '', 'label': '门', 'children': []}","{'lat': 30.300645, 'lng': 120.102069}",http://api.map.baidu.com/place/detail?uid=85311e445529ed67fd0eb0b2&output=html&source=placeapi_v2,出入口;门,life,True,0,120.102069,30.300645,出入口,门
印象城购物中心(杭州店)-接送点,浙江省,杭州市,西湖区,杭州市西湖区印象城购物中心(杭州店)附近,None,62af4e67b53dfbe6b5147f8c,62af4e67b53dfbe6b5147f8c,1,"{'distance': 0, 'tag': '交通设施;接送点', 'type': 'life', 'detail_url': 'http://api.map.baidu.com/place/detail?uid=62af4e67b53dfbe6b5147f8c&output=html&source=placeapi_v2', 'shop_hours': '', 'label': '接送点', 'children': []}","{'lat': 30.300905, 'lng': 120.10602}",http://api.map.baidu.com/place/detail?uid=62af4e67b53dfbe6b5147f8c&output=html&source=placeapi_v2,交通设施;接送点,life,True,0,120.10602,30.300905,交通设施,接送点
格力大金(梦溪街店),浙江省,杭州市,西湖区,杭州市西湖区梦溪街浙江外国语学院附属实验小学南侧约160米,(0571)88309015,f3acf90d45ee76764302459f,f3acf90d45ee76764302459f,1,"{'distance': 0, 'tag': '购物;家电数码', 'type': 'shopping', 'detail_url': 'http://api.map.baidu.com/place/detail?uid=f3acf90d45ee76764302459f&output=html&source=placeapi_v2', 'overall_rating': '0.0', 'shop_hours': '', 'label': '家电数码', 'children': []}","{'lat': 30.243063, 'lng': 120.061672}",http://api.map.baidu.com/place/detail?uid=f3acf90d45ee76764302459f&output=html&source=placeapi_v2,购物;家电数码,shopping,False,0,120.061672,30.243063,购物,家电数码
售后服务,浙江省,杭州市,西湖区,杭州市西湖区华泰路华泰创业园,None,667cdd7339528b286ca3cc07,667cdd7339528b286ca3cc07,1,"{'distance': 1451, 'tag': '生活服务;维修点', 'type': 'life', 'detail_url': 'http://api.map.baidu.com/place/detail?uid=667cdd7339528b286ca3cc07&output=html&source=placeapi_v2', 'image_num': '1', 'shop_hours': '09:00-19:00', 'label': '维修点', 'children': []}","{'lat': 30.261899, 'lng': 120.090837}",http://api.map.baidu.com/place/detail?uid=667cdd7339528b286ca3cc07&output=html&source=placeapi_v2,生活服务;维修点,life,False,0,120.090837,30.261899,生活服务,维修点
哥弟(印象城古墩路店),浙江省,杭州市,西湖区,浙江省杭州市西湖区古墩路588号印象城F1,(0571)89937243,fc3d30d9d87d0c74b6147f69,fc3d30d9d87d0c74b6147f69,1,"{'distance': 0, 'tag': '购物;商铺', 'indoor_floor': 'F1', 'type': 'shopping', 'detail_url': 'http://api.map.baidu.com/place/detail?uid=fc3d30d9d87d0c74b6147f69&output=html&source=placeapi_v2', 'overall_rating': '3.7', 'comment_num': '1', 'shop_hours': '', 'label': '女装店', 'children': []}","{'lat': 30.300012, 'lng': 120.1057}",http://api.map.baidu.com/place/detail?uid=fc3d30d9d87d0c74b6147f69&output=html&source=placeapi_v2,购物;商铺,shopping,False,0,120.1057,30.300012,购物,商铺
印象城(古墩路店)-3号门,浙江省,杭州市,西湖区,浙江省杭州市西湖区古墩路588号印象城F1,None,fc3c09d7b2d84fb8ca09f004,fc3c09d7b2d84fb8ca09f004,1,"{'distance': 0, 'tag': '出入口;其他', 'indoor_floor': 'F1', 'type': 'life', 'detail_url': 'http://api.map.baidu.com/place/detail?uid=fc3c09d7b2d84fb8ca09f004&output=html&source=placeapi_v2', 'image_num': '1', 'shop_hours': '', 'label': '门', 'children': []}","{'lat': 30.299901, 'lng': 120.106281}",http://api.map.baidu.com/place/detail?uid=fc3c09d7b2d84fb8ca09f004&output=html&source=placeapi_v2,出入口;其他,life,False,0,120.106281,30.299901,出入口,其他
杭州丝绸(灵竺路店),浙江省,杭州市,西湖区,浙江省杭州市西湖区灵隐路38号翠微园,None,33703344784a980736b06c35,33703344784a980736b06c35,1,"{'distance': 4157, 'tag': '购物;商铺', 'type': 'shopping', 'detail_url': 'http://api.map.baidu.com/place/detail?uid=33703344784a980736b06c35&output=html&source=placeapi_v2', 'overall_rating': '3.5', 'comment_num': '0', 'shop_hours': '09:30-21:00', 'label': '商铺', 'children': []}","{'lat': 30.246782, 'lng': 120.11299}",http://api.map.baidu.com/place/detail?uid=33703344784a980736b06c35&output=html&source=placeapi_v2,购物;商铺,shopping,False,0,120.11299,30.246782,购物,商铺
HUABOTOU(昆仑西城广场店),浙江省,杭州市,西湖区,杭州市西湖区文二西路551号杭州市西城广场B1,None,6a3a9b4764d384d3b320a8b7,,1,"{'distance': 3011, 'tag': '购物;商铺', 'indoor_floor': 'B2', 'type': 'shopping', 'detail_url': 'http://api.map.baidu.com/place/detail?uid=6a3a9b4764d384d3b320a8b7&output=html&source=placeapi_v2', 'shop_hours': '10:00-22:00', 'label': '商铺', 'children': []}","{'lat': 30.286694, 'lng': 120.10154}",http://api.map.baidu.com/place/detail?uid=6a3a9b4764d384d3b320a8b7&output=html&source=placeapi_v2,购物;商铺,shopping,False,0,120.10154,30.286694,购物,商铺
清新茶叶商店(一分部),浙江省,杭州市,西湖区,浙江省杭州市西湖区灵隐路38号,"(0571)87976641,13605711979",730f5d57abf1ffa1f4eafcff,730f5d57abf1ffa1f4eafcff,1,"{'distance': 4171, 'tag': '购物;商铺', 'type': 'shopping', 'detail_url': 'http://api.map.baidu.com/place/detail?uid=730f5d57abf1ffa1f4eafcff&output=html&source=placeapi_v2', 'shop_hours': '08:00-17:30', 'label': '茶叶', 'children': []}","{'lat': 30.24683, 'lng': 120.113211}",http://api.map.baidu.com/place/detail?uid=730f5d57abf1ffa1f4eafcff&output=html&source=placeapi_v2,购物;商铺,shopping,False,0,120.113211,30.24683,购物,商铺
小天才(印象城古墩路店),浙江省,杭州市,西湖区,浙江省杭州市西湖区古墩路588号印象城F1,None,035370fbede5bb55c51e514a,None,1,"{'distance': 4386, 'tag': '购物;家电数码', 'indoor_floor': 'F2', 'type': 'shopping', 'detail_url': 'http://api.map.baidu.com/place/detail?uid=035370fbede5bb55c51e514a&output=html&source=placeapi_v2', 'shop_hours': '10:00-22:00', 'label': '商铺', 'children': []}","{'lat': 30.299979, 'lng': 120.105986}",http://api.map.baidu.com/place/detail?uid=035370fbede5bb55c51e514a&output=html&source=placeapi_v2,购物;家电数码,shopping,False,0,120.105986,30.299979,购物,家电数码
因为(印象城古墩路店),浙江省,杭州市,西湖区,浙江省杭州市西湖区古墩路588号印象城F2,None,71ced3f221eedeedc36c14d2,None,1,"{'distance': 0, 'tag': '购物', 'type': 'shopping', 'detail_url': 'http://api.map.baidu.com/place/detail?uid=71ced3f221eedeedc36c14d2&output=html&source=placeapi_v2', 'shop_hours': '', 'label': '购物', 'children': []}","{'lat': 30.300031, 'lng': 120.105436}",http://api.map.baidu.com/place/detail?uid=71ced3f221eedeedc36c14d2&output=html&source=placeapi_v2,购物,shopping,False,0,120.105436,30.300031,购物,行业缺失
布衣生活馆(解百灵隐购物中心店),浙江省,杭州市,西湖区,浙江省杭州市西湖区灵隐路38号隐市2楼,None,ccebf768a85f17272b3a9f00,ccebf768a85f17272b3a9f00,1,"{'distance': 0, 'tag': '购物;商铺', 'type': 'shopping', 'detail_url': 'http://api.map.baidu.com/place/detail?uid=ccebf768a85f17272b3a9f00&output=html&source=placeapi_v2', 'shop_hours': '', 'label': '商铺', 'children': []}","{'lat': 30.246991, 'lng': 120.113598}",http://api.map.baidu.com/place/detail?uid=ccebf768a85f17272b3a9f00&output=html&source=placeapi_v2,购物;商铺,shopping,False,0,120.113598,30.246991,购物,商铺
留下街道西溪时代商业中心超市,浙江省,杭州市,西湖区,浙江省杭州市西湖区留下街道西溪时代商业中心超市,None,78766346fc4f028ea1d2309a,78766346fc4f028ea1d2309a,1,"{'distance': 2328, 'tag': '购物;超市', 'type': 'shopping', 'detail_url': 'http://api.map.baidu.com/place/detail?uid=78766346fc4f028ea1d2309a&output=html&source=placeapi_v2', 'shop_hours': '08:00-21:30', 'label': '超市', 'children': []}","{'lat': 30.248732, 'lng': 120.060629}",http://api.map.baidu.com/place/detail?uid=78766346fc4f028ea1d2309a&output=html&source=placeapi_v2,购物;超市,shopping,False,0,120.060629,30.248732,购物,超市
中国移动(留下分公司),浙江省,杭州市,西湖区,浙江省杭州市西湖区留下大街125号,None,9936d70c68524101a2d23088,9936d70c68524101a2d23088,1,"{'distance': 0, 'tag': '生活服务;通讯营业厅', 'type': 'shopping', 'detail_url': 'http://api.map.baidu.com/place/detail?uid=9936d70c68524101a2d23088&output=html&source=placeapi_v2', 'comment_num': '1', 'shop_hours': '', 'label': '手机销售', 'children': []}","{'lat': 30.247787, 'lng': 120.060656}",http://api.map.baidu.com/place/detail?uid=9936d70c68524101a2d23088&output=html&source=placeapi_v2,生活服务;通讯营业厅,shopping,False,0,120.060656,30.247787,生活服务,通讯营业厅
肯德基(灵竺店)-洗手间,浙江省,杭州市,西湖区,杭州市西湖区灵隐路34号(近灵隐寺),None,feabcbf82215cd411e1d11a8,feabcbf82215cd411e1d11a8,1,"{'distance': 0, 'tag': '生活服务;公共厕所', 'type': 'life', 'detail_url': 'http://api.map.baidu.com/place/detail?uid=feabcbf82215cd411e1d11a8&output=html&source=placeapi_v2', 'shop_hours': '', 'label': '厕所', 'children': []}","{'lat': 30.248491, 'lng': 120.115579}",http://api.map.baidu.com/place/detail?uid=feabcbf82215cd411e1d11a8&output=html&source=placeapi_v2,生活服务;公共厕所,life,False,0,120.115579,30.248491,生活服务,公共厕所
育英文化用品商店(西溪路),浙江省,杭州市,西湖区,浙江省杭州市西湖区留下街留下西苑4号,(0571)85223427,384f3334443aa0f9102935f2,384f3334443aa0f9102935f2,1,"{'distance': 0, 'tag': '购物;市场', 'type': 'shopping', 'detail_url': 'http://api.map.baidu.com/place/detail?uid=384f3334443aa0f9102935f2&output=html&source=placeapi_v2', 'overall_rating': '3.5', 'comment_num': '1', 'shop_hours': '', 'label': '文化用品', 'children': []}","{'lat': 30.247874, 'lng': 120.059971}",http://api.map.baidu.com/place/detail?uid=384f3334443aa0f9102935f2&output=html&source=placeapi_v2,购物;市场,shopping,False,0,120.059971,30.247874,购物,市场
禧雀会棋牌,浙江省,杭州市,西湖区,浙江省杭州市西湖区余杭塘路799号五洲国际广场3号楼4层,(0571)87396868,b6b9cebec7e0d3d335b06c08,b6b9cebec7e0d3d335b06c08,1,"{'distance': 336, 'tag': '休闲娱乐;游戏场所', 'type': 'life', 'detail_url': 'http://api.map.baidu.com/place/detail?uid=b6b9cebec7e0d3d335b06c08&output=html&source=placeapi_v2', 'overall_rating': '3.3', 'image_num': '20', 'comment_num': '11', 'shop_hours': '00:00-24:00', 'label': '棋牌室', 'children': []}","{'lat': 30.300567, 'lng': 120.102374}",http://api.map.baidu.com/place/detail?uid=b6b9cebec7e0d3d335b06c08&output=html&source=placeapi_v2,休闲娱乐;游戏场所,life,True,0,120.102374,30.300567,休闲娱乐,游戏场所
海尔智家成套服务中心,浙江省,杭州市,西湖区,浙江省杭州市西湖区留泗路44-2号,None,06f017671b6895ef8bfc069d,06f017671b6895ef8bfc069d,1,"{'distance': 0, 'tag': '购物;家电数码', 'type': 'shopping', 'detail_url': 'http://api.map.baidu.com/place/detail?uid=06f017671b6895ef8bfc069d&output=html&source=placeapi_v2', 'shop_hours': '', 'label': '公司', 'children': []}","{'lat': 30.217979, 'lng': 120.069005}",http://api.map.baidu.com/place/detail?uid=06f017671b6895ef8bfc069d&output=html&source=placeapi_v2,购物;家电数码,shopping,True,0,120.069005,30.217979,购物,家电数码
vango便利店(杭州灵隐店),浙江省,杭州市,西湖区,浙江省杭州市西湖区灵隐路38号,None,89158ed4324894ef51e5c5b3,89158ed4324894ef51e5c5b3,1,"{'distance': 0, 'tag': '购物;便利店', 'type': 'shopping', 'detail_url': 'http://api.map.baidu.com/place/detail?uid=89158ed4324894ef51e5c5b3&output=html&source=placeapi_v2', 'overall_rating': '3.8', 'comment_num': '0', 'shop_hours': '', 'label': '便利店', 'children': []}","{'lat': 30.246934, 'lng': 120.113524}",http://api.map.baidu.com/place/detail?uid=89158ed4324894ef51e5c5b3&output=html&source=placeapi_v2,购物;便利店,shopping,False,0,120.113524,30.246934,购物,便利店
杭州西湖风景名胜区-灵运斋,浙江省,杭州市,西湖区,杭州市西湖区灵隐路38号杭州灵隐休闲旅游购物中心2层,None,7f3dd655eed4bcbdabf0cd35,7f3dd655eed4bcbdabf0cd35,1,"{'distance': 0, 'tag': '购物', 'type': 'shopping', 'detail_url': 'http://api.map.baidu.com/place/detail?uid=7f3dd655eed4bcbdabf0cd35&output=html&source=placeapi_v2', 'comment_num': '0', 'shop_hours': '', 'label': '购物', 'children': []}","{'lat': 30.246752, 'lng': 120.112672}",http://api.map.baidu.com/place/detail?uid=7f3dd655eed4bcbdabf0cd35&output=html&source=placeapi_v2,购物,shopping,False,0,120.112672,30.246752,购物,行业缺失
聚百福(灵隐店),浙江省,杭州市,西湖区,浙江省杭州市西湖区灵隐路38号解百灵隐购物中心1层,None,e2d93a14575bb323eaf853d6,e2d93a14575bb323eaf853d6,1,"{'distance': 0, 'tag': '美食;小吃快餐店', 'type': 'cater', 'detail_url': 'http://api.map.baidu.com/place/detail?uid=e2d93a14575bb323eaf853d6&output=html&source=placeapi_v2', 'price': '57.0', 'overall_rating': '2.9', 'comment_num': '2', 'shop_hours': '', 'label': '小吃', 'children': []}","{'lat': 30.247261, 'lng': 120.113057}",http://api.map.baidu.com/place/detail?uid=e2d93a14575bb323eaf853d6&output=html&source=placeapi_v2,美食;小吃快餐店,cater,False,0,120.113057,30.247261,美食,小吃快餐店
淡黄茶行,浙江省,杭州市,西湖区,转塘街道外桐坞元帅茶交易中心8号,None,5e2b229b906a9911d92f285d,5e2b229b906a9911d92f285d,1,"{'distance': 0, 'tag': '购物;商铺', 'type': 'shopping', 'detail_url': 'http://api.map.baidu.com/place/detail?uid=5e2b229b906a9911d92f285d&output=html&source=placeapi_v2', 'shop_hours': '', 'label': '茶叶', 'children': []}","{'lat': 30.206687, 'lng': 120.065602}",http://api.map.baidu.com/place/detail?uid=5e2b229b906a9911d92f285d&output=html&source=placeapi_v2,购物;商铺,shopping,False,0,120.065602,30.206687,购物,商铺
炒茶中心茶叶专卖店,浙江省,杭州市,西湖区,浙江省杭州市西湖区梅家坞9号,None,ea383d8fca1a820f83a00cf1,ea383d8fca1a820f83a00cf1,1,"{'distance': 0, 'tag': '购物;商铺', 'type': 'shopping', 'detail_url': 'http://api.map.baidu.com/place/detail?uid=ea383d8fca1a820f83a00cf1&output=html&source=placeapi_v2', 'overall_rating': '0.0', 'shop_hours': '', 'label': '茶叶', 'children': []}","{'lat': 30.208053, 'lng': 120.093462}",http://api.map.baidu.com/place/detail?uid=ea383d8fca1a820f83a00cf1&output=html&source=placeapi_v2,购物;商铺,shopping,False,0,120.093462,30.208053,购物,商铺
元帅茶炒制中心,浙江省,杭州市,西湖区,杭州市西湖区转塘街道外桐坞村92号画外桐坞景区,None,054dfd635feaf0627ec87608,None,1,"{'distance': 0, 'tag': '购物;商铺', 'type': 'shopping', 'detail_url': 'http://api.map.baidu.com/place/detail?uid=054dfd635feaf0627ec87608&output=html&source=placeapi_v2', 'shop_hours': '', 'label': '商铺', 'children': []}","{'lat': 30.205139, 'lng': 120.061733}",http://api.map.baidu.com/place/detail?uid=054dfd635feaf0627ec87608&output=html&source=placeapi_v2,购物;商铺,shopping,False,0,120.061733,30.205139,购物,商铺
蓝胖子机器智能(杭州),浙江省,杭州市,西湖区,浙江省杭州市西湖区西溪路616号西溪谷财富中心5楼东侧,None,1015728db33313268936ee81,None,1,"{'distance': 0, 'tag': '购物;家电数码', 'type': 'shopping', 'detail_url': 'http://api.map.baidu.com/place/detail?uid=1015728db33313268936ee81&output=html&source=placeapi_v2', 'shop_hours': '', 'label': '家用电器', 'children': []}","{'lat': 30.266831, 'lng': 120.103384}",http://api.map.baidu.com/place/detail?uid=1015728db33313268936ee81&output=html&source=placeapi_v2,购物;家电数码,shopping,False,0,120.103384,30.266831,购物,家电数码
烟酒,浙江省,杭州市,西湖区,杭州市西湖区西溪路西溪谷财富中心南侧约170米,None,f5bc2d00f5a6714dd518b7ab,None,1,"{'distance': 4143, 'tag': '购物;商铺', 'type': 'shopping', 'detail_url': 'http://api.map.baidu.com/place/detail?uid=f5bc2d00f5a6714dd518b7ab&output=html&source=placeapi_v2', 'shop_hours': '', 'label': '烟酒店', 'children': []}","{'lat': 30.264749, 'lng': 120.102604}",http://api.map.baidu.com/place/detail?uid=f5bc2d00f5a6714dd518b7ab&output=html&source=placeapi_v2,购物;商铺,shopping,False,0,120.102604,30.264749,购物,商铺
王家坞食品店,浙江省,杭州市,西湖区,杭州市西湖区西溪路西溪谷财富中心西南侧约290米,None,45fa6e24b6f0696ea4c756f4,45fa6e24b6f0696ea4c756f4,1,"{'distance': 0, 'tag': '购物;便利店', 'type': 'shopping', 'detail_url': 'http://api.map.baidu.com/place/detail?uid=45fa6e24b6f0696ea4c756f4&output=html&source=placeapi_v2', 'shop_hours': '', 'label': '便利店', 'children': []}","{'lat': 30.264143, 'lng': 120.101098}",http://api.map.baidu.com/place/detail?uid=45fa6e24b6f0696ea4c756f4&output=html&source=placeapi_v2,购物;便利店,shopping,False,0,120.101098,30.264143,购物,便利店
白龙潭宝阳购物中心,浙江省,杭州市,西湖区,杭州市西湖区龙门坎村白龙潭景区,None,f8fc820ac30d751e40ab9a36,None,1,"{'distance': 0, 'tag': '购物', 'type': 'shopping', 'detail_url': 'http://api.map.baidu.com/place/detail?uid=f8fc820ac30d751e40ab9a36&output=html&source=placeapi_v2', 'shop_hours': '', 'label': '购物', 'children': []}","{'lat': 30.19724, 'lng': 120.028523}",http://api.map.baidu.com/place/detail?uid=f8fc820ac30d751e40ab9a36&output=html&source=placeapi_v2,购物,shopping,False,0,120.028523,30.19724,购物,行业缺失
INLOVE KTV(古墩店),浙江省,杭州市,西湖区,浙江省杭州市西湖区古墩路588号印象城F3,(0571)28258118,096f5edbb779b297931fc911,096f5edbb779b297931fc911,1,"{'distance': 0, 'tag': '休闲娱乐;ktv', 'indoor_floor': 'F3', 'type': 'life', 'detail_url': 'http://api.map.baidu.com/place/detail?uid=096f5edbb779b297931fc911&output=html&source=placeapi_v2', 'price': '90', 'overall_rating': '4.8', 'image_num': '5', 'comment_num': '0', 'shop_hours': '', 'label': 'KTV', 'children': []}","{'lat': 30.300295, 'lng': 120.105317}",http://api.map.baidu.com/place/detail?uid=096f5edbb779b297931fc911&output=html&source=placeapi_v2,休闲娱乐;ktv,life,False,0,120.105317,30.300295,休闲娱乐,ktv
都市生活广场,浙江省,杭州市,西湖区,浙江省杭州市西湖区三墩路440-1号生活都市广场杭州铂尚酒店,None,de09fb582b57a1266949f325,de09fb582b57a1266949f325,1,"{'distance': 166690, 'tag': '购物;购物中心', 'type': 'shopping', 'detail_url': 'http://api.map.baidu.com/place/detail?uid=de09fb582b57a1266949f325&output=html&source=placeapi_v2', 'shop_hours': '', 'label': '购物中心', 'children': []}","{'lat': 30.329585, 'lng': 120.100897}",http://api.map.baidu.com/place/detail?uid=de09fb582b57a1266949f325&output=html&source=placeapi_v2,购物;购物中心,shopping,False,0,120.100897,30.329585,购物,购物中心
